{
"type": "FeatureCollection",
"name": "Il-Misqa_canals",
"crs": { "type": "name", "properties": { "name": "urn:ogc:def:crs:OGC:1.3:CRS84" } },
"features": [
{ "type": "Feature", "properties": { "Name": "Misqa-C31", "Description": "", "Label": "C31", "source_file": "Il-Misqa-C31.geojson" }, "geometry": { "type": "Polygon", "coordinates": [ [ [ 14.435280291782696, 35.829051245938992 ], [ 14.43527812849822, 35.829050939204521 ], [ 14.435275275809246, 35.829050955583043 ], [ 14.435272822227768, 35.829051420571055 ], [ 14.435269541995218, 35.829053153628898 ], [ 14.435267448732997, 35.829054671226302 ], [ 14.435265135688534, 35.829056956193753 ], [ 14.435262720809186, 35.829059097651765 ], [ 14.435260867903558, 35.829061103208403 ], [ 14.43525920378544, 35.8290639678426 ], [ 14.435257589190529, 35.829066195055013 ], [ 14.435256743074063, 35.829067960728644 ], [ 14.435255400706115, 35.829070172047949 ], [ 14.435255231928505, 35.829071182454626 ], [ 14.435256570063522, 35.829071595172287 ], [ 14.435257815585482, 35.829068703619804 ], [ 14.435259626745001, 35.829065950316988 ], [ 14.435261362439519, 35.829063502936613 ], [ 14.435262720809181, 35.829061483847752 ], [ 14.43526453196869, 35.829059403574291 ], [ 14.435266494058176, 35.829057506854355 ], [ 14.435268078822755, 35.829055854872465 ], [ 14.435269434345138, 35.829054710486162 ], [ 14.435271625676812, 35.829053162753695 ], [ 14.435273663231285, 35.829052306170439 ], [ 14.435275779985421, 35.829052059896554 ], [ 14.435278524229744, 35.829051864314792 ], [ 14.435280893619256, 35.829051966119984 ], [ 14.435280291782696, 35.829051245938992 ] ] ] } },
{ "type": "Feature", "properties": { "Name": "Misqa-C30", "Description": "", "Label": "C30", "source_file": "Il-Misqa-C30.geojson" }, "geometry": { "type": "Polygon", "coordinates": [ [ [ 14.435262894262113, 35.829023546127097 ], [ 14.435261583147939, 35.829023998473829 ], [ 14.435262758755314, 35.829025928649877 ], [ 14.435263966816818, 35.829025501614943 ], [ 14.435262894262113, 35.829023546127097 ] ] ] } },
{ "type": "Feature", "properties": { "Name": "Misqa-C16", "Description": "", "Label": "C16", "source_file": "Il-Misqa-C16.geojson" }, "geometry": { "type": "Polygon", "coordinates": [ [ [ 14.435215685145986, 35.829105505897516 ], [ 14.435215368057255, 35.829104980194835 ], [ 14.435217799761723, 35.829104155809517 ], [ 14.435220490755782, 35.829103337646536 ], [ 14.435221730994883, 35.829102928359255 ], [ 14.435222440571446, 35.82910274295056 ], [ 14.435223051610699, 35.82910351135321 ], [ 14.435224240949447, 35.829105036782892 ], [ 14.435226335258513, 35.829107547776694 ], [ 14.435228185316941, 35.829109610229033 ], [ 14.435231317802215, 35.829113309007049 ], [ 14.435234970356316, 35.829117247773475 ], [ 14.435234313877755, 35.829117669061084 ], [ 14.435230890447459, 35.829114091387311 ], [ 14.435230120471868, 35.829113739655767 ], [ 14.435229866152254, 35.829113409234225 ], [ 14.435229820340872, 35.829112814957192 ], [ 14.435226188094783, 35.829108570480372 ], [ 14.435223402495465, 35.829105255216 ], [ 14.435222813840497, 35.829104539323438 ], [ 14.435221980750505, 35.829103536397909 ], [ 14.435219653688902, 35.829104279391835 ], [ 14.435217604639082, 35.829104913858536 ], [ 14.435215685145986, 35.829105505897516 ] ] ] } },
{ "type": "Feature", "properties": { "Name": "Misqa-C14", "Description": "", "Label": "C14", "source_file": "Il-Misqa-C14.geojson" }, "geometry": { "type": "Polygon", "coordinates": [ [ [ 14.435210917921015, 35.829077672276014 ], [ 14.435211372326098, 35.829077635859633 ], [ 14.435212204645072, 35.829077638283515 ], [ 14.435213359232957, 35.829078426121363 ], [ 14.435214350094054, 35.829079093417256 ], [ 14.435216111814949, 35.829080329484853 ], [ 14.43521772302959, 35.829081506759429 ], [ 14.435219179763562, 35.82908251867768 ], [ 14.435220380600155, 35.82908315870614 ], [ 14.435222322148746, 35.829083264781836 ], [ 14.435223851254689, 35.829082670794214 ], [ 14.435224852660875, 35.829082279724794 ], [ 14.435226106193024, 35.829081675425094 ], [ 14.435228742632157, 35.829081053750372 ], [ 14.435229314638047, 35.829082074317043 ], [ 14.435230408065038, 35.829082960044957 ], [ 14.435227112319362, 35.829083994011022 ], [ 14.435226004555277, 35.829084477178164 ], [ 14.435224378351402, 35.829084916668862 ], [ 14.435222616630494, 35.829085328691328 ], [ 14.435220583875662, 35.829085328691356 ], [ 14.435218957671749, 35.829084669455376 ], [ 14.435217500864088, 35.829083653133161 ], [ 14.435215434229997, 35.829082059979449 ], [ 14.43521302880341, 35.829080384421204 ], [ 14.435211368720251, 35.8290791483536 ], [ 14.43521010402003, 35.829078187331064 ], [ 14.435210438406852, 35.829077903927129 ], [ 14.435210917921015, 35.829077672276014 ] ] ] } },
{ "type": "Feature", "properties": { "Name": "Misqa-C12", "Description": "", "Label": "C12", "source_file": "Il-Misqa-C12.geojson" }, "geometry": { "type": "Polygon", "coordinates": [ [ [ 14.435236189855191, 35.829095247647551 ], [ 14.435239510378397, 35.829094827765424 ], [ 14.435243309299194, 35.829094527752083 ], [ 14.435244824054555, 35.829094419282796 ], [ 14.435245619371987, 35.829094018465419 ], [ 14.435246661977661, 35.829093772926015 ], [ 14.435247808370384, 35.829093903532033 ], [ 14.435248764702113, 35.829094148831985 ], [ 14.435249330312642, 35.829094450089478 ], [ 14.435249753923392, 35.829094760311982 ], [ 14.435250200233964, 35.829095205492649 ], [ 14.435249854434668, 35.829095598790047 ], [ 14.435249677770946, 35.829095492005166 ], [ 14.435249184149864, 35.829095046602191 ], [ 14.435248677813961, 35.82909472635874 ], [ 14.435247793539931, 35.829094327281361 ], [ 14.435246610845361, 35.829094312091755 ], [ 14.435244973514202, 35.829095026816866 ], [ 14.435243518169953, 35.829095097036316 ], [ 14.435239613892429, 35.829095242438605 ], [ 14.435236265271813, 35.829095564216047 ], [ 14.435236189855191, 35.829095247647551 ] ] ] } },
{ "type": "Feature", "properties": { "Name": "Misqa-C10", "Description": "", "Label": "C10", "source_file": "Il-Misqa-C10.geojson" }, "geometry": { "type": "Polygon", "coordinates": [ [ [ 14.435312878838404, 35.829102086287321 ], [ 14.435312666111674, 35.829102813132458 ], [ 14.435311891178564, 35.829103441422255 ], [ 14.435310857649197, 35.829104314660192 ], [ 14.435310022222229, 35.829104901272132 ], [ 14.435308941111547, 35.829105781592723 ], [ 14.435307499890905, 35.829107007890919 ], [ 14.435306193140958, 35.829108116637606 ], [ 14.435305342234022, 35.829109077551372 ], [ 14.435304338833681, 35.829111087858799 ], [ 14.435303974704988, 35.829112785692956 ], [ 14.435303454899261, 35.829113899743156 ], [ 14.435302795384409, 35.829115393949465 ], [ 14.435302406871536, 35.829116801352285 ], [ 14.435302019606606, 35.82911803260744 ], [ 14.435301575458153, 35.829119659940751 ], [ 14.4353011850733, 35.829121331565069 ], [ 14.435300350851913, 35.829124586485776 ], [ 14.435298977122294, 35.829127662718086 ], [ 14.435297338318358, 35.829129989052468 ], [ 14.435294413973693, 35.829132500284082 ], [ 14.435293687359474, 35.829133481552297 ], [ 14.43529279621306, 35.829133499353397 ], [ 14.435293694089063, 35.829131981476834 ], [ 14.435294413973695, 35.829129971098688 ], [ 14.435295424994896, 35.829127945147228 ], [ 14.435296286152933, 35.829126608066289 ], [ 14.435297373499441, 35.829125042429489 ], [ 14.435298526944749, 35.82912250811227 ], [ 14.435299195507472, 35.82911973683543 ], [ 14.43529937270984, 35.829117623825681 ], [ 14.435300089108292, 35.829115733541236 ], [ 14.435301566309017, 35.82911331837078 ], [ 14.435302775003583, 35.829110637708453 ], [ 14.435303759595966, 35.829109056952738 ], [ 14.435304704053813, 35.829108215192853 ], [ 14.435305980414215, 35.829107168043187 ], [ 14.435307530280456, 35.829105911463628 ], [ 14.435308958588548, 35.829104765758672 ], [ 14.435310098196062, 35.82910384180304 ], [ 14.43531092803233, 35.829103175236177 ], [ 14.43531175356161, 35.829102550782949 ], [ 14.435312392605896, 35.829101950773854 ], [ 14.435314390717744, 35.82909992731097 ], [ 14.435314861755499, 35.82910016137977 ], [ 14.435314396731659, 35.829100579127726 ], [ 14.435313920799391, 35.829101039335463 ], [ 14.435312878838404, 35.829102086287321 ] ] ] } },
{ "type": "Feature", "properties": { "Name": "Misqa-C09", "Description": "", "Label": "C09", "source_file": "Il-Misqa-C09.geojson" }, "geometry": { "type": "Polygon", "coordinates": [ [ [ 14.435325625360619, 35.829093808050736 ], [ 14.435326893985321, 35.829093383211358 ], [ 14.435326670123951, 35.82909392375683 ], [ 14.43532664558351, 35.829094878791167 ], [ 14.435326547421857, 35.82909577413588 ], [ 14.435326547421841, 35.82909660979093 ], [ 14.435326400179385, 35.829097206687379 ], [ 14.43532617931565, 35.829098002549301 ], [ 14.435325541264854, 35.829098768566389 ], [ 14.43532473067892, 35.829099679221137 ], [ 14.435323700733734, 35.829100509514319 ], [ 14.435322768197979, 35.82910114620384 ], [ 14.435321756322127, 35.8291016937808 ], [ 14.435320363237317, 35.829102180824307 ], [ 14.435319051302834, 35.829102642263678 ], [ 14.43531776195336, 35.829102926944827 ], [ 14.435316412230531, 35.829103036375798 ], [ 14.435314988886452, 35.82910303637582 ], [ 14.435314056350716, 35.829102936893086 ], [ 14.435313479650949, 35.829102872229328 ], [ 14.435312989020041, 35.829102831271264 ], [ 14.435312666111674, 35.829102813132458 ], [ 14.435312878838404, 35.829102086287321 ], [ 14.435313993791022, 35.829102200952725 ], [ 14.435315295641672, 35.82910226538467 ], [ 14.435316314068871, 35.829102250462221 ], [ 14.435317909195842, 35.829102101238099 ], [ 14.435319406161144, 35.829101743100267 ], [ 14.435320804964798, 35.829101225790062 ], [ 14.435322301930087, 35.829100449824708 ], [ 14.435323553491257, 35.82909961416965 ], [ 14.435324682350336, 35.829098499962981 ], [ 14.43532534494153, 35.82909762451488 ], [ 14.435325590345673, 35.829096629687484 ], [ 14.435325811209411, 35.829095744291052 ], [ 14.435325811209422, 35.829094948429095 ], [ 14.435325625360619, 35.829093808050736 ] ] ] } },
{ "type": "Feature", "properties": { "Name": "Misqa-C08", "Description": "", "Label": "C08", "source_file": "Il-Misqa-C08.geojson" }, "geometry": { "type": "Polygon", "coordinates": [ [ [ 14.435360324443428, 35.829083767330744 ], [ 14.435360824103032, 35.829083557270678 ], [ 14.435361242996793, 35.829083317142761 ], [ 14.435360004237729, 35.829083432796345 ], [ 14.435357843223111, 35.829083648199344 ], [ 14.435356286414782, 35.82908409221826 ], [ 14.435355789585067, 35.829084347660647 ], [ 14.43535513578424, 35.829084802894215 ], [ 14.435354559580546, 35.829085098913772 ], [ 14.435353826501833, 35.829085330131342 ], [ 14.435353221081364, 35.829085409506071 ], [ 14.435352892330517, 35.829085419193966 ], [ 14.435352610660377, 35.829085425537592 ], [ 14.435351577869865, 35.829085441396536 ], [ 14.435350125050505, 35.829085491514086 ], [ 14.435348767119761, 35.829085513224818 ], [ 14.435345839969589, 35.82908557884258 ], [ 14.435343049512582, 35.829085628423933 ], [ 14.435340036070697, 35.829085767647669 ], [ 14.435338559816962, 35.829085962657224 ], [ 14.435337692564811, 35.829086140059026 ], [ 14.435336879363254, 35.829086380314642 ], [ 14.43533585709476, 35.829086719940278 ], [ 14.435334982550291, 35.829087108050743 ], [ 14.435333714840231, 35.829087792885467 ], [ 14.435332337081528, 35.829088624479112 ], [ 14.435329920810416, 35.829090431998708 ], [ 14.435327986775228, 35.829091810073024 ], [ 14.435326669366125, 35.829092565316451 ], [ 14.435325565450484, 35.829092995228066 ], [ 14.435323851838552, 35.829093654652333 ], [ 14.435324115368537, 35.829094383576738 ], [ 14.43532562536063, 35.829093808050764 ], [ 14.43532689398533, 35.829093383211365 ], [ 14.435328493555632, 35.829092555892508 ], [ 14.435330010389537, 35.829091504973917 ], [ 14.435331361750652, 35.829090588215166 ], [ 14.435332520060177, 35.829089693816371 ], [ 14.435333824241328, 35.829088789993598 ], [ 14.43533501265026, 35.82908810999318 ], [ 14.435336521494721, 35.829087453385398 ], [ 14.435338850881454, 35.82908681777262 ], [ 14.435341729333674, 35.829086575304757 ], [ 14.435344671814359, 35.829086506941906 ], [ 14.435346307972326, 35.82908652165932 ], [ 14.435347908573867, 35.829086521962751 ], [ 14.435349878775346, 35.829086491539044 ], [ 14.435352033067797, 35.829086430498499 ], [ 14.435353644734898, 35.829086332251457 ], [ 14.435354808043455, 35.829086008036114 ], [ 14.435355571464733, 35.829085585573722 ], [ 14.435356056176637, 35.829085123812497 ], [ 14.43535654088855, 35.829084691525402 ], [ 14.435357068481798, 35.829084416906937 ], [ 14.435358102867093, 35.829084180934515 ], [ 14.435359915918172, 35.829083923312446 ], [ 14.435360324443428, 35.829083767330744 ] ] ] } },
{ "type": "Feature", "properties": { "Name": "Misqa-C04", "Description": "", "Label": "C04", "source_file": "Il-Misqa-C04.geojson" }, "geometry": { "type": "Polygon", "coordinates": [ [ [ 14.435365748488843, 35.829082179554248 ], [ 14.435367789762774, 35.829081724360385 ], [ 14.435367217267842, 35.829081962576886 ], [ 14.435366571279047, 35.829082267141054 ], [ 14.435365869951742, 35.829082489349567 ], [ 14.435364512362549, 35.829082747971931 ], [ 14.435361242996809, 35.829083317142754 ], [ 14.435357843223107, 35.829083648199365 ], [ 14.435358867819431, 35.829083441313422 ], [ 14.435359237232202, 35.829083377133209 ], [ 14.435359835329075, 35.829083255903953 ], [ 14.435360890794128, 35.829083099019037 ], [ 14.435361837163892, 35.829082957388948 ], [ 14.435362870344083, 35.829082759190676 ], [ 14.435364198718593, 35.829082493679799 ], [ 14.435365748488843, 35.829082179554248 ] ] ] } }
]
}
