{
"type": "FeatureCollection",
"name": "Il-Misqa_slabs",
"crs": { "type": "name", "properties": { "name": "urn:ogc:def:crs:OGC:1.3:CRS84" } },
"features": [
{ "type": "Feature", "properties": { "Name": "Misqa-9", "Description": "", "source_file": "Il-Misqa-slabs.geojson" }, "geometry": { "type": "Polygon", "coordinates": [ ] } },
{ "type": "Feature", "properties": { "Name": "Misqa-8", "Description": "", "source_file": "Il-Misqa-slabs.geojson" }, "geometry": { "type": "Polygon", "coordinates": [ ] } },
{ "type": "Feature", "properties": { "Name": "T7-S1", "Description": "", "source_file": "Il-Misqa-slabs.geojson" }, "geometry": { "type": "Polygon", "coordinates": [ [ [ 14.43520786938738, 35.829215847077258 ], [ 14.435206235025831, 35.829214804322397 ], [ 14.435205875627293, 35.829213206893471 ], [ 14.435205514700801, 35.829211825097893 ], [ 14.435205578048906, 35.829210359039884 ], [ 14.435205214983275, 35.829209279131028 ], [ 14.435204910070677, 35.829207466317591 ], [ 14.435205496886139, 35.829206865281655 ], [ 14.435205662788556, 35.82920587411477 ], [ 14.435206418081425, 35.829204502180616 ], [ 14.435207376694388, 35.829203165097944 ], [ 14.43520786034429, 35.829202175424236 ], [ 14.43520892653129, 35.829201188487986 ], [ 14.435209780275409, 35.829200286809609 ], [ 14.435211211972746, 35.829200034768803 ], [ 14.435212583378005, 35.829200817519265 ], [ 14.435213899991837, 35.829201858780891 ], [ 14.43521595893335, 35.829202774146488 ], [ 14.43521695474386, 35.829204245181671 ], [ 14.435218794825296, 35.829206151465264 ], [ 14.435220900002022, 35.829208015866456 ], [ 14.435222641807398, 35.829208843485453 ], [ 14.435224376889977, 35.829210619891235 ], [ 14.435225736683407, 35.829213041455127 ], [ 14.435225829459206, 35.829214896399769 ], [ 14.435225446224813, 35.829216662851394 ], [ 14.435224642077205, 35.829218039172112 ], [ 14.435223366197537, 35.829218723226383 ], [ 14.435222409287769, 35.829219236267065 ], [ 14.435221451766822, 35.829219835561098 ], [ 14.435220075166189, 35.829219785964177 ], [ 14.435218491623225, 35.829219045345042 ], [ 14.435215323926203, 35.829217650360071 ], [ 14.435212574697696, 35.829216990519321 ], [ 14.435210142605627, 35.829216418425013 ], [ 14.43520786938738, 35.829215847077258 ] ] ] } },
{ "type": "Feature", "properties": { "Name": "T4-S4", "Description": "", "source_file": "Il-Misqa-slabs.geojson" }, "geometry": { "type": "Polygon", "coordinates": [ [ [ 14.435271454864363, 35.82911792177498 ], [ 14.435271962336373, 35.829120110094948 ], [ 14.435272206550509, 35.829122062572182 ], [ 14.435271937664245, 35.829123592352119 ], [ 14.435271490207022, 35.829124310740632 ], [ 14.435271265840333, 35.82912475999327 ], [ 14.435270833193842, 35.829124808031487 ], [ 14.435269474315747, 35.82912465947124 ], [ 14.435267995086997, 35.829124637554941 ], [ 14.435266717579246, 35.829124676449744 ], [ 14.435265729545494, 35.82911969007381 ], [ 14.435265166282601, 35.829116754334656 ], [ 14.435265324649668, 35.829115011077818 ], [ 14.435265367192905, 35.829114412744836 ], [ 14.435265500094058, 35.829113865495955 ], [ 14.435265816723881, 35.829113401666618 ], [ 14.435266263707328, 35.829112994034531 ], [ 14.435267149098944, 35.829112657415656 ], [ 14.435267738636519, 35.829112697711309 ], [ 14.435268392152116, 35.829112813358705 ], [ 14.435269276431892, 35.8291128775546 ], [ 14.435269718252743, 35.82911295468174 ], [ 14.435270233373643, 35.829113092194198 ], [ 14.435270692243364, 35.829113364534408 ], [ 14.435270984273755, 35.82911377118274 ], [ 14.435271174346784, 35.82911425990828 ], [ 14.435271372146657, 35.829114958813335 ], [ 14.435271500491714, 35.82911635536766 ], [ 14.435271454864363, 35.82911792177498 ] ] ] } },
{ "type": "Feature", "properties": { "Name": "T3-S1", "Description": "", "source_file": "Il-Misqa-slabs.geojson" }, "geometry": { "type": "Polygon", "coordinates": [ [ [ 14.435287655837666, 35.829149464135511 ], [ 14.435285699785236, 35.829148142492016 ], [ 14.435283392918011, 35.829146403056562 ], [ 14.435281947630108, 35.829145115823934 ], [ 14.435279798217888, 35.829143345117181 ], [ 14.435276235794491, 35.829141279671738 ], [ 14.435275965634847, 35.829140574159354 ], [ 14.43527873640285, 35.829137866239357 ], [ 14.435279882656264, 35.829136975315933 ], [ 14.435281028909651, 35.829136084392474 ], [ 14.435282012945606, 35.829135896949794 ], [ 14.435282933793008, 35.829136261138892 ], [ 14.435285184339918, 35.829137672458373 ], [ 14.435287690690222, 35.829138996687504 ], [ 14.435289802609786, 35.82914051112958 ], [ 14.43529104954839, 35.829142053518531 ], [ 14.435293513190141, 35.829143857712538 ], [ 14.43529566010805, 35.829145980528835 ], [ 14.435295538558458, 35.829146492134441 ], [ 14.435294862401756, 35.829147609344112 ], [ 14.435294147845159, 35.829148598329155 ], [ 14.435292405182933, 35.829150446781853 ], [ 14.435290549588879, 35.829151590460924 ], [ 14.435287655837666, 35.829149464135511 ] ] ] } },
{ "type": "Feature", "properties": { "Name": "T4-S8", "Description": "", "source_file": "Il-Misqa-slabs.geojson" }, "geometry": { "type": "Polygon", "coordinates": [ [ [ 14.435255015025085, 35.8291082804759 ], [ 14.435257545733586, 35.829108248050751 ], [ 14.435261190422443, 35.829108442442326 ], [ 14.435261345981147, 35.829109528927141 ], [ 14.43526149934198, 35.829110925617002 ], [ 14.435260465103324, 35.829110965073824 ], [ 14.435254590255701, 35.829110627253648 ], [ 14.43525440733155, 35.8291095627985 ], [ 14.435254496492837, 35.829108499621817 ], [ 14.435255015025085, 35.8291082804759 ] ] ] } },
{ "type": "Feature", "properties": { "Name": "T4-S7", "Description": "", "source_file": "Il-Misqa-slabs.geojson" }, "geometry": { "type": "Polygon", "coordinates": [ [ [ 14.435255089369994, 35.829123881171164 ], [ 14.435254580675142, 35.829120113324265 ], [ 14.435255168369581, 35.829119600812739 ], [ 14.435261447962542, 35.829119471773758 ], [ 14.43526205147093, 35.8291235967936 ], [ 14.435255089369994, 35.829123881171164 ] ] ] } },
{ "type": "Feature", "properties": { "Name": "T4-S6", "Description": "", "source_file": "Il-Misqa-slabs.geojson" }, "geometry": { "type": "Polygon", "coordinates": [ [ [ 14.435254991748549, 35.829123920348835 ], [ 14.435262098456301, 35.8291238348327 ], [ 14.435262660315013, 35.82912696874719 ], [ 14.435255405068604, 35.829127410292891 ], [ 14.435254991748549, 35.829123920348835 ] ] ] } },
{ "type": "Feature", "properties": { "Name": "T4-S5", "Description": "", "source_file": "Il-Misqa-slabs.geojson" }, "geometry": { "type": "Polygon", "coordinates": [ [ [ 14.435255356398294, 35.829127410064189 ], [ 14.435262660034189, 35.829127008382265 ], [ 14.435263028615799, 35.829129943206667 ], [ 14.435255771403337, 35.829130662197841 ], [ 14.435255356398294, 35.829127410064189 ] ] ] } },
{ "type": "Feature", "properties": { "Name": "T4-S3", "Description": "", "source_file": "Il-Misqa-slabs.geojson" }, "geometry": { "type": "Polygon", "coordinates": [ [ [ 14.435264144118095, 35.829109892437053 ], [ 14.435264599930711, 35.829114254581221 ], [ 14.43526558746607, 35.829119134496828 ], [ 14.435266621986933, 35.8291242524515 ], [ 14.435267301698614, 35.829129198783392 ], [ 14.435263099593969, 35.829129322210299 ], [ 14.435261496352027, 35.829119511637508 ], [ 14.435261227197756, 35.829118613248312 ], [ 14.435259957089492, 35.829109699666972 ], [ 14.435264144118095, 35.829109892437053 ] ] ] } },
{ "type": "Feature", "properties": { "Name": "T4-S1", "Description": "", "source_file": "Il-Misqa-slabs.geojson" }, "geometry": { "type": "Polygon", "coordinates": [ [ [ 14.435249389715162, 35.829110853654868 ], [ 14.435250328472193, 35.829129487167172 ], [ 14.435245419973629, 35.829129475029539 ], [ 14.435245302057918, 35.829117612269322 ], [ 14.435245173458554, 35.829115154209148 ], [ 14.435245044578366, 35.82911273578403 ], [ 14.43524481161762, 35.829111268143102 ], [ 14.435249389715162, 35.829110853654868 ] ] ] } },
{ "type": "Feature", "properties": { "Name": "T4-S2", "Description": "", "source_file": "Il-Misqa-slabs.geojson" }, "geometry": { "type": "Polygon", "coordinates": [ [ [ 14.435255074486182, 35.829125981829669 ], [ 14.435255582057787, 35.829129908216814 ], [ 14.435251442553659, 35.829130245493403 ], [ 14.435250187429306, 35.829121915954786 ], [ 14.435249666010536, 35.829113074590737 ], [ 14.435249640087406, 35.829109863921687 ], [ 14.43525410631065, 35.829109805124716 ], [ 14.435254041894771, 35.829115056325435 ], [ 14.435254315912907, 35.829118625089983 ], [ 14.435254444733966, 35.82911964497444 ], [ 14.435254945324852, 35.829123603039619 ], [ 14.435255074486182, 35.829125981829669 ] ] ] } }
]
}
