{
"type": "FeatureCollection",
"name": "Il-Misqa_tanks",
"crs": { "type": "name", "properties": { "name": "urn:ogc:def:crs:OGC:1.3:CRS84" } },
"features": [
{ "type": "Feature", "properties": { "Name": "Misqa-T8", "Description": "", "Label": "T8", "source_file": "Il-Misqa-T8.geojson" }, "geometry": { "type": "Polygon", "coordinates": [ [ [ 14.435294320352176, 35.82924305773259 ], [ 14.435292579368637, 35.829243049552552 ], [ 14.435290873318619, 35.829242747270186 ], [ 14.43528943252241, 35.829242098464647 ], [ 14.435288622042641, 35.829241164068137 ], [ 14.435288250195107, 35.829239697481817 ], [ 14.435288373511163, 35.829238159980093 ], [ 14.435288921685309, 35.829236954063397 ], [ 14.435289897960619, 35.829235621984708 ], [ 14.435291745917043, 35.829235026421223 ], [ 14.435293904236746, 35.829235054872619 ], [ 14.435295340608581, 35.829235427831215 ], [ 14.435296438684933, 35.829235945684225 ], [ 14.435297027154643, 35.829236569837036 ], [ 14.435297711671625, 35.829237322095111 ], [ 14.435298231376329, 35.829238153833288 ], [ 14.435298519623656, 35.829239198495948 ], [ 14.435298412548917, 35.829240401810154 ], [ 14.435297745718849, 35.829241789754846 ], [ 14.435296553623482, 35.829242729373327 ], [ 14.435294320352176, 35.82924305773259 ] ] ] } },
{ "type": "Feature", "properties": { "Name": "Misqa-T7", "Description": "1.2 meters in diameter (src: Kunsill Lokali Qrendi)", "Label": "T7", "source_file": "Il-Misqa-T7.geojson" }, "geometry": { "type": "Polygon", "coordinates": [ [ [ 14.435211332523668, 35.829220391802707 ], [ 14.435210171116264, 35.829219868807712 ], [ 14.435206635158591, 35.829218127067087 ], [ 14.435205327406806, 35.829215835131883 ], [ 14.435204445152081, 35.829213286427525 ], [ 14.435203725132725, 35.829210264076345 ], [ 14.435204381102634, 35.829207377575621 ], [ 14.435206418081425, 35.829204502180616 ], [ 14.435209075036777, 35.829203519287574 ], [ 14.435211511690429, 35.829202580735668 ], [ 14.435214687026502, 35.829202897553905 ], [ 14.435217646558289, 35.829203774023398 ], [ 14.435219702138449, 35.829205163782341 ], [ 14.435221334360888, 35.829206508423731 ], [ 14.435221907424911, 35.829207848088011 ], [ 14.435223797714219, 35.829210142760438 ], [ 14.435225211993464, 35.829212348939826 ], [ 14.435225468532362, 35.829213514604263 ], [ 14.435225035395867, 35.829214849540293 ], [ 14.435223217408021, 35.8292172992996 ], [ 14.435220763313714, 35.829219832325968 ], [ 14.435218900312933, 35.829221160542858 ], [ 14.435217360865851, 35.829221670846088 ], [ 14.435214292667244, 35.829221182018934 ], [ 14.435211332523668, 35.829220391802707 ] ] ] } },
{ "type": "Feature", "properties": { "Name": "Misqa-T6", "Description": "", "Label": "T6", "source_file": "Il-Misqa-T6.geojson" }, "geometry": { "type": "Polygon", "coordinates": [ [ [ 14.435252213732189, 35.829214846040216 ], [ 14.435251137253964, 35.82921484098199 ], [ 14.435249797000214, 35.829214567847103 ], [ 14.435248403157086, 35.82921413563848 ], [ 14.435247323858784, 35.829213652453355 ], [ 14.435246625017218, 35.829212889208229 ], [ 14.435246196429681, 35.829212111509612 ], [ 14.43524597673705, 35.829211042088609 ], [ 14.435246002147027, 35.829209733596244 ], [ 14.435246328660575, 35.829208744451954 ], [ 14.435246933906612, 35.829207779971462 ], [ 14.435248040223652, 35.829206799656177 ], [ 14.435249533229467, 35.829205706573745 ], [ 14.435251218054262, 35.829204998901787 ], [ 14.435252533627819, 35.829204839971233 ], [ 14.43525394700583, 35.82920482910464 ], [ 14.435255330493666, 35.829204870005697 ], [ 14.435256740624148, 35.829204933940012 ], [ 14.435257899800357, 35.829205253938504 ], [ 14.435258542605203, 35.829205811368595 ], [ 14.435259189791314, 35.829206766906836 ], [ 14.435259400461158, 35.829207583146371 ], [ 14.43525932857778, 35.829208230566714 ], [ 14.435259169917561, 35.829209446264819 ], [ 14.435258822402279, 35.829211169222816 ], [ 14.435258332996746, 35.829212992115231 ], [ 14.43525761957445, 35.829214052260703 ], [ 14.435255779481603, 35.829214719079204 ], [ 14.435253802386049, 35.829214796018704 ], [ 14.435252213732189, 35.829214846040216 ] ] ] } },
{ "type": "Feature", "properties": { "Name": "Misqa-5", "Description": "3.3 meters long and 1.2 meters wide (src: Kunsill Lokali Qrendi)", "Label": "T5", "source_file": "Il-Misqa-T5.geojson" }, "geometry": { "type": "Polygon", "coordinates": [ [ [ 14.435259064658785, 35.829073728180305 ], [ 14.435259292866409, 35.829074449461565 ], [ 14.435259373038743, 35.829075239655502 ], [ 14.435259370268161, 35.829075500064647 ], [ 14.435259180530128, 35.829075934469685 ], [ 14.43525882392915, 35.829076634361371 ], [ 14.435257555321291, 35.829078013869086 ], [ 14.435255768312969, 35.829079100270171 ], [ 14.435252992147023, 35.829080278623159 ], [ 14.435249939664793, 35.829081391277818 ], [ 14.435246926949548, 35.829082471919321 ], [ 14.435244351900138, 35.829083168218055 ], [ 14.435241262388338, 35.829083926499173 ], [ 14.435238965480202, 35.829084430905134 ], [ 14.435237145776927, 35.829084551154146 ], [ 14.435235416330515, 35.829084482085669 ], [ 14.435234011566537, 35.829084489467469 ], [ 14.435232271488221, 35.829084308179439 ], [ 14.435231231264646, 35.829083666596041 ], [ 14.435230408065038, 35.829082960044957 ], [ 14.435229314638047, 35.829082074317043 ], [ 14.435228742632157, 35.829081053750372 ], [ 14.43522867487364, 35.829079680341941 ], [ 14.435229381839216, 35.829078287647711 ], [ 14.435230349557049, 35.829077344354943 ], [ 14.43523143286823, 35.829076087925337 ], [ 14.435232942191762, 35.829075129019529 ], [ 14.435234330617019, 35.829074491544979 ], [ 14.435236710253076, 35.829073472328844 ], [ 14.435238770839954, 35.829072838012713 ], [ 14.435241425423206, 35.82907207768794 ], [ 14.435244433803415, 35.829071608825032 ], [ 14.435246253734528, 35.829071456377022 ], [ 14.435248152971617, 35.8290712721017 ], [ 14.43525068414702, 35.82907118739557 ], [ 14.435252959031843, 35.829071160286901 ], [ 14.435255231928505, 35.829071182454626 ], [ 14.435256570063522, 35.829071595172287 ], [ 14.435257368118149, 35.82907201942924 ], [ 14.435258592505306, 35.829072768869096 ], [ 14.435259064658785, 35.829073728180305 ] ] ] } },
{ "type": "Feature", "properties": { "Name": "Misqa-T4", "Description": "diameter of 2.2 meters (src: Kunsill Lokali Qrendi)", "Label": "T4", "source_file": "Il-Misqa-T4.geojson" }, "geometry": { "type": "Polygon", "coordinates": [ [ [ 14.435252051975469, 35.829110843775197 ], [ 14.435254168970658, 35.82911071695586 ], [ 14.435256184427491, 35.829110699072785 ], [ 14.43525792018133, 35.829110675389366 ], [ 14.435259424159389, 35.829110700144611 ], [ 14.435261052127119, 35.829111077538613 ], [ 14.435262257602794, 35.829111602916477 ], [ 14.435263260970785, 35.829112209404734 ], [ 14.43526433093284, 35.829112898265933 ], [ 14.435265398956947, 35.829113860651482 ], [ 14.435266120695006, 35.829115136015083 ], [ 14.435266846639772, 35.829116908263501 ], [ 14.435267048692106, 35.829118053465457 ], [ 14.435266973377235, 35.82911920195221 ], [ 14.435266891473303, 35.829121280421845 ], [ 14.435266476017688, 35.829123029084037 ], [ 14.435265657121786, 35.829124830557262 ], [ 14.435264471280238, 35.829126274712777 ], [ 14.435263321739535, 35.829127336091958 ], [ 14.435261973773217, 35.829127958885209 ], [ 14.435260424086731, 35.829128608083948 ], [ 14.435259009720115, 35.829129121151773 ], [ 14.435257161038644, 35.829129303938636 ], [ 14.43525467496559, 35.829129374317098 ], [ 14.435251955910266, 35.82912914271391 ], [ 14.435249822148469, 35.82912853797275 ], [ 14.435247871617671, 35.829127927402745 ], [ 14.435245536394797, 35.829126430606401 ], [ 14.435244549811525, 35.829124657133136 ], [ 14.435243908490964, 35.82912320367295 ], [ 14.435243617696752, 35.829121327338889 ], [ 14.435243784522891, 35.829119196657722 ], [ 14.435244032427565, 35.829116636850422 ], [ 14.435244110259109, 35.829116109006499 ], [ 14.435244400890404, 35.829114992678406 ], [ 14.435244849157142, 35.82911439224354 ], [ 14.435245519265198, 35.829113626217854 ], [ 14.435246934313524, 35.829112418492237 ], [ 14.435249473020413, 35.829111420804914 ], [ 14.435252051975469, 35.829110843775197 ] ] ] } },
{ "type": "Feature", "properties": { "Name": "Misqa-T3", "Description": "2.3 meters long and 1.5 meters wide (src: Kunsill Lokali Qrendi)", "Label": "T3", "source_file": "Il-Misqa-T3.geojson" }, "geometry": { "type": "Polygon", "coordinates": [ [ [ 14.43528811120837, 35.829150705071463 ], [ 14.43528673391099, 35.829150742576473 ], [ 14.435285478190245, 35.829150769658632 ], [ 14.435283734449365, 35.829151080293983 ], [ 14.435282344041568, 35.829151062766925 ], [ 14.435280997093185, 35.829150627668838 ], [ 14.435279745967987, 35.829150006121523 ], [ 14.435278888208147, 35.829149122564466 ], [ 14.435278341178792, 35.829148207485147 ], [ 14.435278103945219, 35.829147392808196 ], [ 14.435278029878338, 35.829146413986649 ], [ 14.435278034396005, 35.82914577635097 ], [ 14.435278187256348, 35.829145161400454 ], [ 14.435278167266796, 35.829144171838912 ], [ 14.435278138061378, 35.829142577559409 ], [ 14.435278892938273, 35.829140833046836 ], [ 14.435279866979078, 35.82913956962593 ], [ 14.43528117789473, 35.829138447072523 ], [ 14.435282095970964, 35.829137633181325 ], [ 14.435283715765424, 35.829136568014391 ], [ 14.435284557897386, 35.829135846361638 ], [ 14.435285844667877, 35.829135247732978 ], [ 14.43528723819098, 35.82913482551124 ], [ 14.435288307405914, 35.829134445742042 ], [ 14.435289485476481, 35.829133945549373 ], [ 14.435290459880832, 35.829133609311022 ], [ 14.435291716068635, 35.829133516266502 ], [ 14.43529279621306, 35.829133499353397 ], [ 14.435293687359474, 35.829133481552297 ], [ 14.435294617759244, 35.829133639840975 ], [ 14.435295837186461, 35.829134029942722 ], [ 14.435296746063537, 35.82913430948588 ], [ 14.435297337097554, 35.829134730038071 ], [ 14.435297764964954, 35.82913531473487 ], [ 14.435298015153336, 35.829136206431244 ], [ 14.435298158666951, 35.829136910726952 ], [ 14.435298531288725, 35.82913767106956 ], [ 14.435298591778107, 35.829138660821386 ], [ 14.435298435802414, 35.829139715520682 ], [ 14.435298104951649, 35.829140681445644 ], [ 14.435297880853543, 35.829141823777519 ], [ 14.435297346725987, 35.829142898688247 ], [ 14.435296777112891, 35.829143938773797 ], [ 14.435295813416849, 35.829145247518014 ], [ 14.435294884149865, 35.829146342012194 ], [ 14.435294154052189, 35.829147196228938 ], [ 14.435293193394108, 35.829148076163847 ], [ 14.435292220831931, 35.829148739309247 ], [ 14.435291573034725, 35.829149220841067 ], [ 14.435290792523849, 35.829149724861352 ], [ 14.435289957000393, 35.829150131933041 ], [ 14.435289151489009, 35.829150439386609 ], [ 14.43528811120837, 35.829150705071463 ] ] ] } },
{ "type": "Feature", "properties": { "Name": "Misqa-T2", "Description": "3.4 meters long and 1.5 meters wide, considerable depth (src: Kunsill Lokali Qrendi)", "Label": "T2", "source_file": "Il-Misqa-T2.geojson" }, "geometry": { "type": "Polygon", "coordinates": [ [ [ 14.435314390717744, 35.82909992731097 ], [ 14.435312387602512, 35.829098858100863 ], [ 14.435311355133608, 35.829098343401157 ], [ 14.43530941014054, 35.829097352556815 ], [ 14.43530757003005, 35.829096115621127 ], [ 14.435305595773121, 35.829094927582943 ], [ 14.435303357433805, 35.829093243025682 ], [ 14.435301035565967, 35.829091330247913 ], [ 14.435299246635029, 35.829089736952191 ], [ 14.435297506076406, 35.829088183505966 ], [ 14.435296057716233, 35.829086591810359 ], [ 14.435294754878754, 35.829085062368343 ], [ 14.435294079815318, 35.82908325871432 ], [ 14.43529404174028, 35.829081698117477 ], [ 14.435294105610071, 35.829079617860302 ], [ 14.435294322343324, 35.829078739327834 ], [ 14.435294645503879, 35.829078066839195 ], [ 14.435295326548893, 35.829077701700264 ], [ 14.435296675389745, 35.829077509366407 ], [ 14.435299819988726, 35.829077484130487 ], [ 14.435302765516896, 35.829077818055623 ], [ 14.435305165830767, 35.829078353551374 ], [ 14.435309288418594, 35.829080195545032 ], [ 14.435311809108555, 35.829081514922827 ], [ 14.435313602530716, 35.829082474283268 ], [ 14.435315926363478, 35.829084109714195 ], [ 14.435317794834058, 35.829085450694329 ], [ 14.435319941821671, 35.829087337983346 ], [ 14.435321579460959, 35.829089683390961 ], [ 14.435322976923212, 35.82909159182524 ], [ 14.435323552057143, 35.829092822817522 ], [ 14.435323851838552, 35.829093654652333 ], [ 14.43532411536853, 35.829094383576752 ], [ 14.435324400399024, 35.829095165952047 ], [ 14.435324494122835, 35.829095717374059 ], [ 14.435324434458655, 35.82909628692552 ], [ 14.4353239938104, 35.829096976812458 ], [ 14.435323465401007, 35.829097797904758 ], [ 14.435322771829327, 35.829098457657601 ], [ 14.435321795632298, 35.829099230834565 ], [ 14.435320474365579, 35.829100091641841 ], [ 14.435319735450982, 35.829100521677674 ], [ 14.435319040316392, 35.829100857426319 ], [ 14.435318371746648, 35.829101017578644 ], [ 14.435317543306221, 35.829100955249793 ], [ 14.435316598028098, 35.829100719401517 ], [ 14.435315461543157, 35.829100363385024 ], [ 14.435314861755499, 35.82910016137977 ], [ 14.435314390717744, 35.82909992731097 ] ] ] } },
{ "type": "Feature", "properties": { "Name": "Misqa-T1", "Description": "depth appro. 1 m (src: Kunsill Lokali Qrendi)", "Label": "T1", "source_file": "Il-Misqa-T1.geojson" }, "geometry": { "type": "Polygon", "coordinates": [ [ [ 14.435369284640622, 35.829092268288029 ], [ 14.435366717646302, 35.82909181558324 ], [ 14.435365276280331, 35.829090813297029 ], [ 14.435364474883137, 35.829089377566589 ], [ 14.435363788528619, 35.829088068263687 ], [ 14.435363274403688, 35.829086995808183 ], [ 14.435363146187626, 35.829085839143872 ], [ 14.435362520879503, 35.829085515152919 ], [ 14.435363225094756, 35.829085152873532 ], [ 14.435363573455723, 35.829084455343136 ], [ 14.435364081594011, 35.829084018412274 ], [ 14.435365018030666, 35.829083343120523 ], [ 14.435365913821336, 35.82908268362786 ], [ 14.43536712963717, 35.829082212805837 ], [ 14.435368612964151, 35.829081822684749 ], [ 14.435369940894233, 35.829081673726741 ], [ 14.435371022195941, 35.829081732359029 ], [ 14.435372995123322, 35.829082235783368 ], [ 14.43537402876545, 35.829082750434296 ], [ 14.435374758780863, 35.829083351827414 ], [ 14.435375411395228, 35.829083968592805 ], [ 14.435376005373614, 35.829084679498038 ], [ 14.435376559035225, 35.829085626252152 ], [ 14.435376843186454, 35.829086430117172 ], [ 14.435376989628654, 35.829087579524739 ], [ 14.435376747616482, 35.829089010353357 ], [ 14.435375651294464, 35.82909101939633 ], [ 14.435373790629926, 35.829091801599198 ], [ 14.435370908094548, 35.82909224444014 ], [ 14.435369284640622, 35.829092268288029 ] ] ] } }
]
}
