{
"type": "FeatureCollection",
"name": "Il-Misqa_site",
"crs": { "type": "name", "properties": { "name": "urn:ogc:def:crs:OGC:1.3:CRS84" } },
"features": [
{ "type": "Feature", "properties": { "name": "Il-Misqa", "Description": "" }, "geometry": { "type": "Polygon", "coordinates": [ [ [ 14.434938641130096, 35.829206254864125, 0.0 ], [ 14.434945074666988, 35.829146342038221, 0.0 ], [ 14.434951482177549, 35.829090099073106, 0.0 ], [ 14.43496091998847, 35.829030200369246, 0.0 ], [ 14.434979414018333, 35.828964227598348, 0.0 ], [ 14.434999089326007, 35.828943523515527, 0.0 ], [ 14.435033959488495, 35.828898424294643, 0.0 ], [ 14.435088357480971, 35.828853416849491, 0.0 ], [ 14.435150110087092, 35.828830463849542, 0.0 ], [ 14.435196728541971, 35.82882334296405, 0.0 ], [ 14.435241844845594, 35.828816215001943, 0.0 ], [ 14.43528995676072, 35.828810324425966, 0.0 ], [ 14.435336523195938, 35.828810543210402, 0.0 ], [ 14.435389063543193, 35.828815683353056, 0.0 ], [ 14.435435456692241, 35.828840367847498, 0.0 ], [ 14.435465265636182, 35.828873537724881, 0.0 ], [ 14.435511632852585, 35.828901892052464, 0.0 ], [ 14.435544558759334, 35.828919173284042, 0.0 ], [ 14.435596951937731, 35.828945109222772, 0.0 ], [ 14.435632786896321, 35.828975860700162, 0.0 ], [ 14.435661154453742, 35.829000460463796, 0.0 ], [ 14.435683565404371, 35.829017692284467, 0.0 ], [ 14.435547817747489, 35.82909534783456, 0.0 ], [ 14.435517592847566, 35.829120895772206, 0.0 ], [ 14.43546919484535, 35.829167154920391, 0.0 ], [ 14.435422264278222, 35.829218314253843, 0.0 ], [ 14.435346602115427, 35.829296251804962, 0.0 ], [ 14.435243944376126, 35.829367945819357, 0.0 ], [ 14.435121810456078, 35.829432208240938, 0.0 ], [ 14.435032305475726, 35.829343707923705, 0.0 ], [ 14.43498914192717, 35.829287231929669, 0.0 ], [ 14.434962380692808, 35.829247959624794, 0.0 ], [ 14.434938641130096, 35.829206254864125, 0.0 ] ] ] } }
]
}
