{
"type": "FeatureCollection",
"name": "Il-Misqa_holes",
"crs": { "type": "name", "properties": { "name": "urn:ogc:def:crs:OGC:1.3:CRS84" } },
"features": [
{ "type": "Feature", "properties": { "Name": "Misqa-H07", "Description": "", "Label": "H07", "source_file": "Il-Misqa-H07.geojson" }, "geometry": { "type": "Polygon", "coordinates": [ [ [ 14.435262524737313, 35.829023669841646 ], [ 14.435262016182012, 35.829023839369142 ], [ 14.435261583147939, 35.829023998473829 ], [ 14.435261772550041, 35.829024302638082 ], [ 14.435261209479483, 35.829024411698448 ], [ 14.435260085681278, 35.829024460745387 ], [ 14.435259076265924, 35.829024346728588 ], [ 14.435258181582652, 35.829024074185938 ], [ 14.435257456064532, 35.82902360786472 ], [ 14.435256956298582, 35.829022973946458 ], [ 14.43525675474014, 35.829022120043106 ], [ 14.435256720213552, 35.829021377740858 ], [ 14.435256953404686, 35.829020605144279 ], [ 14.435257384994561, 35.829019966204037 ], [ 14.435257953554343, 35.829019574379792 ], [ 14.435258666954972, 35.829019190103004 ], [ 14.43525975096712, 35.829018855740365 ], [ 14.435261000160452, 35.829018591783104 ], [ 14.435262346749509, 35.829018513646751 ], [ 14.435263298016135, 35.82901864091609 ], [ 14.435264122427796, 35.829018963594926 ], [ 14.435264760057713, 35.829019514829227 ], [ 14.435265168032974, 35.829020235102071 ], [ 14.435265479186851, 35.829021187390282 ], [ 14.435265489728671, 35.829021944498024 ], [ 14.435265175169627, 35.829022685511966 ], [ 14.435264471547258, 35.829023374941308 ], [ 14.435263684380111, 35.829023674666153 ], [ 14.435263084117183, 35.829023875817313 ], [ 14.435262894262113, 35.829023546127097 ], [ 14.435262524737313, 35.829023669841646 ] ] ] } },
{ "type": "Feature", "properties": { "Name": "Misqa-H06", "Description": "", "Label": "H06", "source_file": "Il-Misqa-H06.geojson" }, "geometry": { "type": "Polygon", "coordinates": [ [ [ 14.435247624722452, 35.829181679720094 ], [ 14.435247523380355, 35.829182271305989 ], [ 14.435247290293491, 35.829182739644843 ], [ 14.435247016669816, 35.829183002571909 ], [ 14.435246378214512, 35.829183207983682 ], [ 14.435245638417088, 35.829183314797774 ], [ 14.435244695935436, 35.829183257282494 ], [ 14.435243996674883, 35.829183051870743 ], [ 14.435243601440645, 35.829182649263672 ], [ 14.435243358219589, 35.829182197357774 ], [ 14.435243267011684, 35.829181778317746 ], [ 14.435243297414319, 35.829181178515341 ], [ 14.435243479830108, 35.829180767691767 ], [ 14.435243733185414, 35.829180406167062 ], [ 14.435244118285413, 35.829180061075284 ], [ 14.435244574324926, 35.829179863879965 ], [ 14.43524529385393, 35.829179732416414 ], [ 14.435245841101306, 35.829179798148182 ], [ 14.435246449153977, 35.829179946044682 ], [ 14.435246905193475, 35.829180143239995 ], [ 14.435247310561927, 35.829180504764722 ], [ 14.435247604454055, 35.829181178515377 ], [ 14.435247624722452, 35.829181679720094 ] ] ] } },
{ "type": "Feature", "properties": { "Name": "Misqa-H05", "Description": "", "Label": "H05", "source_file": "Il-Misqa-H05.geojson" }, "geometry": { "type": "Polygon", "coordinates": [ [ [ 14.435232673583421, 35.829109351778804 ], [ 14.435232216884057, 35.829108950451236 ], [ 14.435231944702863, 35.829108450195335 ], [ 14.435231903169381, 35.829107826279035 ], [ 14.435232030217772, 35.829107190680467 ], [ 14.435232388797726, 35.829106306681432 ], [ 14.435232745786726, 35.829105647214512 ], [ 14.435233560977622, 35.829105177017041 ], [ 14.43523440521275, 35.829104931495628 ], [ 14.435235492496442, 35.829104974028056 ], [ 14.43523636489196, 35.829105077922812 ], [ 14.435237175133272, 35.829105306269732 ], [ 14.435237876560537, 35.829105758644943 ], [ 14.435238378417216, 35.829106272454496 ], [ 14.435238618372338, 35.829106997098549 ], [ 14.435238645295362, 35.829107521150817 ], [ 14.435238487132006, 35.829108066623981 ], [ 14.435238327116181, 35.829108617999687 ], [ 14.4352380470885, 35.829109104507651 ], [ 14.435237767060837, 35.829109461280133 ], [ 14.43523736702128, 35.829109818052679 ], [ 14.435237019019795, 35.829110011093206 ], [ 14.435236766961975, 35.829110142391286 ], [ 14.435235841570073, 35.829110272527807 ], [ 14.435234630158744, 35.829110226263793 ], [ 14.435233511896765, 35.829109942015918 ], [ 14.435232673583421, 35.829109351778804 ] ] ] } },
{ "type": "Feature", "properties": { "Name": "Misqa-H04", "Description": "", "Label": "H04", "source_file": "Il-Misqa-H04.geojson" }, "geometry": { "type": "Polygon", "coordinates": [ [ [ 14.435230844658493, 35.829097570765583 ], [ 14.435230601260402, 35.82909686646758 ], [ 14.435230415840239, 35.829096326190282 ], [ 14.435230372624613, 35.82909574805219 ], [ 14.435230541965053, 35.829095219074155 ], [ 14.435231243548763, 35.829094692597167 ], [ 14.435231872665238, 35.829094377689138 ], [ 14.435232703351568, 35.829094092893669 ], [ 14.43523406235075, 35.829094099279615 ], [ 14.435234914786422, 35.829094356256505 ], [ 14.435235727049269, 35.829094802773071 ], [ 14.435236189855191, 35.829095247647551 ], [ 14.435236265271813, 35.829095564216047 ], [ 14.435236339568203, 35.829096038886334 ], [ 14.435236363772391, 35.829096546784655 ], [ 14.435236265534254, 35.829097056832317 ], [ 14.435236109113433, 35.829097431755052 ], [ 14.435235858754053, 35.829097709913874 ], [ 14.435235477403543, 35.829098112676405 ], [ 14.435234895324577, 35.829098466334486 ], [ 14.435234466936535, 35.829098830346993 ], [ 14.435233932372816, 35.829099155331591 ], [ 14.435233482103948, 35.829099268802771 ], [ 14.435232997785393, 35.82909917983671 ], [ 14.435232561732825, 35.829098956245936 ], [ 14.43523186676914, 35.829098548425783 ], [ 14.435231384907521, 35.829098112710241 ], [ 14.435230844658493, 35.829097570765583 ] ] ] } },
{ "type": "Feature", "properties": { "Name": "Misqa-H03", "Description": "", "Label": "H03", "source_file": "Il-Misqa-H03.geojson" }, "geometry": { "type": "Polygon", "coordinates": [ [ [ 14.435258177026107, 35.829090449102125 ], [ 14.435259184420591, 35.829090193275249 ], [ 14.435260066318115, 35.829090316225248 ], [ 14.435260643344321, 35.829090721251269 ], [ 14.435261275590776, 35.82909180368668 ], [ 14.435261416833429, 35.829093248238749 ], [ 14.435261507363883, 35.829094213871379 ], [ 14.435261615874934, 35.82909523854542 ], [ 14.435261624551933, 35.829096297439868 ], [ 14.43526164904852, 35.829097457468329 ], [ 14.435261687697606, 35.829098744475033 ], [ 14.435261702948598, 35.829099328080716 ], [ 14.435261542674874, 35.829099696211678 ], [ 14.435261118271168, 35.829099905007453 ], [ 14.435260139650389, 35.829099999143565 ], [ 14.435259322785846, 35.829099954717464 ], [ 14.43525890999009, 35.829099733970459 ], [ 14.435258588202995, 35.829099150069531 ], [ 14.435258270023487, 35.829098389583102 ], [ 14.435258171741093, 35.829097978711978 ], [ 14.435258122599876, 35.829097625113803 ], [ 14.435257999954196, 35.82909677161944 ], [ 14.435257667480496, 35.829095408166665 ], [ 14.435257611151275, 35.829095056631509 ], [ 14.43525739819615, 35.829094224743272 ], [ 14.435257292246934, 35.829092752765654 ], [ 14.435257529219891, 35.829091562745752 ], [ 14.435257713382404, 35.829090842733279 ], [ 14.435258177026107, 35.829090449102125 ] ] ] } },
{ "type": "Feature", "properties": { "Name": "Misqa-H02", "Description": "", "Label": "H02", "source_file": "Il-Misqa-H02.geojson" }, "geometry": { "type": "Polygon", "coordinates": [ [ [ 14.435251112778197, 35.829099033773524 ], [ 14.435250297019021, 35.829097944195269 ], [ 14.435249997349388, 35.829097279543248 ], [ 14.435249842635338, 35.829096359715365 ], [ 14.435249854434668, 35.829095598790047 ], [ 14.435250200233964, 35.829095205492649 ], [ 14.435250649076993, 35.829094694117359 ], [ 14.435251205760505, 35.82909421222481 ], [ 14.435251834622973, 35.82909400761082 ], [ 14.435252442974431, 35.829093930635175 ], [ 14.435253079457722, 35.829093981950102 ], [ 14.435253783827793, 35.829093981950116 ], [ 14.435254383846738, 35.829094055978963 ], [ 14.435254983865708, 35.829094267489964 ], [ 14.435255555576241, 35.829094615868065 ], [ 14.435255924470107, 35.829095128540295 ], [ 14.435256000179065, 35.829095512100203 ], [ 14.435255937514796, 35.82909605467831 ], [ 14.435255854226403, 35.829096740861061 ], [ 14.435255810263122, 35.82909741126177 ], [ 14.435255414862564, 35.829097872442198 ], [ 14.435255000195379, 35.829098285631581 ], [ 14.435254585301942, 35.829098730753586 ], [ 14.435254170747879, 35.829099127976669 ], [ 14.435253756420064, 35.829099493267123 ], [ 14.435252794708134, 35.82909963244974 ], [ 14.435252168447535, 35.829099469838646 ], [ 14.435251112778197, 35.829099033773524 ] ] ] } },
{ "type": "Feature", "properties": { "Name": "Misqa-H01", "Description": "", "Label": "H01", "source_file": "Il-Misqa-H01.geojson" }, "geometry": { "type": "Polygon", "coordinates": [ [ [ 14.435370926418354, 35.829079686148241 ], [ 14.435372812505346, 35.829079715995626 ], [ 14.435372831650184, 35.829079707382554 ], [ 14.43537283775149, 35.829079693702674 ], [ 14.435372832721402, 35.829077785519317 ], [ 14.435372859106931, 35.829077077378095 ], [ 14.435372785132087, 35.82907699167118 ], [ 14.435370955624386, 35.829076957809214 ], [ 14.43537076533315, 35.8290769612193 ], [ 14.435370670050338, 35.829076982291909 ], [ 14.435369560287446, 35.829076964166248 ], [ 14.435367933305063, 35.829076953961255 ], [ 14.435367866902336, 35.829076967829963 ], [ 14.435367843149194, 35.829077011896608 ], [ 14.435367818048066, 35.829079660562179 ], [ 14.435367822454946, 35.829079677679594 ], [ 14.435367845863533, 35.829079685499856 ], [ 14.435369257314852, 35.829079678307011 ], [ 14.435370926418354, 35.829079686148241 ] ] ] } }
]
}
