{
"type": "FeatureCollection",
"name": "Il-Misqa_gutters",
"crs": { "type": "name", "properties": { "name": "urn:ogc:def:crs:OGC:1.3:CRS84" } },
"features": [
{ "type": "Feature", "properties": { "Name": "Misqa-G24", "Description": "", "Label": "G24", "source_file": "Il-Misqa-G24.geojson" }, "geometry": { "type": "Polygon", "coordinates": [ [ [ 14.435236294879644, 35.829118743343514 ], [ 14.435236167591977, 35.829117792571516 ], [ 14.43523846073847, 35.829117482451139 ], [ 14.435240941125677, 35.82911714899484 ], [ 14.435243275826533, 35.829116809943073 ], [ 14.435242898096728, 35.829117645870539 ], [ 14.435239421939738, 35.829118073931419 ], [ 14.435236294879644, 35.829118743343514 ] ] ] } },
{ "type": "Feature", "properties": { "Name": "Misqa-G23", "Description": "", "Label": "G23", "source_file": "Il-Misqa-G23.geojson" }, "geometry": { "type": "Polygon", "coordinates": [ [ [ 14.435270752262507, 35.829103274588221 ], [ 14.435269726678948, 35.82910205539531 ], [ 14.435269155486088, 35.829102333453818 ], [ 14.435270301879051, 35.829103474867665 ], [ 14.435271250299742, 35.829104269319998 ], [ 14.435271732565994, 35.829104095305929 ], [ 14.435270752262507, 35.829103274588221 ] ] ] } },
{ "type": "Feature", "properties": { "Name": "Misqa-G22", "Description": "", "Label": "G22", "source_file": "Il-Misqa-G22.geojson" }, "geometry": { "type": "Polygon", "coordinates": [ [ [ 14.435263227707724, 35.829074730510349 ], [ 14.435259373038743, 35.829075239655502 ], [ 14.435259370268161, 35.829075500064647 ], [ 14.435265229310241, 35.829074836647955 ], [ 14.435265483936266, 35.829074824025433 ], [ 14.435265568044677, 35.829074928062681 ], [ 14.435265725084808, 35.829075516105505 ], [ 14.43526589767384, 35.829076304595986 ], [ 14.435266035983124, 35.829077141291691 ], [ 14.435266476837935, 35.829078387067689 ], [ 14.435266825432539, 35.82907922393656 ], [ 14.435267276611681, 35.829079942652982 ], [ 14.435267832336958, 35.829080568611651 ], [ 14.43526813293408, 35.829080424780862 ], [ 14.435267846134627, 35.829080063441147 ], [ 14.435267350334888, 35.829079367899169 ], [ 14.435266873777501, 35.829078312249003 ], [ 14.435266449022794, 35.829077152000409 ], [ 14.435266262840155, 35.829076257945509 ], [ 14.435266124726684, 35.829075393612854 ], [ 14.43526590113412, 35.829074618701647 ], [ 14.435265817319426, 35.829074473208955 ], [ 14.435265605408476, 35.829074444575369 ], [ 14.435263227707724, 35.829074730510349 ] ] ] } },
{ "type": "Feature", "properties": { "Name": "Misqa-G21", "Description": "", "Label": "G21", "source_file": "Il-Misqa-G21.geojson" }, "geometry": { "type": "Polygon", "coordinates": [ [ [ 14.435357172248757, 35.829220678949433 ], [ 14.435360276127073, 35.829221795316535 ], [ 14.435361671312538, 35.82922538267281 ], [ 14.435363393797919, 35.829230514065927 ], [ 14.43536108878274, 35.829231219398935 ], [ 14.43535923374068, 35.829225701756741 ], [ 14.435357172248757, 35.829220678949433 ] ] ] } },
{ "type": "Feature", "properties": { "Name": "Misqa-G20", "Description": "", "Label": "G20", "source_file": "Il-Misqa-G20.geojson" }, "geometry": { "type": "Polygon", "coordinates": [ [ [ 14.435318149243772, 35.829228869180774 ], [ 14.435320118762588, 35.829227776649013 ], [ 14.435326030180203, 35.829233643883782 ], [ 14.435331998316711, 35.829241053883933 ], [ 14.435336821167157, 35.829247797431968 ], [ 14.435334580676574, 35.829248943780186 ], [ 14.435329423112089, 35.82924170285618 ], [ 14.435324059880788, 35.829234846590474 ], [ 14.435318149243772, 35.829228869180774 ] ] ] } },
{ "type": "Feature", "properties": { "Name": "Misqa-G19", "Description": "", "Label": "G19", "source_file": "Il-Misqa-G19.geojson" }, "geometry": { "type": "Polygon", "coordinates": [ [ [ 14.435270907450485, 35.829190653313368 ], [ 14.435269657126049, 35.829188811721821 ], [ 14.435267781639375, 35.829187122188308 ], [ 14.435266406282485, 35.829186159154162 ], [ 14.435265468539155, 35.82918544110241 ], [ 14.435264239053446, 35.829184511858891 ], [ 14.435263403964422, 35.829183788834229 ], [ 14.435262322871683, 35.829182994078209 ], [ 14.435261346389922, 35.829182209769144 ], [ 14.435260627608967, 35.829181634227055 ], [ 14.435259519542523, 35.82918067670429 ], [ 14.435258599287605, 35.829180921942523 ], [ 14.435256769399702, 35.82918140242267 ], [ 14.435255083775974, 35.829181855339932 ], [ 14.435254017651978, 35.829182154660359 ], [ 14.435253634690003, 35.829181687438336 ], [ 14.435255023267555, 35.829181284481713 ], [ 14.435256559156779, 35.829180874761633 ], [ 14.435258212839315, 35.829180448993412 ], [ 14.435259549326295, 35.829180133042932 ], [ 14.435260132037378, 35.829180329395165 ], [ 14.435261186177934, 35.829181267954297 ], [ 14.435263342987597, 35.829183016621649 ], [ 14.435264697505755, 35.829184038789478 ], [ 14.435265749862161, 35.829184917346957 ], [ 14.435266656347387, 35.829185601608074 ], [ 14.435268667285863, 35.829187240455646 ], [ 14.435270428159454, 35.829188879303196 ], [ 14.435271657645149, 35.829190737790015 ], [ 14.435271574290214, 35.829191337574407 ], [ 14.435269844674718, 35.829193170718185 ], [ 14.435267052283464, 35.829195840180994 ], [ 14.435264134859745, 35.829198332242662 ], [ 14.435263496708403, 35.829198080839163 ], [ 14.435266187475715, 35.829195848628601 ], [ 14.435268722117048, 35.829193558957328 ], [ 14.435270928289228, 35.829191227754762 ], [ 14.435270907450485, 35.829190653313368 ] ] ] } },
{ "type": "Feature", "properties": { "Name": "Misqa-G18", "Description": "", "Label": "G18", "source_file": "Il-Misqa-G18.geojson" }, "geometry": { "type": "Polygon", "coordinates": [ [ [ 14.435188768123476, 35.829099995694776 ], [ 14.435187762353678, 35.82910051234996 ], [ 14.435184176136485, 35.829107030687609 ], [ 14.435181139835331, 35.829112466539343 ], [ 14.435178181432686, 35.829117381059 ], [ 14.435178921248665, 35.829117577874968 ], [ 14.435181076216148, 35.829114401142959 ], [ 14.435183891750224, 35.829109474909664 ], [ 14.435186572895326, 35.829104569824992 ], [ 14.435188768123476, 35.829099995694776 ] ] ] } },
{ "type": "Feature", "properties": { "Name": "Misqa-G17", "Description": "", "Label": "G17", "source_file": "Il-Misqa-G17.geojson" }, "geometry": { "type": "Polygon", "coordinates": [ [ [ 14.435266930084744, 35.829157186392287 ], [ 14.435270483743572, 35.829154854466914 ], [ 14.435270607180016, 35.829154991691574 ], [ 14.435267057631302, 35.829157305771759 ], [ 14.43526538876425, 35.829158371689402 ], [ 14.435265234674523, 35.829158225936965 ], [ 14.435266930084744, 35.829157186392287 ] ] ] } },
{ "type": "Feature", "properties": { "Name": "Misqa-G16", "Description": "", "Label": "G16", "source_file": "Il-Misqa-G16.geojson" }, "geometry": { "type": "Polygon", "coordinates": [ [ [ 14.435332655768569, 35.829143717793819 ], [ 14.435330211102533, 35.829143131707426 ], [ 14.435330338986114, 35.829142101943965 ], [ 14.435329938874633, 35.829140131056519 ], [ 14.435329496804171, 35.829138921648607 ], [ 14.435328801978571, 35.829137178024723 ], [ 14.435327742725219, 35.829135680639574 ], [ 14.43532670358821, 35.829134140538748 ], [ 14.435325409291234, 35.829133136633203 ], [ 14.435324061944758, 35.829132398981876 ], [ 14.435322289227427, 35.82913174642642 ], [ 14.435321182402525, 35.829131551315918 ], [ 14.435318462238895, 35.829131523442875 ], [ 14.43531504050555, 35.829131675806998 ], [ 14.435311816009628, 35.829131758801033 ], [ 14.435309359250859, 35.829131758801047 ], [ 14.435306339484841, 35.829131634309967 ], [ 14.435303538760939, 35.829131563181086 ], [ 14.435301155131887, 35.829131737070142 ], [ 14.435297659992376, 35.829132985272686 ], [ 14.435295568319402, 35.82913329815571 ], [ 14.435293687359474, 35.829133481552297 ], [ 14.435294413973686, 35.829132500284103 ], [ 14.435296222662647, 35.829132334048673 ], [ 14.43530103039879, 35.829130922590394 ], [ 14.435303472346552, 35.829130884764083 ], [ 14.435307114715766, 35.82913087186639 ], [ 14.435310638812711, 35.829131011854642 ], [ 14.435313960001992, 35.829131015107116 ], [ 14.435317394899393, 35.829130887363569 ], [ 14.435319936265055, 35.829130688181564 ], [ 14.435322052504601, 35.829130928860593 ], [ 14.43532340875014, 35.82913136388909 ], [ 14.435325091853665, 35.829132134940295 ], [ 14.435326784298555, 35.829133327589169 ], [ 14.435328175592913, 35.829134919360364 ], [ 14.435329341889142, 35.829136532058314 ], [ 14.435329996437664, 35.82913836429293 ], [ 14.435330995701387, 35.82914038718274 ], [ 14.435331920734923, 35.829141904020283 ], [ 14.435332655768569, 35.829143717793819 ] ] ] } },
{ "type": "Feature", "properties": { "Name": "Misqa-G15", "Description": "", "Label": "G15", "source_file": "Il-Misqa-G15.geojson" }, "geometry": { "type": "Polygon", "coordinates": [ [ [ 14.435368531742997, 35.82914312735619 ], [ 14.435365882271133, 35.829142871521086 ], [ 14.435363007520856, 35.829142656549124 ], [ 14.43536011260665, 35.829142560324094 ], [ 14.435358662706314, 35.829142662145067 ], [ 14.435356536403862, 35.829142192196883 ], [ 14.435354893691775, 35.829141601228088 ], [ 14.435354178727962, 35.829140570405386 ], [ 14.435353150671274, 35.829139617303014 ], [ 14.435350877517312, 35.829139230817319 ], [ 14.435347949299699, 35.829138175787207 ], [ 14.435346218621405, 35.829136327564008 ], [ 14.435343705601655, 35.829133192730232 ], [ 14.435341435554825, 35.829130571474543 ], [ 14.43533945686643, 35.829128195140328 ], [ 14.435338498955387, 35.829125279718589 ], [ 14.435336497121501, 35.829123025006822 ], [ 14.435335482808588, 35.829120325979844 ], [ 14.435334456079207, 35.829117682101867 ], [ 14.435334262938808, 35.829115361620445 ], [ 14.435334676485695, 35.829112489128086 ], [ 14.435334199239916, 35.829110894429171 ], [ 14.435332911447377, 35.829108693368497 ], [ 14.435331187583024, 35.829106436890335 ], [ 14.435330240465394, 35.829104200539632 ], [ 14.435329228203431, 35.829102857964791 ], [ 14.43532796366048, 35.829101659436517 ], [ 14.435326850042513, 35.829100801901561 ], [ 14.435324730678918, 35.829099679221109 ], [ 14.435325541264856, 35.829098768566396 ], [ 14.435326179315654, 35.829098002549316 ], [ 14.435328673838439, 35.829099651822752 ], [ 14.435330021782875, 35.829100894677879 ], [ 14.43533084502411, 35.829102163219311 ], [ 14.435331315453839, 35.82910354800805 ], [ 14.435331895327407, 35.829105334144757 ], [ 14.435333426182751, 35.829107903912742 ], [ 14.43533454358387, 35.829109749606623 ], [ 14.435335392625621, 35.829111326648309 ], [ 14.435336134333234, 35.829112139588666 ], [ 14.435336281870667, 35.829113151710018 ], [ 14.435335827030469, 35.829114675705611 ], [ 14.435335697547991, 35.829116682708424 ], [ 14.435336479326304, 35.829119188970566 ], [ 14.43533768818264, 35.829122674960587 ], [ 14.435341470032272, 35.829126445440728 ], [ 14.435343233595468, 35.829129228963744 ], [ 14.435344660834009, 35.829131022124741 ], [ 14.435346950947876, 35.829133562010419 ], [ 14.435349466031202, 35.829136651282255 ], [ 14.435352646522063, 35.829138521088943 ], [ 14.435355012099354, 35.829139605693875 ], [ 14.435357253495296, 35.829140835099068 ], [ 14.435359930724321, 35.829141522750234 ], [ 14.435363238182292, 35.829142161566985 ], [ 14.435368375422591, 35.829142683768595 ], [ 14.435368531742997, 35.82914312735619 ] ] ] } },
{ "type": "Feature", "properties": { "Name": "Misqa-G14", "Description": "", "Label": "G14", "source_file": "Il-Misqa-G14.geojson" }, "geometry": { "type": "Polygon", "coordinates": [ [ [ 14.435258237496091, 35.829186936339624 ], [ 14.435257810301906, 35.829186657566559 ], [ 14.435257028849136, 35.829186361898188 ], [ 14.435255882718398, 35.829186285869184 ], [ 14.435254653232688, 35.829186505508545 ], [ 14.435253026271512, 35.829187032738758 ], [ 14.435251153306629, 35.829187724772275 ], [ 14.435249468307678, 35.829188325880772 ], [ 14.435246790685094, 35.829188899221535 ], [ 14.435244849069015, 35.829189090581657 ], [ 14.435243095264466, 35.829189234447853 ], [ 14.435242140603677, 35.829189039114546 ], [ 14.435241246852099, 35.829188681055655 ], [ 14.435241097632696, 35.829188372144003 ], [ 14.435242173382578, 35.829188749688804 ], [ 14.435243061830349, 35.829188921173603 ], [ 14.435244764429498, 35.829188781778939 ], [ 14.43524662649944, 35.829188558754709 ], [ 14.435249254988351, 35.8291879386883 ], [ 14.435250879636474, 35.829187357855069 ], [ 14.435252850681625, 35.829186708252578 ], [ 14.435254048909213, 35.829186260526185 ], [ 14.435255153362482, 35.8291859648578 ], [ 14.43525612236393, 35.829185829695106 ], [ 14.43525673710678, 35.829185871933447 ], [ 14.435257331010881, 35.829186057782145 ], [ 14.435258633432177, 35.829186784281603 ], [ 14.435259654530491, 35.829187620600685 ], [ 14.435260467241367, 35.829188304861766 ], [ 14.43526130079101, 35.829189048256538 ], [ 14.435261842598264, 35.829189546668928 ], [ 14.435261496189293, 35.82918980212547 ], [ 14.435260852758075, 35.829189225657508 ], [ 14.435260136555847, 35.82918852414759 ], [ 14.435259341949356, 35.829187814897075 ], [ 14.435258237496091, 35.829186936339624 ] ] ] } },
{ "type": "Feature", "properties": { "Name": "Misqa-G13", "Description": "", "Label": "G13", "source_file": "Il-Misqa-G13.geojson" }, "geometry": { "type": "Polygon", "coordinates": [ [ [ 14.435240109254641, 35.829187975460613 ], [ 14.435239199379543, 35.829186928962358 ], [ 14.435238606902738, 35.82918588246411 ], [ 14.435237950946277, 35.82918449285166 ], [ 14.435237189190387, 35.829183086083468 ], [ 14.435236335211266, 35.829181252463577 ], [ 14.435236965479509, 35.829181001686337 ], [ 14.435251742761199, 35.829176262603845 ], [ 14.435253887664942, 35.829180299352927 ], [ 14.435253198538588, 35.829180562279994 ], [ 14.435251153202444, 35.82917680345227 ], [ 14.435237105411325, 35.829181351061216 ], [ 14.435241097632685, 35.829188372143996 ], [ 14.435241246852096, 35.829188681055641 ], [ 14.435241906841886, 35.829190059959515 ], [ 14.435241451817241, 35.829190166898208 ], [ 14.435240892170411, 35.829189090581664 ], [ 14.435240679937802, 35.829188763378255 ], [ 14.435240109254641, 35.829187975460613 ] ] ] } },
{ "type": "Feature", "properties": { "Name": "Misqa-G12", "Description": "", "Label": "G12", "source_file": "Il-Misqa-G12.geojson" }, "geometry": { "type": "Polygon", "coordinates": [ [ [ 14.435236766608437, 35.82911019228731 ], [ 14.435240739059514, 35.829110362683302 ], [ 14.435240706037956, 35.829110699337562 ], [ 14.435237796314446, 35.82911059834391 ], [ 14.435234630158744, 35.829110226263793 ], [ 14.435235841570073, 35.829110272527807 ], [ 14.435236766608437, 35.82911019228731 ] ] ] } },
{ "type": "Feature", "properties": { "Name": "Misqa-G11", "Description": "", "Label": "G11", "source_file": "Il-Misqa-G11.geojson" }, "geometry": { "type": "Polygon", "coordinates": [ [ [ 14.435233164718854, 35.829123007021074 ], [ 14.435231687292449, 35.829126616027771 ], [ 14.435229697694819, 35.829130159135815 ], [ 14.435228659416413, 35.82913470001283 ], [ 14.43522705397274, 35.829137919379157 ], [ 14.435226684702537, 35.829139922220371 ], [ 14.43522652939687, 35.829142032456438 ], [ 14.435225678975153, 35.82914372746562 ], [ 14.435224021453404, 35.829145556465441 ], [ 14.43522272884152, 35.829146499858446 ], [ 14.435220026534283, 35.82914767889968 ], [ 14.435217834301593, 35.829148946087365 ], [ 14.435216107599976, 35.829150611719385 ], [ 14.435214963991552, 35.829154595802152 ], [ 14.435214817119457, 35.829158296117178 ], [ 14.435215578713045, 35.829161016737771 ], [ 14.43521736496216, 35.829163242934804 ], [ 14.435219411641732, 35.829165524879826 ], [ 14.435220717386736, 35.829167537424588 ], [ 14.435221843213741, 35.829169743585751 ], [ 14.435223734568897, 35.82917177755354 ], [ 14.43522415529819, 35.829172725564014 ], [ 14.435224136859855, 35.829173951978532 ], [ 14.435223262595393, 35.829175695207248 ], [ 14.435220881655559, 35.829178179875996 ], [ 14.435219644610877, 35.829180855777537 ], [ 14.43521977870785, 35.829184171775275 ], [ 14.435220113950328, 35.829186128757478 ], [ 14.435221521968645, 35.829187107248558 ], [ 14.435223533423422, 35.829187922657766 ], [ 14.435227060335487, 35.829188801326524 ], [ 14.435229819608445, 35.829189218425874 ], [ 14.435232867166613, 35.829189105822671 ], [ 14.435236322312997, 35.829189223012904 ], [ 14.435240679937802, 35.829188763378269 ], [ 14.435240892170411, 35.829189090581664 ], [ 14.435236449490317, 35.829189550855553 ], [ 14.435234513879932, 35.82919004273397 ], [ 14.435232608646265, 35.829190238581383 ], [ 14.435230324872386, 35.829190417498459 ], [ 14.435227493681117, 35.829190276961818 ], [ 14.435223672788496, 35.829189559320646 ], [ 14.435220650338252, 35.82918868370637 ], [ 14.43521817074137, 35.829187649495687 ], [ 14.435217134260036, 35.829185919246775 ], [ 14.435216879578974, 35.829183479648115 ], [ 14.435216575945084, 35.829181530043364 ], [ 14.435216560380246, 35.829179822925759 ], [ 14.435217566107639, 35.829177811582767 ], [ 14.435220164949811, 35.829174818154954 ], [ 14.435220328818575, 35.829172551276002 ], [ 14.435217843056613, 35.829168896745152 ], [ 14.435215187013283, 35.829165497334856 ], [ 14.435212002386159, 35.829161445596874 ], [ 14.435210660112977, 35.829159383329866 ], [ 14.435210458967495, 35.829157698150198 ], [ 14.435211071511439, 35.829154305943199 ], [ 14.435212510393866, 35.829149833988019 ], [ 14.435214189090054, 35.829147500793887 ], [ 14.435216426283283, 35.829146010612682 ], [ 14.435219944619812, 35.82914438986834 ], [ 14.435221635514766, 35.829143325906728 ], [ 14.43522320352259, 35.829141480576993 ], [ 14.435223385639345, 35.829139251778926 ], [ 14.435223565657134, 35.829137986858676 ], [ 14.435223905690735, 35.829136721938397 ], [ 14.435224425742156, 35.829136170562911 ], [ 14.435224925791584, 35.829135667838173 ], [ 14.435225285827167, 35.829135084028799 ], [ 14.435224985797495, 35.829134629954858 ], [ 14.435224105710507, 35.829134678605641 ], [ 14.435223725672959, 35.829135359716574 ], [ 14.435222765578063, 35.829136024610548 ], [ 14.435221645467353, 35.829136154345981 ], [ 14.435220345338838, 35.829136008393654 ], [ 14.435219365241965, 35.829135246198113 ], [ 14.435219125218234, 35.829134127230105 ], [ 14.435219405245904, 35.829132797442078 ], [ 14.435220205324999, 35.829132164981921 ], [ 14.435221445447569, 35.829132035246502 ], [ 14.4352225455563, 35.829132002812621 ], [ 14.435223265627481, 35.829132408235829 ], [ 14.435223785678891, 35.829132797442085 ], [ 14.435224105710528, 35.829133543420753 ], [ 14.435224985797506, 35.829133656939248 ], [ 14.435225545852855, 35.829133332600684 ], [ 14.435226045902283, 35.829132894743651 ], [ 14.435226045902281, 35.829131516304805 ], [ 14.435226065904276, 35.829130040564387 ], [ 14.435227095760409, 35.829128719988802 ], [ 14.435229210812453, 35.829128057507084 ], [ 14.435231504612679, 35.829122778965385 ], [ 14.435232934598154, 35.829120966116221 ], [ 14.435234118299373, 35.829119164578884 ], [ 14.4352348273296, 35.829118417894513 ], [ 14.435236167591977, 35.829117792571516 ], [ 14.435236294879644, 35.829118743343514 ], [ 14.435235461741595, 35.829119758697679 ], [ 14.435234208225138, 35.829121467603279 ], [ 14.435233164718854, 35.829123007021074 ] ] ] } },
{ "type": "Feature", "properties": { "Name": "Misqa-G10", "Description": "", "Label": "G10", "source_file": "Il-Misqa-G10.geojson" }, "geometry": { "type": "Polygon", "coordinates": [ [ [ 14.435227726454109, 35.829087139509646 ], [ 14.43522780326596, 35.829086572253409 ], [ 14.435227840127006, 35.829086275232299 ], [ 14.435227966483417, 35.82908561067682 ], [ 14.435228731200361, 35.829085600118155 ], [ 14.435228629950677, 35.829086439495818 ], [ 14.435228334613099, 35.829087783680237 ], [ 14.435227758202581, 35.829090616985773 ], [ 14.435227850295544, 35.829092827260091 ], [ 14.435228271722252, 35.829093445704402 ], [ 14.435228752969591, 35.82909396810733 ], [ 14.435229423322491, 35.82909451066336 ], [ 14.435230162457229, 35.829095361774598 ], [ 14.435230372624613, 35.82909574805219 ], [ 14.435230415840239, 35.829096326190282 ], [ 14.435229722105055, 35.829095744995378 ], [ 14.435229157586562, 35.82909528962692 ], [ 14.435228545552819, 35.829094862931932 ], [ 14.435227852568394, 35.829094175785791 ], [ 14.435227253249522, 35.8290936239313 ], [ 14.435226976143053, 35.829092669036392 ], [ 14.435226809193253, 35.829091541545218 ], [ 14.435227153567457, 35.829089766153139 ], [ 14.43522737332809, 35.829088598119661 ], [ 14.435227726454109, 35.829087139509646 ] ] ] } },
{ "type": "Feature", "properties": { "Name": "Misqa-G09", "Description": "", "Label": "G09", "source_file": "Il-Misqa-G09.geojson" }, "geometry": { "type": "Polygon", "coordinates": [ [ [ 14.435254170747879, 35.829099127976669 ], [ 14.435254585301942, 35.829098730753586 ], [ 14.435255000195379, 35.829098285631581 ], [ 14.435255414862564, 35.829097872442198 ], [ 14.435255810263122, 35.82909741126177 ], [ 14.435256866672599, 35.829099440364715 ], [ 14.435258863319376, 35.829103257010765 ], [ 14.435260586198615, 35.829105237920878 ], [ 14.435261400349169, 35.829106451491235 ], [ 14.435261620443782, 35.829107643658787 ], [ 14.43526220896155, 35.829108446716837 ], [ 14.435262134995082, 35.829109209439103 ], [ 14.43526149285883, 35.829109522816665 ], [ 14.435258350564657, 35.82910788885475 ], [ 14.435256843560335, 35.82910769565904 ], [ 14.435255422431275, 35.829108284548091 ], [ 14.4352546913869, 35.829108243890119 ], [ 14.435254186502762, 35.829108539301096 ], [ 14.435254379351424, 35.829107125736378 ], [ 14.435254416577937, 35.82910509726225 ], [ 14.435253834973935, 35.829103441669623 ], [ 14.435252987034914, 35.829100160259166 ], [ 14.435252794708134, 35.82909963244974 ], [ 14.435253756420064, 35.829099493267123 ], [ 14.435254170747879, 35.829099127976669 ] ] ] } },
{ "type": "Feature", "properties": { "Name": "Misqa-G08", "Description": "", "Label": "G08", "source_file": "Il-Misqa-G08.geojson" }, "geometry": { "type": "Polygon", "coordinates": [ [ [ 14.435256728737228, 35.829095117409189 ], [ 14.435255924470107, 35.829095128540295 ], [ 14.435256000179065, 35.829095512100203 ], [ 14.435256687191778, 35.829095448417469 ], [ 14.435257667480496, 35.829095408166665 ], [ 14.435257611151275, 35.829095056631509 ], [ 14.435256728737228, 35.829095117409189 ] ] ] } },
{ "type": "Feature", "properties": { "Name": "Misqa-G07", "Description": "", "Label": "G07", "source_file": "Il-Misqa-G07.geojson" }, "geometry": { "type": "Polygon", "coordinates": [ [ [ 14.435335088228433, 35.829080044411768 ], [ 14.435340255427651, 35.829081080250205 ], [ 14.435344236460288, 35.829081888251061 ], [ 14.435347332864721, 35.829082699679979 ], [ 14.435348621245627, 35.829083115318078 ], [ 14.435350157192927, 35.8290836915982 ], [ 14.435351883517116, 35.829084388776835 ], [ 14.435352545281653, 35.829084825954894 ], [ 14.435352892330512, 35.829085419193973 ], [ 14.435352610660358, 35.829085425537606 ], [ 14.43535235246274, 35.829084918051407 ], [ 14.435351648287392, 35.82908446131389 ], [ 14.435350521606811, 35.829083966514837 ], [ 14.43534945704717, 35.829083554164285 ], [ 14.435347586132629, 35.82908292489288 ], [ 14.43534418402859, 35.829082044410924 ], [ 14.435334958074394, 35.829080130125327 ], [ 14.435335088228433, 35.829080044411768 ] ] ] } },
{ "type": "Feature", "properties": { "Name": "Misqa-G06", "Description": "", "Label": "G06", "source_file": "Il-Misqa-G06.geojson" }, "geometry": { "type": "Polygon", "coordinates": [ [ [ 14.435341656957528, 35.829075771190602 ], [ 14.43534569070828, 35.829077261450067 ], [ 14.435347553452891, 35.829078347771279 ], [ 14.435348926001542, 35.829079328109934 ], [ 14.435350037112363, 35.829080149474805 ], [ 14.435351180902915, 35.829080838361371 ], [ 14.435351965216427, 35.829081421265407 ], [ 14.4353527168502, 35.829082295621483 ], [ 14.435353435804259, 35.829083302455736 ], [ 14.435353729921859, 35.829084521255048 ], [ 14.435353826501846, 35.829085330131342 ], [ 14.435353221081369, 35.829085409506064 ], [ 14.435352880248857, 35.829083646899015 ], [ 14.435352310062386, 35.829082741659697 ], [ 14.435351611854044, 35.829081871500108 ], [ 14.435350690419792, 35.829081193890531 ], [ 14.435349743221012, 35.829080558058919 ], [ 14.435348429218539, 35.829079630563832 ], [ 14.435347095936663, 35.829078718710257 ], [ 14.435345411287729, 35.829077759694108 ], [ 14.435341126678134, 35.829076094770627 ], [ 14.435341656957528, 35.829075771190602 ] ] ] } },
{ "type": "Feature", "properties": { "Name": "Misqa-G05", "Description": "", "Label": "G05", "source_file": "Il-Misqa-G05.geojson" }, "geometry": { "type": "Polygon", "coordinates": [ [ [ 14.435364581992447, 35.829078507823318 ], [ 14.435363523629029, 35.829081067167174 ], [ 14.435363142358712, 35.829081994365701 ], [ 14.435362870344086, 35.829082759190683 ], [ 14.435361837163887, 35.829082957388927 ], [ 14.435362312342537, 35.82908212433437 ], [ 14.435362879568887, 35.829080949229187 ], [ 14.435363835785525, 35.829078435570523 ], [ 14.435364581992447, 35.829078507823318 ] ] ] } },
{ "type": "Feature", "properties": { "Name": "Misqa-G04", "Description": "", "Label": "G04", "source_file": "Il-Misqa-G04.geojson" }, "geometry": { "type": "Polygon", "coordinates": [ [ [ 14.435369414202315, 35.829080305633163 ], [ 14.435369257314852, 35.829079678307011 ], [ 14.435370926418354, 35.829079686148241 ], [ 14.435370786368095, 35.829080185750968 ], [ 14.435370634194499, 35.829080644871631 ], [ 14.435370642416238, 35.829081236127394 ], [ 14.435371106025748, 35.829081485909136 ], [ 14.435370410040631, 35.829081486196294 ], [ 14.43536947982324, 35.82908148422014 ], [ 14.43536907080051, 35.829081481401055 ], [ 14.435369500903573, 35.82908120549903 ], [ 14.435369523419716, 35.82908065481277 ], [ 14.435369414202315, 35.829080305633163 ] ] ] } },
{ "type": "Feature", "properties": { "Name": "Misqa-G03", "Description": "", "Label": "G03", "source_file": "Il-Misqa-G03.geojson" }, "geometry": { "type": "Polygon", "coordinates": [ [ [ 14.435336090931781, 35.829039287939466 ], [ 14.435333710678862, 35.829034765281065 ], [ 14.435334673143867, 35.829034758355071 ], [ 14.435337396054567, 35.829039922829899 ], [ 14.435338766433514, 35.829042832744349 ], [ 14.435339731758686, 35.829045243197136 ], [ 14.435341115654538, 35.829045372305927 ], [ 14.435342290265069, 35.829045848473704 ], [ 14.435342942826463, 35.829047171162003 ], [ 14.43534300808261, 35.829048123497593 ], [ 14.435342747058064, 35.829049552000882 ], [ 14.435346846826675, 35.829054031656881 ], [ 14.435350488584591, 35.829057773460889 ], [ 14.435353676961403, 35.829061683546392 ], [ 14.435356874891562, 35.829064992530874 ], [ 14.435358813123084, 35.829067098009482 ], [ 14.435360038323461, 35.829068354289511 ], [ 14.435362020269771, 35.829070100876891 ], [ 14.435365237098658, 35.829072148806084 ], [ 14.435373479072153, 35.829076788406809 ], [ 14.435376389333026, 35.829082354611614 ], [ 14.435375975319305, 35.829082329100004 ], [ 14.435373197875473, 35.829076953844172 ], [ 14.435365234556647, 35.829072507648711 ], [ 14.435361689209467, 35.829070285410637 ], [ 14.43535889875742, 35.829067616697515 ], [ 14.435354751817544, 35.829063667342936 ], [ 14.435352086526093, 35.829060852670814 ], [ 14.435348288628584, 35.829056586217639 ], [ 14.435344769998387, 35.82905293808269 ], [ 14.435341702959825, 35.829049816538529 ], [ 14.435340332580873, 35.829049499093365 ], [ 14.435339157970361, 35.829048811295472 ], [ 14.435338718746815, 35.829047809397146 ], [ 14.435338570665092, 35.829046747901749 ], [ 14.435338896945794, 35.829045531028527 ], [ 14.435337461310715, 35.829042462391605 ], [ 14.435336090931781, 35.829039287939466 ] ] ] } },
{ "type": "Feature", "properties": { "Name": "Misqa-G02", "Description": "", "Label": "G02", "source_file": "Il-Misqa-G02.geojson" }, "geometry": { "type": "Polygon", "coordinates": [ [ [ 14.43538060642654, 35.829078305835743 ], [ 14.435380215927102, 35.829079388954568 ], [ 14.435379928190665, 35.829080172132784 ], [ 14.435379722664662, 35.829080921984286 ], [ 14.435379569489848, 35.829081722486592 ], [ 14.43537907835794, 35.829081727063929 ], [ 14.435379229402203, 35.829080955311042 ], [ 14.435379393823014, 35.82908023878624 ], [ 14.435379658160951, 35.829079337211425 ], [ 14.435379945491283, 35.829078264203666 ], [ 14.43538060642654, 35.829078305835743 ] ] ] } },
{ "type": "Feature", "properties": { "Name": "Misqa-G01", "Description": "", "Label": "G01", "source_file": "Il-Misqa-G01.geojson" }, "geometry": { "type": "Polygon", "coordinates": [ [ [ 14.435375975319294, 35.829082329100025 ], [ 14.435376389333014, 35.829082354611607 ], [ 14.435377451540289, 35.829082381795082 ], [ 14.435377763078568, 35.829082616885465 ], [ 14.435375499930883, 35.829082625798868 ], [ 14.435373830730599, 35.829082658450638 ], [ 14.435373350656384, 35.829082305410687 ], [ 14.435374967648302, 35.829082301006814 ], [ 14.435375975319294, 35.829082329100025 ] ] ] } }
]
}
