{
"type": "FeatureCollection",
"name": "Il-Maqluba",
"crs": { "type": "name", "properties": { "name": "urn:ogc:def:crs:OGC:1.3:CRS84" } },
"features": [
{ "type": "Feature", "properties": { "Name": "Il-Maqluba", "Description": "" }, "geometry": { "type": "Polygon", "coordinates": [ [ [ 14.457632144406306, 35.83027434391888, 0.0 ], [ 14.457705423284594, 35.830215327195326, 0.0 ], [ 14.457825993974915, 35.830209023384249, 0.0 ], [ 14.457951891005626, 35.83024383012701, 0.0 ], [ 14.457976775501198, 35.830294159374127, 0.0 ], [ 14.458043672351154, 35.830349243251945, 0.0 ], [ 14.458129211907808, 35.830548214425896, 0.0 ], [ 14.458093404442828, 35.830867615812068, 0.0 ], [ 14.458022990239543, 35.830917515316472, 0.0 ], [ 14.457938561384156, 35.830967351571047, 0.0 ], [ 14.457926759814784, 35.831054036821136, 0.0 ], [ 14.457755424781595, 35.83110576353338, 0.0 ], [ 14.457629416114489, 35.83106491029784, 0.0 ], [ 14.457512316689344, 35.830995102063788, 0.0 ], [ 14.457398049883748, 35.830898717397723, 0.0 ], [ 14.457378833547244, 35.830839283261383, 0.0 ], [ 14.457396614427692, 35.830697842861568, 0.0 ], [ 14.457422881627812, 35.830545027808753, 0.0 ], [ 14.45746553104053, 35.830456199265079, 0.0 ], [ 14.457552964483398, 35.830376703206142, 0.0 ], [ 14.457632144406306, 35.83027434391888, 0.0 ] ] ] } }
]
}
