{
"type": "FeatureCollection",
"name": "Il-Misqa_detail_flows",
"crs": { "type": "name", "properties": { "name": "urn:ogc:def:crs:OGC:1.3:CRS84" } },
"features": [
{ "type": "Feature", "properties": { "Name": null, "Description": null, "Label": null, "source_file": "Il-Misqa-Flow-Z-T8.geojson" }, "geometry": { "type": "LineString", "coordinates": [ [ 14.435366681491033, 35.829234330670047 ], [ 14.435364910871915, 35.829226444587952 ], [ 14.435360430149167, 35.82921915175573 ] ] } },
{ "type": "Feature", "properties": { "Name": null, "Description": null, "Label": null, "source_file": "Il-Misqa-Flow-Z-T8.geojson" }, "geometry": { "type": "LineString", "coordinates": [ [ 14.435339595440338, 35.829253311366514 ], [ 14.435328528373001, 35.829234316691966 ], [ 14.435317768349273, 35.829225341678722 ] ] } },
{ "type": "Feature", "properties": { "Name": null, "Description": null, "Label": null, "source_file": "Il-Misqa-Flow-Z-T8.geojson" }, "geometry": { "type": "LineString", "coordinates": [ [ 14.4353162572933, 35.829209310092473 ], [ 14.435303629469326, 35.829218906746988 ], [ 14.435294571367216, 35.829230835810378 ] ] } },
{ "type": "Feature", "properties": { "Name": null, "Description": null, "Label": null, "source_file": "Il-Misqa-Flow-Z-T8.geojson" }, "geometry": { "type": "LineString", "coordinates": [ [ 14.435264229507053, 35.829309020254883 ], [ 14.435295275298138, 35.829283446811125 ], [ 14.43529586401128, 35.829251008166352 ] ] } },
{ "type": "Feature", "properties": { "Name": null, "Description": null, "Label": null, "source_file": "Il-Misqa-Flow-Z-T8.geojson" }, "geometry": { "type": "LineString", "coordinates": [ [ 14.435255925817753, 35.829238674220491 ], [ 14.435265613779062, 35.829235596052293 ], [ 14.435281723495242, 35.829235671746694 ] ] } },
{ "type": "Feature", "properties": { "Name": null, "Description": null, "Label": null, "source_file": "Il-Misqa-Flow-Z-T7.geojson" }, "geometry": { "type": "LineString", "coordinates": [ [ 14.435178575173422, 35.829371186690864 ], [ 14.435171187064318, 35.829337558194979 ], [ 14.435175248195012, 35.829302572001588 ] ] } },
{ "type": "Feature", "properties": { "Name": null, "Description": null, "Label": null, "source_file": "Il-Misqa-Flow-Z-T7.geojson" }, "geometry": { "type": "LineString", "coordinates": [ [ 14.435132231862095, 35.829258048638565 ], [ 14.435165252984683, 35.829245500299933 ], [ 14.435206000259774, 35.829218873227482 ] ] } },
{ "type": "Feature", "properties": { "Name": null, "Description": null, "Label": null, "source_file": "Il-Misqa-Flow-Z-T7.geojson" }, "geometry": { "type": "LineString", "coordinates": [ [ 14.43523536351468, 35.829282246552197 ], [ 14.4352319770903, 35.829270938613803 ], [ 14.435218884657422, 35.829259585065827 ] ] } },
{ "type": "Feature", "properties": { "Name": null, "Description": null, "Label": null, "source_file": "Il-Misqa-Flow-Z-T7.geojson" }, "geometry": { "type": "LineString", "coordinates": [ [ 14.435219339314486, 35.829244342967819 ], [ 14.435217684109054, 35.82923332546482 ], [ 14.435211544547752, 35.829219181581962 ] ] } },
{ "type": "Feature", "properties": { "Name": null, "Description": null, "Label": null, "source_file": "Il-Misqa-Flow-Z-T6.geojson" }, "geometry": { "type": "LineString", "coordinates": [ [ 14.435262917348222, 35.829199210147657 ], [ 14.435261032232333, 35.829200902688982 ], [ 14.435257773352555, 35.829203292802433 ] ] } },
{ "type": "Feature", "properties": { "Name": null, "Description": null, "Label": null, "source_file": "Il-Misqa-Flow-Z-T6.geojson" }, "geometry": { "type": "LineString", "coordinates": [ [ 14.435257724746219, 35.829179648993929 ], [ 14.435260607625516, 35.829179486533199 ], [ 14.435262468632096, 35.829181196676728 ] ] } },
{ "type": "Feature", "properties": { "Name": null, "Description": null, "Label": null, "source_file": "Il-Misqa-Flow-Z-T6.geojson" }, "geometry": { "type": "LineString", "coordinates": [ [ 14.435222657282937, 35.829210143487934 ], [ 14.435233885550515, 35.829210522893469 ], [ 14.435244920793716, 35.829209839800377 ] ] } },
{ "type": "Feature", "properties": { "Name": null, "Description": null, "Label": null, "source_file": "Il-Misqa-Flow-Z-T5.geojson" }, "geometry": { "type": "LineString", "coordinates": [ [ 14.435233299779503, 35.829186961883472 ], [ 14.435226078054269, 35.829186292726114 ], [ 14.435223189364173, 35.8291802703096 ] ] } },
{ "type": "Feature", "properties": { "Name": null, "Description": null, "Label": null, "source_file": "Il-Misqa-Flow-Z-T5.geojson" }, "geometry": { "type": "LineString", "coordinates": [ [ 14.435235672632086, 35.829124437468003 ], [ 14.435235053627062, 35.829113563651589 ], [ 14.435232577606982, 35.829111054309131 ] ] } },
{ "type": "Feature", "properties": { "Name": null, "Description": null, "Label": null, "source_file": "Il-Misqa-Flow-Z-T5.geojson" }, "geometry": { "type": "LineString", "coordinates": [ [ 14.43520511265908, 35.829121530012777 ], [ 14.435213183098577, 35.829121258262859 ], [ 14.435219426484684, 35.829119135350531 ] ] } },
{ "type": "Feature", "properties": { "Name": null, "Description": null, "Label": null, "source_file": "Il-Misqa-Flow-Z-T5.geojson" }, "geometry": { "type": "LineString", "coordinates": [ [ 14.435185882561896, 35.829094879916518 ], [ 14.435190784123535, 35.829092365123735 ], [ 14.435198248520424, 35.829089786866099 ] ] } },
{ "type": "Feature", "properties": { "Name": null, "Description": null, "Label": null, "source_file": "Il-Misqa-Flow-Z-T5.geojson" }, "geometry": { "type": "LineString", "coordinates": [ [ 14.435215864471436, 35.829076759954212 ], [ 14.435221435516619, 35.829079436587335 ], [ 14.435227006561799, 35.829076927243783 ] ] } },
{ "type": "Feature", "properties": { "Name": null, "Description": null, "Label": null, "source_file": "Il-Misqa-Flow-Z-T5.geojson" }, "geometry": { "type": "LineString", "coordinates": [ [ 14.435242275352293, 35.829093677110379 ], [ 14.435230750060189, 35.829089613248492 ], [ 14.435229779948283, 35.829084791782719 ] ] } },
{ "type": "Feature", "properties": { "Name": null, "Description": null, "Label": null, "source_file": "Il-Misqa-Flow-Z-T5.geojson" }, "geometry": { "type": "LineString", "coordinates": [ [ 14.435272297095787, 35.829048759857102 ], [ 14.435264869035544, 35.829053276677016 ], [ 14.435259091655357, 35.829059299103179 ] ] } },
{ "type": "Feature", "properties": { "Name": null, "Description": null, "Label": null, "source_file": "Il-Misqa-Flow-Z-T5.geojson" }, "geometry": { "type": "LineString", "coordinates": [ [ 14.435218850910314, 35.829160827903117 ], [ 14.435217374413646, 35.82915556069284 ], [ 14.435219736808316, 35.829150413191549 ] ] } },
{ "type": "Feature", "properties": { "Name": null, "Description": null, "Label": null, "source_file": "Il-Misqa-Flow-Z-T5.geojson" }, "geometry": { "type": "LineString", "coordinates": [ [ 14.435259654530476, 35.829189487535245 ], [ 14.435257403946473, 35.829187933164391 ], [ 14.4352544031678, 35.829187933164391 ] ] } },
{ "type": "Feature", "properties": { "Name": null, "Description": null, "Label": null, "source_file": "Il-Misqa-Flow-Z-T5.geojson" }, "geometry": { "type": "LineString", "coordinates": [ [ 14.435249818644829, 35.829176038847372 ], [ 14.435246901221122, 35.829176984986297 ], [ 14.435244733992082, 35.829177728381154 ] ] } },
{ "type": "Feature", "properties": { "Name": null, "Description": null, "Label": null, "source_file": "Il-Misqa-Flow-Z-T5.geojson" }, "geometry": { "type": "LineString", "coordinates": [ [ 14.435237135097239, 35.82918483728912 ], [ 14.435238777637482, 35.829188003179262 ] ] } },
{ "type": "Feature", "properties": { "Name": null, "Description": null, "Label": null, "source_file": "Il-Misqa-Flow-Z-T5.geojson" }, "geometry": { "type": "LineString", "coordinates": [ [ 14.435234287905844, 35.829180951979154 ], [ 14.435230664981754, 35.829180742168987 ] ] } },
{ "type": "Feature", "properties": { "Name": null, "Description": null, "Label": null, "source_file": "Il-Misqa-Flow-Z-T3-T4.geojson" }, "geometry": { "type": "LineString", "coordinates": [ [ 14.435327110144804, 35.829093574100618 ], [ 14.435327201870855, 35.829094949916517 ], [ 14.435326926692676, 35.829096307140283 ] ] } },
{ "type": "Feature", "properties": { "Name": null, "Description": null, "Label": null, "source_file": "Il-Misqa-Flow-Z-T3-T4.geojson" }, "geometry": { "type": "LineString", "coordinates": [ [ 14.435314451948527, 35.829103186219321 ], [ 14.435313076057621, 35.829103427916706 ], [ 14.435311539646127, 35.829104097232474 ] ] } },
{ "type": "Feature", "properties": { "Name": null, "Description": null, "Label": null, "source_file": "Il-Misqa-Flow-Z-T3-T4.geojson" }, "geometry": { "type": "LineString", "coordinates": [ [ 14.435317071792257, 35.829187631040831 ], [ 14.435335848277871, 35.829175753496912 ] ] } },
{ "type": "Feature", "properties": { "Name": null, "Description": null, "Label": null, "source_file": "Il-Misqa-Flow-Z-T3-T4.geojson" }, "geometry": { "type": "LineString", "coordinates": [ [ 14.435336054612879, 35.829141793748796 ], [ 14.435327594877599, 35.829130919934684 ], [ 14.435313770432149, 35.829128745171836 ] ] } },
{ "type": "Feature", "properties": { "Name": null, "Description": null, "Label": null, "source_file": "Il-Misqa-Flow-Z-T3-T4.geojson" }, "geometry": { "type": "LineString", "coordinates": [ [ 14.435250425585069, 35.829099950467793 ], [ 14.43525166359511, 35.829106307469431 ], [ 14.43525166359511, 35.829108816812045 ] ] } },
{ "type": "Feature", "properties": { "Name": null, "Description": null, "Label": null, "source_file": "Il-Misqa-Flow-Z-T3-T4.geojson" }, "geometry": { "type": "LineString", "coordinates": [ [ 14.435353593088459, 35.829134830325785 ], [ 14.435345958693212, 35.82912864061587 ], [ 14.435338943302979, 35.829117432221068 ] ] } },
{ "type": "Feature", "properties": { "Name": null, "Description": null, "Label": null, "source_file": "Il-Misqa-Flow-Z-T3-T4.geojson" }, "geometry": { "type": "LineString", "coordinates": [ [ 14.435244837251689, 35.829093536272779 ], [ 14.435249968077615, 35.829093027507724 ] ] } },
{ "type": "Feature", "properties": { "Name": null, "Description": null, "Label": null, "source_file": "Il-Misqa-Flow-Z-T3-T4.geojson" }, "geometry": { "type": "LineString", "coordinates": [ [ 14.435260192817047, 35.82909606513428 ], [ 14.435256427750542, 35.829096184843692 ] ] } },
{ "type": "Feature", "properties": { "Name": null, "Description": null, "Label": null, "source_file": "Il-Misqa-Flow-Z-T3-T4.geojson" }, "geometry": { "type": "LineString", "coordinates": [ [ 14.43527263813052, 35.829131242748758 ], [ 14.43527709870391, 35.829133414463975 ], [ 14.435279756397914, 35.829135449523108 ] ] } },
{ "type": "Feature", "properties": { "Name": null, "Description": null, "Label": null, "source_file": "Il-Misqa-Flow-Z-T3-T4.geojson" }, "geometry": { "type": "LineString", "coordinates": [ [ 14.435269790045398, 35.829129763328353 ], [ 14.435267870599729, 35.829128805653411 ] ] } },
{ "type": "Feature", "properties": { "Name": null, "Description": null, "Label": null, "source_file": "Il-Misqa-Flow-Z-T2.geojson" }, "geometry": { "type": "LineString", "coordinates": [ [ 14.435352495221348, 35.829087084113517 ], [ 14.435348734563421, 35.829087141231319 ] ] } },
{ "type": "Feature", "properties": { "Name": null, "Description": null, "Label": null, "source_file": "Il-Misqa-Flow-Z-T2.geojson" }, "geometry": { "type": "LineString", "coordinates": [ [ 14.435327110144804, 35.829093574100618 ], [ 14.435327201870855, 35.829094949916517 ], [ 14.435326926692676, 35.829096307140283 ] ] } },
{ "type": "Feature", "properties": { "Name": null, "Description": null, "Label": null, "source_file": "Il-Misqa-Flow-Z-T2.geojson" }, "geometry": { "type": "LineString", "coordinates": [ [ 14.435327224802366, 35.829091826442529 ], [ 14.435325711322378, 35.829092644495255 ], [ 14.435324220773905, 35.829093239442678 ] ] } },
{ "type": "Feature", "properties": { "Name": null, "Description": null, "Label": null, "source_file": "Il-Misqa-Flow-Z-T2.geojson" }, "geometry": { "type": "LineString", "coordinates": [ [ 14.435313580550952, 35.829100099929896 ], [ 14.4353124339752, 35.829101382785169 ] ] } },
{ "type": "Feature", "properties": { "Name": null, "Description": null, "Label": null, "source_file": "Il-Misqa-Flow-Z-T1.geojson" }, "geometry": { "type": "LineString", "coordinates": [ [ 14.435379151548842, 35.829200134786674 ], [ 14.435382380307615, 35.829180622297805 ], [ 14.435386475849153, 35.829174226714258 ] ] } },
{ "type": "Feature", "properties": { "Name": null, "Description": null, "Label": null, "source_file": "Il-Misqa-Flow-Z-T1.geojson" }, "geometry": { "type": "LineString", "coordinates": [ ] } },
{ "type": "Feature", "properties": { "Name": null, "Description": null, "Label": null, "source_file": "Il-Misqa-Flow-Z-T1.geojson" }, "geometry": { "type": "LineString", "coordinates": [ [ 14.435416582314771, 35.829120652373021 ], [ 14.435411843482456, 35.829113636390005 ], [ 14.435410811807422, 35.829108283126011 ] ] } },
{ "type": "Feature", "properties": { "Name": null, "Description": null, "Label": null, "source_file": "Il-Misqa-Flow-Z-T1.geojson" }, "geometry": { "type": "LineString", "coordinates": [ [ 14.435411019337707, 35.829093590720817 ], [ 14.435406692577763, 35.829087242924516 ], [ 14.435397833021693, 35.829084403120739 ] ] } },
{ "type": "Feature", "properties": { "Name": null, "Description": null, "Label": null, "source_file": "Il-Misqa-Flow-Z-T1.geojson" }, "geometry": { "type": "LineString", "coordinates": [ [ 14.435373726787732, 35.829139695752382 ], [ 14.435374226589133, 35.829131819115588 ], [ 14.435379504167921, 35.829122474871355 ] ] } },
{ "type": "Feature", "properties": { "Name": null, "Description": null, "Label": null, "source_file": "Il-Misqa-Flow-Z-T1.geojson" }, "geometry": { "type": "LineString", "coordinates": [ [ 14.435353850737435, 35.829086823486797 ], [ 14.435355703897976, 35.82908600424971 ], [ 14.435356550582865, 35.829085243970127 ] ] } },
{ "type": "Feature", "properties": { "Name": null, "Description": null, "Label": null, "source_file": "Il-Misqa-Flow-Z-T1.geojson" }, "geometry": { "type": "LineString", "coordinates": [ ] } },
{ "type": "Feature", "properties": { "Name": null, "Description": null, "Label": null, "source_file": "Il-Misqa-Flow-Z-T1.geojson" }, "geometry": { "type": "LineString", "coordinates": [ ] } },
{ "type": "Feature", "properties": { "Name": null, "Description": null, "Label": null, "source_file": "Il-Misqa-Flow-Z-T1.geojson" }, "geometry": { "type": "LineString", "coordinates": [ ] } },
{ "type": "Feature", "properties": { "Name": null, "Description": null, "Label": null, "source_file": "Il-Misqa-Flow-Z-T1.geojson" }, "geometry": { "type": "LineString", "coordinates": [ ] } },
{ "type": "Feature", "properties": { "Name": null, "Description": null, "Label": null, "source_file": "Il-Misqa-Flow-Z-T1.geojson" }, "geometry": { "type": "LineString", "coordinates": [ ] } },
{ "type": "Feature", "properties": { "Name": null, "Description": null, "Label": null, "source_file": "Il-Misqa-Flow-Z-T1.geojson" }, "geometry": { "type": "LineString", "coordinates": [ [ 14.435336584506258, 35.829081298558251 ], [ 14.43534159849901, 35.829082311020393 ] ] } },
{ "type": "Feature", "properties": { "Name": null, "Description": null, "Label": null, "source_file": "Il-Misqa-Flow-Z-T1.geojson" }, "geometry": { "type": "LineString", "coordinates": [ [ 14.435344798287824, 35.829076159190116 ], [ 14.435349488332969, 35.829078394184386 ], [ 14.435352830760847, 35.829081288228721 ] ] } },
{ "type": "Feature", "properties": { "Name": null, "Description": null, "Label": null, "source_file": "Il-Misqa-Flow-Z-T1.geojson" }, "geometry": { "type": "LineString", "coordinates": [ [ 14.435368817359253, 35.82907282852976 ], [ 14.435372665751846, 35.829075054541583 ], [ 14.435375538741647, 35.829078330910974 ] ] } },
{ "type": "Feature", "properties": { "Name": null, "Description": null, "Label": null, "source_file": "Il-Misqa-Flow-Z-T1.geojson" }, "geometry": { "type": "LineString", "coordinates": [ ] } },
{ "type": "Feature", "properties": { "Name": null, "Description": null, "Label": null, "source_file": "Il-Misqa-Flow-Z-T1.geojson" }, "geometry": { "type": "LineString", "coordinates": [ ] } },
{ "type": "Feature", "properties": { "Name": null, "Description": null, "Label": null, "source_file": "Il-Misqa-Flow-Z-T1.geojson" }, "geometry": { "type": "LineString", "coordinates": [ ] } },
{ "type": "Feature", "properties": { "Name": null, "Description": null, "Label": null, "source_file": "Il-Misqa-Flow-Z-T1.geojson" }, "geometry": { "type": "LineString", "coordinates": [ ] } },
{ "type": "Feature", "properties": { "Name": null, "Description": null, "Label": null, "source_file": "Il-Misqa-Flow-Z-T1.geojson" }, "geometry": { "type": "LineString", "coordinates": [ ] } },
{ "type": "Feature", "properties": { "Name": null, "Description": null, "Label": null, "source_file": "Il-Misqa-Flow-Z-T1.geojson" }, "geometry": { "type": "LineString", "coordinates": [ ] } },
{ "type": "Feature", "properties": { "Name": null, "Description": null, "Label": null, "source_file": "Il-Misqa-Flow-Z-T1.geojson" }, "geometry": { "type": "LineString", "coordinates": [ ] } },
{ "type": "Feature", "properties": { "Name": null, "Description": null, "Label": null, "source_file": "Il-Misqa-Flow-Z-T1.geojson" }, "geometry": { "type": "LineString", "coordinates": [ ] } },
{ "type": "Feature", "properties": { "Name": null, "Description": null, "Label": null, "source_file": "Il-Misqa-Flow-Z-T1.geojson" }, "geometry": { "type": "LineString", "coordinates": [ ] } },
{ "type": "Feature", "properties": { "Name": null, "Description": null, "Label": null, "source_file": "Il-Misqa-Flow-Z-T1.geojson" }, "geometry": { "type": "LineString", "coordinates": [ ] } },
{ "type": "Feature", "properties": { "Name": null, "Description": null, "Label": null, "source_file": "Il-Misqa-Flow-Z-T1.geojson" }, "geometry": { "type": "LineString", "coordinates": [ ] } },
{ "type": "Feature", "properties": { "Name": null, "Description": null, "Label": null, "source_file": "Il-Misqa-Flow-Z-T1.geojson" }, "geometry": { "type": "LineString", "coordinates": [ [ 14.435364386518742, 35.829079853312344 ], [ 14.435364741482836, 35.829081292277785 ], [ 14.435366205709753, 35.829081831889809 ] ] } },
{ "type": "Feature", "properties": { "Name": null, "Description": null, "Label": null, "source_file": "Il-Misqa-Flow-Z-T1.geojson" }, "geometry": { "type": "LineString", "coordinates": [ [ 14.4353786738238, 35.82907888201062 ], [ 14.435378540712266, 35.829080824614003 ], [ 14.435376987744323, 35.829081939812241 ] ] } },
{ "type": "Feature", "properties": { "Name": null, "Description": null, "Label": null, "source_file": "Il-Misqa-Flow-Z-T1.geojson" }, "geometry": { "type": "LineString", "coordinates": [ ] } },
{ "type": "Feature", "properties": { "Name": null, "Description": null, "Label": null, "source_file": "Il-Misqa-Flow-Z-T1.geojson" }, "geometry": { "type": "LineString", "coordinates": [ ] } },
{ "type": "Feature", "properties": { "Name": null, "Description": null, "Label": null, "source_file": "Il-Misqa-Flow-Z-T1.geojson" }, "geometry": { "type": "LineString", "coordinates": [ ] } },
{ "type": "Feature", "properties": { "Name": null, "Description": null, "Label": null, "source_file": "Il-Misqa-Flow-Z-T1.geojson" }, "geometry": { "type": "LineString", "coordinates": [ ] } },
{ "type": "Feature", "properties": { "Name": null, "Description": null, "Label": null, "source_file": "Il-Misqa-Flow-Z-T1.geojson" }, "geometry": { "type": "LineString", "coordinates": [ ] } },
{ "type": "Feature", "properties": { "Name": null, "Description": null, "Label": null, "source_file": "Il-Misqa-Flow-Z-T1.geojson" }, "geometry": { "type": "LineString", "coordinates": [ ] } },
{ "type": "Feature", "properties": { "Name": null, "Description": null, "Label": null, "source_file": "Il-Misqa-Flow-Z-T1.geojson" }, "geometry": { "type": "LineString", "coordinates": [ [ 14.435444300879118, 35.829074038520424 ], [ 14.435427769773902, 35.829074315713314 ], [ 14.435415890483274, 35.829074890031606 ] ] } },
{ "type": "Feature", "properties": { "Name": null, "Description": null, "Label": null, "source_file": "Il-Misqa-Flow-Z-T1.geojson" }, "geometry": { "type": "LineString", "coordinates": [ ] } },
{ "type": "Feature", "properties": { "Name": null, "Description": null, "Label": null, "source_file": "Il-Misqa-Flow-Z-T1.geojson" }, "geometry": { "type": "LineString", "coordinates": [ ] } },
{ "type": "Feature", "properties": { "Name": null, "Description": null, "Label": null, "source_file": "Il-Misqa-Flow-Z-T1.geojson" }, "geometry": { "type": "LineString", "coordinates": [ ] } },
{ "type": "Feature", "properties": { "Name": null, "Description": null, "Label": null, "source_file": "Il-Misqa-Flow-Z-T1.geojson" }, "geometry": { "type": "LineString", "coordinates": [ ] } },
{ "type": "Feature", "properties": { "Name": null, "Description": null, "Label": null, "source_file": "Il-Misqa-Flow-Z-T1.geojson" }, "geometry": { "type": "LineString", "coordinates": [ ] } },
{ "type": "Feature", "properties": { "Name": null, "Description": null, "Label": null, "source_file": "Il-Misqa-Flow-Z-T1.geojson" }, "geometry": { "type": "LineString", "coordinates": [ [ 14.435404479366396, 35.829068069634069 ], [ 14.435404740390958, 35.829070397564813 ], [ 14.435405001415532, 35.829073148755597 ] ] } },
{ "type": "Feature", "properties": { "Name": null, "Description": null, "Label": null, "source_file": "Il-Misqa-Flow-Z-T1.geojson" }, "geometry": { "type": "LineString", "coordinates": [ [ 14.435390906089298, 35.829068810339329 ], [ 14.435390123015621, 35.829071773160209 ], [ 14.435389209429662, 35.829077169726531 ] ] } },
{ "type": "Feature", "properties": { "Name": null, "Description": null, "Label": null, "source_file": "Il-Misqa-Flow-Z-T1.geojson" }, "geometry": { "type": "LineString", "coordinates": [ ] } },
{ "type": "Feature", "properties": { "Name": null, "Description": null, "Label": null, "source_file": "Il-Misqa-Flow-Z-T1.geojson" }, "geometry": { "type": "LineString", "coordinates": [ ] } },
{ "type": "Feature", "properties": { "Name": null, "Description": null, "Label": null, "source_file": "Il-Misqa-Flow-Z-T1.geojson" }, "geometry": { "type": "LineString", "coordinates": [ ] } },
{ "type": "Feature", "properties": { "Name": null, "Description": null, "Label": null, "source_file": "Il-Misqa-Flow-Z-T1.geojson" }, "geometry": { "type": "LineString", "coordinates": [ ] } },
{ "type": "Feature", "properties": { "Name": null, "Description": null, "Label": null, "source_file": "Il-Misqa-Flow-Z-T1.geojson" }, "geometry": { "type": "LineString", "coordinates": [ ] } },
{ "type": "Feature", "properties": { "Name": null, "Description": null, "Label": null, "source_file": "Il-Misqa-Flow-Z-T1.geojson" }, "geometry": { "type": "LineString", "coordinates": [ ] } },
{ "type": "Feature", "properties": { "Name": null, "Description": null, "Label": null, "source_file": "Il-Misqa-Flow-Z-T1.geojson" }, "geometry": { "type": "LineString", "coordinates": [ ] } },
{ "type": "Feature", "properties": { "Name": null, "Description": null, "Label": null, "source_file": "Il-Misqa-Flow-Z-Out.geojson" }, "geometry": { "type": "LineString", "coordinates": [ [ 14.435183085753691, 35.829095824732647 ], [ 14.435177725204618, 35.829099226070625 ], [ 14.435169451313662, 35.829103099816443 ] ] } },
{ "type": "Feature", "properties": { "Name": null, "Description": null, "Label": null, "source_file": "Il-Misqa-Flow-Z-Out.geojson" }, "geometry": { "type": "LineString", "coordinates": [ [ 14.435445007864868, 35.829072571708068 ], [ 14.435441497980447, 35.829065382576289 ], [ 14.43543517095199, 35.829058418104232 ] ] } },
{ "type": "Feature", "properties": { "Name": null, "Description": null, "Label": null, "source_file": "Il-Misqa-Flow-Z-Out.geojson" }, "geometry": { "type": "LineString", "coordinates": [ [ 14.435432399990615, 35.82905594683978 ], [ 14.435419376472156, 35.829044938479115 ], [ 14.435407923165148, 35.829033031474999 ] ] } },
{ "type": "Feature", "properties": { "Name": null, "Description": null, "Label": null, "source_file": "Il-Misqa-Flow-Z-Out.geojson" }, "geometry": { "type": "LineString", "coordinates": [ [ 14.435433416009785, 35.82905474865094 ], [ 14.435435817509648, 35.829050405216215 ], [ 14.435437664817226, 35.829044638931855 ] ] } },
{ "type": "Feature", "properties": { "Name": null, "Description": null, "Label": null, "source_file": "Il-Misqa-Flow-Z-Out.geojson" }, "geometry": { "type": "LineString", "coordinates": [ [ 14.435404274825059, 35.829066639476231 ], [ 14.435403696292724, 35.82906103293395 ], [ 14.435402549901578, 35.8290552767901 ] ] } },
{ "type": "Feature", "properties": { "Name": null, "Description": null, "Label": null, "source_file": "Il-Misqa-Flow-Z-Out.geojson" }, "geometry": { "type": "LineString", "coordinates": [ [ 14.435391141899814, 35.829067850695182 ], [ 14.435392298499098, 35.829063894725493 ], [ 14.435395022215568, 35.829056398032819 ] ] } },
{ "type": "Feature", "properties": { "Name": null, "Description": null, "Label": null, "source_file": "Il-Misqa-Flow-Z-Out.geojson" }, "geometry": { "type": "LineString", "coordinates": [ [ 14.435367420548165, 35.829071988180587 ], [ 14.435363788014817, 35.829069356603398 ], [ 14.43535991494249, 35.829065134682935 ] ] } }
]
}
