{
"type": "FeatureCollection",
"name": "Il-Misqa_depressions",
"crs": { "type": "name", "properties": { "name": "urn:ogc:def:crs:OGC:1.3:CRS84" } },
"features": [
{ "type": "Feature", "properties": { "Name": "Misqa-D32", "Description": "", "Label": "D32", "source_file": "Il-Misqa-D32.geojson" }, "geometry": { "type": "Polygon", "coordinates": [ [ [ 14.435281767685181, 35.829110589676411 ], [ 14.435282731818264, 35.829111311766539 ], [ 14.435282768248003, 35.829112388277771 ], [ 14.435282494002898, 35.829113786231289 ], [ 14.43528209278837, 35.82911291564232 ], [ 14.43528156444059, 35.829112097563929 ], [ 14.435280901020432, 35.829111496343117 ], [ 14.435280033643426, 35.829111410708059 ], [ 14.435279466134494, 35.829111408041541 ], [ 14.435278996462875, 35.829111732073081 ], [ 14.435278591053075, 35.829112409831467 ], [ 14.43527213431558, 35.829108463488467 ], [ 14.435271384974207, 35.829108244917244 ], [ 14.435270724691389, 35.829108225007843 ], [ 14.435270155789151, 35.829108415614414 ], [ 14.435269411705807, 35.829108571784012 ], [ 14.435268730725891, 35.829108560180813 ], [ 14.435268309858822, 35.829108247275116 ], [ 14.435268076515923, 35.829107683146589 ], [ 14.435268174624257, 35.82910694410274 ], [ 14.435268561658413, 35.829106206416455 ], [ 14.435269504418196, 35.829105681427968 ], [ 14.435270684867113, 35.829105107135533 ], [ 14.435270542328201, 35.829106291354222 ], [ 14.435271083210223, 35.829107142645547 ], [ 14.435272278700204, 35.829107358349383 ], [ 14.435273125971326, 35.82910720266463 ], [ 14.435275613413946, 35.829108659225632 ], [ 14.435278814708544, 35.829110755191508 ], [ 14.435279344134816, 35.829110650045081 ], [ 14.435280051815814, 35.829110258712177 ], [ 14.435280756954944, 35.829110226147371 ], [ 14.435281767685181, 35.829110589676411 ] ] ] } },
{ "type": "Feature", "properties": { "Name": "Misqa-D31", "Description": "", "Label": "D31", "source_file": "Il-Misqa-D31.geojson" }, "geometry": { "type": "Polygon", "coordinates": [ [ [ 14.435272280683238, 35.829107358374863 ], [ 14.435273112429002, 35.829107212354245 ], [ 14.435273579120638, 35.829106586217151 ], [ 14.435273754898391, 35.829105579884818 ], [ 14.43527363328843, 35.829104827070736 ], [ 14.435272969868272, 35.829104225849925 ], [ 14.435272411663437, 35.829104124172211 ], [ 14.435271732612252, 35.82910408877725 ], [ 14.435271250345997, 35.829104262791326 ], [ 14.435271065310715, 35.829104461579888 ], [ 14.435270659900915, 35.829105139338274 ], [ 14.435270551470026, 35.829106307849578 ], [ 14.435271045595464, 35.82910712367196 ], [ 14.435272280683238, 35.829107358374863 ] ] ] } },
{ "type": "Feature", "properties": { "Name": "Misqa-D30", "Description": "", "Label": "D30", "source_file": "Il-Misqa-D30.geojson" }, "geometry": { "type": "Polygon", "coordinates": [ [ [ 14.435260697823479, 35.829194597563898 ], [ 14.435261121021165, 35.829195180857923 ], [ 14.43526069782345, 35.829196793494404 ], [ 14.435260232305998, 35.829198028705285 ], [ 14.435259512869866, 35.829199195293306 ], [ 14.43525837023604, 35.829199435473221 ], [ 14.435257947038329, 35.829200121701462 ], [ 14.435257185282421, 35.829200499126991 ], [ 14.435256042648611, 35.829200327569936 ], [ 14.43525481537525, 35.829199847210127 ], [ 14.435254476817052, 35.829199298227586 ], [ 14.435254603776357, 35.82919830319657 ], [ 14.435255111613625, 35.829195832774822 ], [ 14.43525566177064, 35.82919442600685 ], [ 14.435256338887006, 35.82919377408993 ], [ 14.435257142962666, 35.829193671155721 ], [ 14.435258497195349, 35.829193877024188 ], [ 14.435260063026888, 35.829194254449753 ], [ 14.435260697823479, 35.829194597563898 ] ] ] } },
{ "type": "Feature", "properties": { "Name": "Misqa-D29", "Description": "", "Label": "D29", "source_file": "Il-Misqa-D29.geojson" }, "geometry": { "type": "Polygon", "coordinates": [ [ [ 14.43527030441162, 35.829187563723615 ], [ 14.43526971193479, 35.829187014740896 ], [ 14.43526933105683, 35.829186431446836 ], [ 14.435269500335947, 35.829185813841278 ], [ 14.435269627295247, 35.829185230547139 ], [ 14.435270431370897, 35.829184338450261 ], [ 14.435271235446585, 35.829183686533312 ], [ 14.435272667133543, 35.829183601163358 ], [ 14.435274338584557, 35.829183688264649 ], [ 14.43527555206324, 35.829183995336066 ], [ 14.435276117255157, 35.829184556725437 ], [ 14.435276356138933, 35.82918509330149 ], [ 14.435276455813355, 35.829185983635554 ], [ 14.435275753189908, 35.829186777094677 ], [ 14.435274867150262, 35.829187428584348 ], [ 14.435273487614197, 35.829188131329566 ], [ 14.435272014229421, 35.8291882215972 ], [ 14.435270812248865, 35.829187975460627 ], [ 14.43527030441162, 35.829187563723615 ] ] ] } },
{ "type": "Feature", "properties": { "Name": "Misqa-D28", "Description": "", "Label": "D28", "source_file": "Il-Misqa-D28.geojson" }, "geometry": { "type": "Polygon", "coordinates": [ [ [ 14.435283144574163, 35.829120174042785 ], [ 14.435283409094865, 35.829120991607418 ], [ 14.43528447220813, 35.829124262669204 ], [ 14.435285654325495, 35.829124039323872 ], [ 14.435284552213135, 35.829120208173158 ], [ 14.435284399344402, 35.829119528715474 ], [ 14.435284155204631, 35.829119013927702 ], [ 14.435283956561269, 35.829118436468448 ], [ 14.435283503983458, 35.829116347775717 ], [ 14.435282783620547, 35.829114359774351 ], [ 14.43528209278837, 35.82911291564232 ], [ 14.43528156444059, 35.829112097563929 ], [ 14.435280901020432, 35.829111496343117 ], [ 14.435280033643426, 35.829111410708059 ], [ 14.435279466134494, 35.829111408041541 ], [ 14.435278996462875, 35.829111732073081 ], [ 14.435278591053075, 35.829112409831467 ], [ 14.435278482622186, 35.829113578342771 ], [ 14.435278436334404, 35.829115399622779 ], [ 14.435278592270006, 35.829116949987664 ], [ 14.435278917623956, 35.829118147723705 ], [ 14.435280044167074, 35.829119349224214 ], [ 14.435280808891594, 35.829119787801837 ], [ 14.435281604687431, 35.82912004009917 ], [ 14.435282332411585, 35.829120117652913 ], [ 14.435283144574163, 35.829120174042785 ] ] ] } },
{ "type": "Feature", "properties": { "Name": "Misqa-D27", "Description": "", "Label": "D27", "source_file": "Il-Misqa-D27.geojson" }, "geometry": { "type": "Polygon", "coordinates": [ [ [ 14.435268780899825, 35.82919003414564 ], [ 14.435268273062576, 35.829190994865279 ], [ 14.435267511306684, 35.829191543847948 ], [ 14.435266749550774, 35.829191989896323 ], [ 14.435265733876264, 35.829192298699084 ], [ 14.435265014440176, 35.829192573190433 ], [ 14.435264083405187, 35.829192881993151 ], [ 14.435263194690007, 35.829192984927374 ], [ 14.435262263655012, 35.829192779058936 ], [ 14.435261671178196, 35.829192230076238 ], [ 14.43526175581775, 35.829191578159367 ], [ 14.435262136695682, 35.829190651751148 ], [ 14.435262517573644, 35.829190137079891 ], [ 14.435262983091134, 35.829189485162964 ], [ 14.43526357556792, 35.82918883324605 ], [ 14.435264464283133, 35.829188318574808 ], [ 14.435265522277412, 35.829188009772047 ], [ 14.435266791870541, 35.829187769592117 ], [ 14.435268019143924, 35.829188112706291 ], [ 14.435268865539355, 35.829188867557448 ], [ 14.435268780899825, 35.82919003414564 ] ] ] } },
{ "type": "Feature", "properties": { "Name": "Misqa-D26", "Description": "", "Label": "D26", "source_file": "Il-Misqa-D26.geojson" }, "geometry": { "type": "Polygon", "coordinates": [ [ [ 14.435276721377321, 35.829128429867659 ], [ 14.435277312382571, 35.829127968111763 ], [ 14.435277515617196, 35.829127554472123 ], [ 14.435277486375448, 35.82912696982433 ], [ 14.435277287907944, 35.829126710619761 ], [ 14.435276972215123, 35.829126505237468 ], [ 14.43527673139303, 35.829126334190114 ], [ 14.435276205805209, 35.829126304534029 ], [ 14.435275574370159, 35.829126450334549 ], [ 14.435274996263743, 35.829126670021573 ], [ 14.435274475430811, 35.829127371851555 ], [ 14.435274410891719, 35.829127915200871 ], [ 14.435274681359109, 35.829128287143895 ], [ 14.435275134501609, 35.829128573455051 ], [ 14.435275862225764, 35.829128651008794 ], [ 14.435276721377321, 35.829128429867659 ] ] ] } },
{ "type": "Feature", "properties": { "Name": "Misqa-D25", "Description": "", "Label": "D25", "source_file": "Il-Misqa-D25.geojson" }, "geometry": { "type": "Polygon", "coordinates": [ [ [ 14.435282541037513, 35.829133634267151 ], [ 14.435283279395856, 35.829133232771603 ], [ 14.435283775593511, 35.829132746986289 ], [ 14.435284219561506, 35.829131998883803 ], [ 14.435284182657135, 35.829131646943175 ], [ 14.435283930007198, 35.829131345400342 ], [ 14.435283460642397, 35.829131207281861 ], [ 14.435282443865063, 35.829131239571645 ], [ 14.435281394030351, 35.829131654734041 ], [ 14.435280815923935, 35.829131874421066 ], [ 14.435280295091003, 35.829132576251048 ], [ 14.435280230551911, 35.829133119600364 ], [ 14.435280501019301, 35.829133491543388 ], [ 14.435280954161801, 35.829133777854544 ], [ 14.435281681885956, 35.829133855408287 ], [ 14.435282541037513, 35.829133634267151 ] ] ] } },
{ "type": "Feature", "properties": { "Name": "Misqa-D24", "Description": "", "Label": "D24", "source_file": "Il-Misqa-D24.geojson" }, "geometry": { "type": "Polygon", "coordinates": [ [ [ 14.435274063668752, 35.829077588989087 ], [ 14.435275783179408, 35.829079392510337 ], [ 14.435271516120469, 35.82908152057874 ], [ 14.435270646143355, 35.829082061535829 ], [ 14.43526961982643, 35.829082441451014 ], [ 14.435268869318874, 35.829082790600665 ], [ 14.435268237192057, 35.829082362361902 ], [ 14.435267623252296, 35.829081616340112 ], [ 14.435267426753432, 35.829080796011844 ], [ 14.435267850964834, 35.829080559586423 ], [ 14.435268160795978, 35.829080411525837 ], [ 14.435270999395502, 35.829079072419859 ], [ 14.435274063668752, 35.829077588989087 ] ] ] } },
{ "type": "Feature", "properties": { "Name": "Misqa-D23", "Description": "", "Label": "D23", "source_file": "Il-Misqa-D23.geojson" }, "geometry": { "type": "Polygon", "coordinates": [ [ [ 14.43524893234272, 35.829068424419589 ], [ 14.435249422484194, 35.829068662931064 ], [ 14.435249578370893, 35.829068910141856 ], [ 14.435249652106506, 35.82906918264144 ], [ 14.435249656301677, 35.829069480489103 ], [ 14.435249589078033, 35.82906979192262 ], [ 14.435249494521116, 35.829070065114855 ], [ 14.435249354332553, 35.829070331474291 ], [ 14.435249093975127, 35.829070530514514 ], [ 14.435248765079727, 35.82907067274806 ], [ 14.435248178502944, 35.829070695666637 ], [ 14.435247591274955, 35.829070652284059 ], [ 14.4352472086477, 35.829070526790531 ], [ 14.435246901215004, 35.829070309677434 ], [ 14.435246777218742, 35.82907001126685 ], [ 14.435246732006128, 35.829069707977396 ], [ 14.435246751113061, 35.829069246034479 ], [ 14.43524688661728, 35.829068810199225 ], [ 14.43524708346475, 35.829068615995531 ], [ 14.435247362099487, 35.829068447850986 ], [ 14.435248220059732, 35.829068390262861 ], [ 14.43524893234272, 35.829068424419589 ] ] ] } },
{ "type": "Feature", "properties": { "Name": "Misqa-D22", "Description": "", "Label": "D22", "source_file": "Il-Misqa-D22.geojson" }, "geometry": { "type": "Polygon", "coordinates": [ [ [ 14.435292780177347, 35.829050655484707 ], [ 14.435291965158399, 35.829051596073015 ], [ 14.43528991339239, 35.829052325238706 ], [ 14.43528729316402, 35.829052672088835 ], [ 14.435284395443926, 35.82905284508039 ], [ 14.435282615207722, 35.829052681756288 ], [ 14.43528146591583, 35.829052329334125 ], [ 14.435280893619256, 35.829051966119984 ], [ 14.435280291782696, 35.829051245938992 ], [ 14.435279798298708, 35.829050220756692 ], [ 14.435279756413419, 35.829048746049168 ], [ 14.435280298457558, 35.82904724687684 ], [ 14.435281945518046, 35.829045828646294 ], [ 14.435284379113282, 35.829045271120521 ], [ 14.435287051174843, 35.829044981533187 ], [ 14.435289189140599, 35.829044902912415 ], [ 14.435290830870789, 35.829045264980245 ], [ 14.43529218568667, 35.829045822171956 ], [ 14.435293156540389, 35.829046700870066 ], [ 14.435293324037222, 35.829047797350249 ], [ 14.43529334108082, 35.82904922562804 ], [ 14.435292780177347, 35.829050655484707 ] ] ] } },
{ "type": "Feature", "properties": { "Name": "Misqa-D21", "Description": "", "Label": "D21", "source_file": "Il-Misqa-D21.geojson" }, "geometry": { "type": "Polygon", "coordinates": [ [ [ 14.435201087853224, 35.829073918916308 ], [ 14.435200536960998, 35.829074102013344 ], [ 14.435200080530231, 35.829073906099822 ], [ 14.435199996587357, 35.829073611601842 ], [ 14.435200327897574, 35.829073287950756 ], [ 14.435200885996293, 35.829073340127302 ], [ 14.435201261880474, 35.829073253054602 ], [ 14.435201235031592, 35.829072512936733 ], [ 14.435201650625116, 35.829071820411556 ], [ 14.435202604323935, 35.829071380991714 ], [ 14.435203679518642, 35.829070818221652 ], [ 14.435204322651542, 35.829070140205836 ], [ 14.435204666365829, 35.82906946364551 ], [ 14.435205218031498, 35.82906934519935 ], [ 14.435205715006127, 35.829069305511894 ], [ 14.435206297079953, 35.829069672289116 ], [ 14.435206577956563, 35.829070140205822 ], [ 14.435207070654076, 35.829070671997663 ], [ 14.435207893551143, 35.829071141541824 ], [ 14.435208886959281, 35.829071098005443 ], [ 14.435209746123098, 35.829071380991735 ], [ 14.435210335640503, 35.829072207726327 ], [ 14.435211115415431, 35.829072861227502 ], [ 14.43521119596203, 35.829073971404313 ], [ 14.435210937985723, 35.829074926340205 ], [ 14.435210904036914, 35.829075930567704 ], [ 14.435211649314024, 35.829076810627406 ], [ 14.435212030450247, 35.82907739825793 ], [ 14.435212204645072, 35.829077638283515 ], [ 14.435211372326098, 35.829077635859633 ], [ 14.435210917921015, 35.829077672276014 ], [ 14.435210437175845, 35.829077904835955 ], [ 14.43521010402003, 35.829078187331064 ], [ 14.435209182296862, 35.829077933211657 ], [ 14.435208457377396, 35.829077976747982 ], [ 14.435207984544068, 35.829078632342544 ], [ 14.435207133459082, 35.829079238166145 ], [ 14.435205909542193, 35.829079537997949 ], [ 14.435205090888161, 35.829079367961413 ], [ 14.435204081762224, 35.82907865617522 ], [ 14.435204054162849, 35.829077671993616 ], [ 14.435203583897669, 35.829077337063403 ], [ 14.435202738568259, 35.829077367239222 ], [ 14.435201755474292, 35.829077112235694 ], [ 14.435201462160578, 35.829076191792481 ], [ 14.435201493057127, 35.829075162508374 ], [ 14.435201310174619, 35.829074347624243 ], [ 14.435201087853224, 35.829073918916308 ] ] ] } },
{ "type": "Feature", "properties": { "Name": "Misqa-D20", "Description": "", "Label": "D20", "source_file": "Il-Misqa-D20.geojson" }, "geometry": { "type": "Polygon", "coordinates": [ [ [ 14.435207799032334, 35.829087367732512 ], [ 14.43521093557171, 35.829085579859729 ], [ 14.435212712754108, 35.829083311549105 ], [ 14.435215434229997, 35.829082059979449 ], [ 14.435217500864088, 35.829083653133161 ], [ 14.435218957671749, 35.829084669455376 ], [ 14.435220583875662, 35.829085328691356 ], [ 14.435214553601982, 35.829087401105042 ], [ 14.435213800385332, 35.829089704940316 ], [ 14.435213293582068, 35.829092493477326 ], [ 14.435213434867755, 35.829093588063536 ], [ 14.43521352874675, 35.829094039118175 ], [ 14.435213818394722, 35.829094419632597 ], [ 14.435214291792779, 35.829094845098069 ], [ 14.435214830528921, 35.829095217965474 ], [ 14.435215257744222, 35.829096048819807 ], [ 14.435215218577557, 35.829096992110287 ], [ 14.43521466257905, 35.829097527366216 ], [ 14.435213958373446, 35.829097585779657 ], [ 14.435213265994685, 35.829097503168377 ], [ 14.435212629001491, 35.829097244466979 ], [ 14.435212208552381, 35.829096986783178 ], [ 14.435212048206077, 35.829096695051547 ], [ 14.435212073421699, 35.82909619257147 ], [ 14.435212241265296, 35.829095426236051 ], [ 14.435212581844326, 35.829094731252503 ], [ 14.435212587153652, 35.829094275361854 ], [ 14.43521225748708, 35.829092964403955 ], [ 14.435212084804569, 35.829091678901555 ], [ 14.435212073950579, 35.829089381924376 ], [ 14.435211005665249, 35.829088854407367 ], [ 14.435209683502448, 35.829089597268343 ], [ 14.43520907127176, 35.829091468310303 ], [ 14.435208321849169, 35.829092261287833 ], [ 14.435206988078754, 35.82909291601041 ], [ 14.435204902606186, 35.829093365787656 ], [ 14.435200652920614, 35.829094657851378 ], [ 14.435199231883836, 35.82909566210742 ], [ 14.435199054933333, 35.82909680565897 ], [ 14.435198722542649, 35.829098310273714 ], [ 14.43519891927078, 35.829099913128495 ], [ 14.43519853155674, 35.829101199936495 ], [ 14.435198522996345, 35.829102629697125 ], [ 14.435198605706965, 35.829104095471102 ], [ 14.435198159308484, 35.829105623598714 ], [ 14.435197200051084, 35.829107578487488 ], [ 14.435196801643043, 35.82910951658269 ], [ 14.435196270432348, 35.8291114546779 ], [ 14.435195252473456, 35.829112813436446 ], [ 14.435193540422121, 35.829113165634261 ], [ 14.435191930582841, 35.829112937741577 ], [ 14.435191463331009, 35.82911221867537 ], [ 14.435191887944109, 35.829110808646163 ], [ 14.435192256928326, 35.829109323275944 ], [ 14.435192335187073, 35.829107966783226 ], [ 14.435191562530676, 35.829107191940167 ], [ 14.435190559917364, 35.829106501767889 ], [ 14.435190187408347, 35.82910461623193 ], [ 14.435190821076864, 35.82910260524676 ], [ 14.435191489378505, 35.829101149702851 ], [ 14.435193633712521, 35.82910007919466 ], [ 14.435195150343006, 35.829098900876353 ], [ 14.435196213664144, 35.829097607553017 ], [ 14.43519690961906, 35.829096833974887 ], [ 14.435197033094926, 35.829096497240869 ], [ 14.435196887168884, 35.829096351626127 ], [ 14.435196292239709, 35.829096297020634 ], [ 14.435195758232055, 35.829096366187628 ], [ 14.43519463092799, 35.829096651956498 ], [ 14.435193760882312, 35.829096929451786 ], [ 14.43519271143944, 35.829097471039233 ], [ 14.435190957807757, 35.829098464173001 ], [ 14.435189795303234, 35.829099001295141 ], [ 14.435188768123476, 35.829099995694776 ], [ 14.435187762353678, 35.82910051234996 ], [ 14.435185337276778, 35.829102350869235 ], [ 14.43518418404712, 35.829103507923868 ], [ 14.43518299016495, 35.82910424065669 ], [ 14.435180068506119, 35.829105640392186 ], [ 14.435177152901913, 35.82910645580364 ], [ 14.435174225188454, 35.829107363143564 ], [ 14.435171170726951, 35.829108870550961 ], [ 14.435169935985693, 35.829110410905834 ], [ 14.435169444292191, 35.829114038804711 ], [ 14.435168674739202, 35.829119952564675 ], [ 14.435166570623837, 35.829119853089814 ], [ 14.435167067131806, 35.829116464460462 ], [ 14.435167485448755, 35.829112514227781 ], [ 14.435166706941894, 35.829109622075229 ], [ 14.435162140145106, 35.829106394095923 ], [ 14.435154437590015, 35.829104779016504 ], [ 14.43514965669376, 35.829104348328656 ], [ 14.435150984720497, 35.829101979545442 ], [ 14.435157757656874, 35.829102733249201 ], [ 14.435164132185239, 35.829104025312766 ], [ 14.435167983462783, 35.829106178751999 ], [ 14.435169341805446, 35.82910622680695 ], [ 14.435175287609855, 35.829104025312752 ], [ 14.435179138887404, 35.82910241023329 ], [ 14.435182193348906, 35.829100795153778 ], [ 14.435184982205056, 35.829099287746232 ], [ 14.435187107047856, 35.829097349650759 ], [ 14.435189032939192, 35.829096133121567 ], [ 14.435191755141435, 35.829094765523358 ], [ 14.435196137629687, 35.829094011819507 ], [ 14.435199988907234, 35.82909293509973 ], [ 14.435203574579431, 35.829091750707974 ], [ 14.435206518136829, 35.829090116502066 ], [ 14.435207799032334, 35.829087367732512 ] ] ] } },
{ "type": "Feature", "properties": { "Name": "Misqa-D19", "Description": "", "Label": "D19", "source_file": "Il-Misqa-D19.geojson" }, "geometry": { "type": "Polygon", "coordinates": [ [ [ 14.435227966483417, 35.82908561067682 ], [ 14.435227933733582, 35.829085327480705 ], [ 14.43522760776969, 35.829084731560314 ], [ 14.435226004555277, 35.829084477178164 ], [ 14.435227112319362, 35.829083994011022 ], [ 14.435228780996656, 35.829083477535477 ], [ 14.435228862570428, 35.829084227980694 ], [ 14.435228822400372, 35.829084992005932 ], [ 14.435228731200361, 35.829085600118155 ], [ 14.435227966483417, 35.82908561067682 ] ] ] } },
{ "type": "Feature", "properties": { "Name": "Misqa-D18", "Description": "", "Label": "D18", "source_file": "Il-Misqa-D18.geojson" }, "geometry": { "type": "Polygon", "coordinates": [ [ [ 14.435222440571438, 35.829102742950539 ], [ 14.435221730994872, 35.829102928359262 ], [ 14.435221441349576, 35.829101725967369 ], [ 14.435221202293844, 35.82910026394233 ], [ 14.435221602914027, 35.829096341942211 ], [ 14.435220547752136, 35.829094769006808 ], [ 14.435220256084003, 35.829094292689319 ], [ 14.435220164062317, 35.829093248175738 ], [ 14.43522126832258, 35.829092017141811 ], [ 14.43522251061537, 35.829090748803857 ], [ 14.435222970723823, 35.829088995513068 ], [ 14.435222970723823, 35.829088062911602 ], [ 14.43522303637455, 35.829087314067444 ], [ 14.435223146155545, 35.82908653621719 ], [ 14.435222616630494, 35.829085328691328 ], [ 14.435224378351402, 35.829084916668862 ], [ 14.435224311761781, 35.829086357717038 ], [ 14.435224096110497, 35.829087361503554 ], [ 14.435224074984093, 35.829087950999416 ], [ 14.435224074984093, 35.829089443161777 ], [ 14.435224028973252, 35.829091271060648 ], [ 14.435223936951571, 35.829092725918919 ], [ 14.435223844929858, 35.829094106169052 ], [ 14.43522366088648, 35.829095561027231 ], [ 14.435223649862424, 35.829097195179862 ], [ 14.435223683562484, 35.829098665183771 ], [ 14.435222872495453, 35.829100372436869 ], [ 14.435222518096269, 35.829101512797628 ], [ 14.435222440571438, 35.829102742950539 ] ] ] } },
{ "type": "Feature", "properties": { "Name": "Misqa-D17", "Description": "", "Label": "D17", "source_file": "Il-Misqa-D17.geojson" }, "geometry": { "type": "Polygon", "coordinates": [ [ [ 14.435215368057257, 35.829104980194828 ], [ 14.43521352871967, 35.829105740457088 ], [ 14.435212061877287, 35.829106534874036 ], [ 14.435210782317139, 35.829107247347665 ], [ 14.435209980228718, 35.829107716641673 ], [ 14.435208906182654, 35.829108324403641 ], [ 14.435208487079239, 35.829108582634127 ], [ 14.435208140675229, 35.829108746797445 ], [ 14.435207821473385, 35.829108659152475 ], [ 14.435207622819407, 35.829108237913431 ], [ 14.435207296138268, 35.829107615418366 ], [ 14.435206904608821, 35.829107172426411 ], [ 14.435206451990554, 35.829106904821991 ], [ 14.435205834933504, 35.829106775966096 ], [ 14.435205498749824, 35.829106986585607 ], [ 14.435205175703894, 35.829107304604292 ], [ 14.43520499853634, 35.829107959829351 ], [ 14.435205104009368, 35.829108566499855 ], [ 14.435205237807795, 35.829108951573673 ], [ 14.435205428257001, 35.829109299784378 ], [ 14.435205727286968, 35.829109664717535 ], [ 14.435206276406035, 35.829109947458662 ], [ 14.435206885036163, 35.82911008918235 ], [ 14.435207445091541, 35.829109952297365 ], [ 14.435208090756703, 35.829109607120031 ], [ 14.43520852372386, 35.829109236248996 ], [ 14.435209036204142, 35.829108867897652 ], [ 14.435209818151884, 35.829108321456857 ], [ 14.435210705516967, 35.829107847294438 ], [ 14.435211902124845, 35.829107157685009 ], [ 14.435213054379318, 35.829106557114279 ], [ 14.435213724014471, 35.829106250430556 ], [ 14.435214705455586, 35.82910586891343 ], [ 14.435215685145996, 35.829105505897502 ], [ 14.435215368057257, 35.829104980194828 ] ] ] } },
{ "type": "Feature", "properties": { "Name": "Misqa-D16", "Description": "", "Label": "D16", "source_file": "Il-Misqa-D16.geojson" }, "geometry": { "type": "Polygon", "coordinates": [ [ [ 14.435222813840515, 35.829104539323431 ], [ 14.435222071291564, 35.829106955460873 ], [ 14.435221805585041, 35.829108822485644 ], [ 14.435221746539154, 35.829109827806697 ], [ 14.435221097034322, 35.829110641637982 ], [ 14.435220595144198, 35.829111599086595 ], [ 14.435220388483582, 35.829112628343843 ], [ 14.435220742758943, 35.829113394302659 ], [ 14.435221510355543, 35.829114016644262 ], [ 14.43522230747512, 35.829114471432305 ], [ 14.435222585560266, 35.829115591280285 ], [ 14.435223605661101, 35.829116645380758 ], [ 14.43522486578563, 35.829117018370184 ], [ 14.435226585955659, 35.829116937285534 ], [ 14.435228006096054, 35.829116612946891 ], [ 14.435228966190929, 35.829116321042179 ], [ 14.43522952624631, 35.829115688581851 ], [ 14.435229426236406, 35.829114910169181 ], [ 14.435229739540592, 35.829114385886697 ], [ 14.435230120471884, 35.829113739655774 ], [ 14.435229866152248, 35.829113409234211 ], [ 14.435229029023976, 35.829113386133969 ], [ 14.43522740603672, 35.829112493846416 ], [ 14.435226585955649, 35.829111342444264 ], [ 14.435225325831123, 35.829109834269602 ], [ 14.4352243657362, 35.829109461280183 ], [ 14.435223281732382, 35.8291094926997 ], [ 14.435222809365237, 35.829109085784026 ], [ 14.435222734953832, 35.829107821750746 ], [ 14.435223024074435, 35.829106533595592 ], [ 14.435223402495453, 35.829105255216 ], [ 14.435222813840515, 35.829104539323431 ] ] ] } },
{ "type": "Feature", "properties": { "Name": "Misqa-D15", "Description": "", "Label": "D15", "source_file": "Il-Misqa-D15.geojson" }, "geometry": { "type": "Polygon", "coordinates": [ [ [ 14.435234313877773, 35.829117669061077 ], [ 14.435234970356296, 35.829117247773489 ], [ 14.435236167591963, 35.829117792571516 ], [ 14.435234827329616, 35.829118417894506 ], [ 14.435234313877773, 35.829117669061077 ] ] ] } },
{ "type": "Feature", "properties": { "Name": "Misqa-D14", "Description": "", "Label": "D14", "source_file": "Il-Misqa-D14.geojson" }, "geometry": { "type": "Polygon", "coordinates": [ [ [ 14.435200090220905, 35.829116937523466 ], [ 14.435201928320692, 35.829117220955141 ], [ 14.435203092589322, 35.829118139682251 ], [ 14.435203596833743, 35.829119098222961 ], [ 14.435203689163083, 35.829119833497593 ], [ 14.435203634908023, 35.829120672559434 ], [ 14.435203553838267, 35.829120994427775 ], [ 14.435203813541818, 35.829121176392206 ], [ 14.435204170776954, 35.829121176392213 ], [ 14.435204481416203, 35.829121176392213 ], [ 14.435204481416219, 35.829121541583184 ], [ 14.435204093117116, 35.829121566768791 ], [ 14.435203720350033, 35.829121617139961 ], [ 14.435203394178808, 35.829121743067859 ], [ 14.435202726304416, 35.829122221593991 ], [ 14.435201912046965, 35.829122655914723 ], [ 14.435201328258991, 35.829122868709582 ], [ 14.435200358356164, 35.829122955190229 ], [ 14.435198790441927, 35.829122905124756 ], [ 14.435197478412004, 35.829122147211649 ], [ 14.435196625817053, 35.829121389719482 ], [ 14.435196297194548, 35.829120101352707 ], [ 14.435196472499031, 35.829118821930358 ], [ 14.43519706547368, 35.829117852214019 ], [ 14.435198419268128, 35.829117116436635 ], [ 14.435200090220905, 35.829116937523466 ] ] ] } },
{ "type": "Feature", "properties": { "Name": "Misqa-D13", "Description": "", "Label": "D13", "source_file": "Il-Misqa-D13.geojson" }, "geometry": { "type": "Polygon", "coordinates": [ [ [ 14.435236335211284, 35.829181252463592 ], [ 14.435235725833564, 35.829180307714665 ], [ 14.435236375171913, 35.829180068414075 ], [ 14.435236965479509, 35.829181001686337 ], [ 14.435236335211284, 35.829181252463592 ] ] ] } },
{ "type": "Feature", "properties": { "Name": "Misqa-D12", "Description": "", "Label": "D12", "source_file": "Il-Misqa-D12.geojson" }, "geometry": { "type": "Polygon", "coordinates": [ [ [ 14.435264916814043, 35.829092625271947 ], [ 14.435266025811739, 35.829091587951872 ], [ 14.435267518623055, 35.829091386231575 ], [ 14.435268909672388, 35.829091690665614 ], [ 14.435270135051802, 35.829092924779616 ], [ 14.435270630705597, 35.829093932127343 ], [ 14.435270900726577, 35.829094528962791 ], [ 14.435270987656844, 35.829095162160854 ], [ 14.435270570230553, 35.829096016326609 ], [ 14.435269834439325, 35.82909664565895 ], [ 14.435269601158616, 35.829097314575364 ], [ 14.435269641854685, 35.829098022002043 ], [ 14.435270232350366, 35.829098545897452 ], [ 14.435270501580197, 35.829099254397939 ], [ 14.435270632898618, 35.829100073919172 ], [ 14.435270388138139, 35.82910116294034 ], [ 14.435269716980299, 35.829102063859303 ], [ 14.435269154195629, 35.829102337569175 ], [ 14.435267783520482, 35.829102256682937 ], [ 14.435266144142977, 35.82910139285282 ], [ 14.435265008330944, 35.829100419720056 ], [ 14.435264376611821, 35.829099262841304 ], [ 14.435264749913774, 35.829098185130718 ], [ 14.435265806179753, 35.829097482858401 ], [ 14.435266767867555, 35.829097226816693 ], [ 14.435267219220384, 35.829096683014988 ], [ 14.435266977210551, 35.829095988414466 ], [ 14.435266208266436, 35.829095555117185 ], [ 14.435265246232497, 35.829094882716333 ], [ 14.435264748628711, 35.829093914459008 ], [ 14.435264916814043, 35.829092625271947 ] ] ] } },
{ "type": "Feature", "properties": { "Name": "Misqa-D11", "Description": "", "Label": "D11", "source_file": "Il-Misqa-D11.geojson" }, "geometry": { "type": "Polygon", "coordinates": [ [ [ 14.435271005372664, 35.829131108542036 ], [ 14.435271294854536, 35.82913080165681 ], [ 14.435271452929799, 35.829130116139439 ], [ 14.43527159284792, 35.829129290165362 ], [ 14.435271641858201, 35.829128414453791 ], [ 14.435270928807487, 35.8291263770802 ], [ 14.435270309673632, 35.82912477459945 ], [ 14.435269062031958, 35.829122892696361 ], [ 14.435267962960681, 35.829120577039781 ], [ 14.435267183460006, 35.829117650703047 ], [ 14.43526549524028, 35.82911292304685 ], [ 14.435264486028565, 35.829111614950172 ], [ 14.43526281321218, 35.829110254867601 ], [ 14.43526149285883, 35.829109522816665 ], [ 14.435258350564657, 35.82910788885475 ], [ 14.435256843560335, 35.82910769565904 ], [ 14.435255422431275, 35.829108284548091 ], [ 14.4352546913869, 35.829108243890119 ], [ 14.435254186502762, 35.829108539301096 ], [ 14.435254149177981, 35.8291091176525 ], [ 14.435254049664671, 35.829109472645264 ], [ 14.435253466856111, 35.829109588393521 ], [ 14.435250774269745, 35.829109713976052 ], [ 14.435249222072384, 35.829109746178069 ], [ 14.435248492512303, 35.829110038966924 ], [ 14.435248562040366, 35.829110493492969 ], [ 14.435248608159213, 35.829110829422241 ], [ 14.435247684189676, 35.829111180540977 ], [ 14.435246618785438, 35.829110958308981 ], [ 14.435244483359718, 35.829111165500585 ], [ 14.435244044784147, 35.829111459656716 ], [ 14.435244112353345, 35.829112190642739 ], [ 14.435244224642204, 35.829113455029443 ], [ 14.435244166630408, 35.82911479760709 ], [ 14.435243913509565, 35.829116297250337 ], [ 14.435243276375688, 35.829116805319792 ], [ 14.43524289808034, 35.829117648183406 ], [ 14.435243158032213, 35.829118494046099 ], [ 14.435243376722843, 35.829120185044182 ], [ 14.435243944700259, 35.829122162492851 ], [ 14.435244224771294, 35.82912370413711 ], [ 14.435243584230633, 35.829125122968705 ], [ 14.435243254445904, 35.829127175190045 ], [ 14.435243486859012, 35.829128598123575 ], [ 14.435243937510583, 35.829130022082595 ], [ 14.435245629044298, 35.829130859438472 ], [ 14.435248194371397, 35.829131582413403 ], [ 14.435249913651804, 35.829131926204653 ], [ 14.435251711135086, 35.829131500199232 ], [ 14.435253439370069, 35.829130580173469 ], [ 14.435254968298519, 35.829130409627474 ], [ 14.435257168635694, 35.829131308617363 ], [ 14.435258599729794, 35.829131256098414 ], [ 14.435260493648233, 35.829130909537177 ], [ 14.435262753396115, 35.829130268477904 ], [ 14.43526540042388, 35.829129727977296 ], [ 14.435267922570324, 35.829129700332594 ], [ 14.435268676935101, 35.82912996272448 ], [ 14.435269438139011, 35.829130652561268 ], [ 14.435270101612213, 35.829131469439076 ], [ 14.435271005372664, 35.829131108542036 ] ] ] } },
{ "type": "Feature", "properties": { "Name": "Misqa-D10", "Description": "", "Label": "D10", "source_file": "Il-Misqa-D10.geojson" }, "geometry": { "type": "Polygon", "coordinates": [ [ [ 14.435279866979078, 35.82913956962593 ], [ 14.43528117789473, 35.829138447072523 ], [ 14.435282095970964, 35.829137633181325 ], [ 14.43528120470501, 35.829137134333237 ], [ 14.435279494484766, 35.829136313460886 ], [ 14.435277461686139, 35.829135432287565 ], [ 14.435276041251825, 35.829134693286569 ], [ 14.435274773333765, 35.829134097895221 ], [ 14.435273594032175, 35.82913337788883 ], [ 14.435272504992174, 35.829132301073926 ], [ 14.435271365190891, 35.829131459635136 ], [ 14.435271005369758, 35.829131112233021 ], [ 14.435270102700668, 35.829131466718536 ], [ 14.435271340282801, 35.829132599415516 ], [ 14.43527216701748, 35.829133567661685 ], [ 14.435271593731274, 35.829133993647133 ], [ 14.435271216193858, 35.829134652753538 ], [ 14.435271781001402, 35.829135423457544 ], [ 14.435272678468685, 35.829135677737298 ], [ 14.435273929009785, 35.82913563002829 ], [ 14.435275195029668, 35.829136493335199 ], [ 14.435275782655749, 35.829137139114984 ], [ 14.435275648781966, 35.829137459995302 ], [ 14.435275033402085, 35.829137635720144 ], [ 14.435273740008016, 35.829137540334756 ], [ 14.435272556277239, 35.829137445464632 ], [ 14.435271631182649, 35.829137994828464 ], [ 14.435271408186196, 35.829138511767979 ], [ 14.435271580483777, 35.829138959118325 ], [ 14.435272191434523, 35.82913940852977 ], [ 14.435273046555098, 35.829139448270972 ], [ 14.435274411947962, 35.829138668774739 ], [ 14.435275839722021, 35.829138371835647 ], [ 14.435276601644066, 35.829138379220588 ], [ 14.435277422384614, 35.82913856701812 ], [ 14.435278512758778, 35.829139097776611 ], [ 14.435279866979078, 35.82913956962593 ] ] ] } },
{ "type": "Feature", "properties": { "Name": "Misqa-D09", "Description": "", "Label": "D09", "source_file": "Il-Misqa-D09.geojson" }, "geometry": { "type": "Polygon", "coordinates": [ [ [ 14.435265769778443, 35.829160550467513 ], [ 14.435265186727403, 35.82916151732487 ], [ 14.435263747015679, 35.829161938880013 ], [ 14.435262308623587, 35.829161682741947 ], [ 14.435261088792361, 35.829161021799216 ], [ 14.435260764551028, 35.829160061382083 ], [ 14.435260794652217, 35.829159131171949 ], [ 14.435261103767541, 35.829158323937421 ], [ 14.435262128078231, 35.829157688303027 ], [ 14.435263460838467, 35.829157387784818 ], [ 14.435264675989901, 35.829157739437861 ], [ 14.435265234674528, 35.829158225936943 ], [ 14.435265388764238, 35.829158371689417 ], [ 14.435265574663829, 35.82915861418644 ], [ 14.435265837825048, 35.829159228050109 ], [ 14.43526591271368, 35.829159462275229 ], [ 14.435265769778443, 35.829160550467513 ] ] ] } },
{ "type": "Feature", "properties": { "Name": "Misqa-D08", "Description": "", "Label": "D08", "source_file": "Il-Misqa-D08.geojson" }, "geometry": { "type": "Polygon", "coordinates": [ [ [ 14.435303648895802, 35.829189640650647 ], [ 14.435303147026314, 35.829188421187368 ], [ 14.435303999217121, 35.829186304238164 ], [ 14.435305481130836, 35.829183984029406 ], [ 14.435309756121763, 35.829180352750022 ], [ 14.435313326552638, 35.829179552065355 ], [ 14.435313836534998, 35.829178591047103 ], [ 14.435313554452481, 35.829177273193551 ], [ 14.435311959153571, 35.829175363868487 ], [ 14.435310439821301, 35.829173885681307 ], [ 14.435310211921458, 35.829172099538397 ], [ 14.435310895620978, 35.829170559760044 ], [ 14.435312794786345, 35.829170251804364 ], [ 14.43531514975138, 35.829171729991614 ], [ 14.435317504716437, 35.829174440001481 ], [ 14.435318568249041, 35.829176718873377 ], [ 14.435319479848395, 35.829178073878246 ], [ 14.435321278321128, 35.829178910172658 ], [ 14.435324136288292, 35.829177739593035 ], [ 14.435325709110764, 35.829176472508856 ], [ 14.435327684242763, 35.829174932730538 ], [ 14.435328879026189, 35.829173215288215 ], [ 14.43533115880134, 35.829171568389107 ], [ 14.435334065438365, 35.829169820666408 ], [ 14.43533702813631, 35.82916901998162 ], [ 14.435339231168138, 35.829167295429784 ], [ 14.435340880873166, 35.829165853066087 ], [ 14.435342049526792, 35.829164787852498 ], [ 14.435342926337135, 35.829163943751738 ], [ 14.435344450994942, 35.829163241747096 ], [ 14.43534692788681, 35.829163100426015 ], [ 14.435349596296458, 35.829162568629727 ], [ 14.435349899447278, 35.829162232272566 ], [ 14.43534972443331, 35.829161222450672 ], [ 14.435349016884485, 35.829160232763734 ], [ 14.435347273345659, 35.829159033233644 ], [ 14.435344379227725, 35.829157836697917 ], [ 14.43534021873414, 35.829157256073614 ], [ 14.435338547468605, 35.829157871985061 ], [ 14.435336724269865, 35.829158734261114 ], [ 14.435334369304817, 35.829159350172567 ], [ 14.435332774005913, 35.82916033563086 ], [ 14.435332459287405, 35.829161405941718 ], [ 14.435332177756466, 35.82916235935604 ], [ 14.43533098604061, 35.829162502934786 ], [ 14.435330000048083, 35.829162050769433 ], [ 14.435329275155118, 35.829160943449054 ], [ 14.435328806193164, 35.829159103807996 ], [ 14.435328823741983, 35.829157933576205 ], [ 14.43532887694567, 35.829156229859294 ], [ 14.43532920530218, 35.829155675192084 ], [ 14.43532941591004, 35.829154869677197 ], [ 14.435329130272709, 35.829154214788581 ], [ 14.435328381160184, 35.829153905353628 ], [ 14.435326144494198, 35.829153880940027 ], [ 14.4353249323005, 35.829153861339591 ], [ 14.435324081036285, 35.829153509708938 ], [ 14.435323540640743, 35.829152965597139 ], [ 14.43532294474711, 35.829151802483075 ], [ 14.435322663098509, 35.829150064114465 ], [ 14.435322030650948, 35.829148579806336 ], [ 14.435321922286874, 35.829146816584739 ], [ 14.435322997388246, 35.829145115808871 ], [ 14.435324552720949, 35.829145066384285 ], [ 14.435326994887939, 35.829145320991465 ], [ 14.435328136408996, 35.829144553782029 ], [ 14.435329237283522, 35.829143769299243 ], [ 14.435330211102533, 35.829143131707426 ], [ 14.435332655768569, 35.829143717793819 ], [ 14.43533377614979, 35.82914480899673 ], [ 14.435335142894294, 35.829146393523573 ], [ 14.435336983222236, 35.829148236280901 ], [ 14.435339465787571, 35.829150301595838 ], [ 14.435342155578434, 35.829151491171366 ], [ 14.435345874753164, 35.82915283435144 ], [ 14.43534985839011, 35.829154501952509 ], [ 14.43535274580776, 35.829157061286722 ], [ 14.435355145016155, 35.829159526093363 ], [ 14.435355308099281, 35.829162189505105 ], [ 14.435354634720669, 35.829164462237365 ], [ 14.435354591197401, 35.829166494744996 ], [ 14.435353918595659, 35.829167870847115 ], [ 14.435354003254828, 35.829168415309063 ], [ 14.435355715923439, 35.82916975907527 ], [ 14.435357994921873, 35.829171422035948 ], [ 14.435359362320934, 35.829172653858635 ], [ 14.435357942119433, 35.82917327346685 ], [ 14.435355504165434, 35.829171545218209 ], [ 14.43535414864655, 35.829170615372597 ], [ 14.435353434470873, 35.829170194859977 ], [ 14.435352921643606, 35.829170275882191 ], [ 14.435352391134215, 35.829171554157639 ], [ 14.435351398166862, 35.829172086532218 ], [ 14.435350350152527, 35.829172407857989 ], [ 14.435349557105816, 35.82917279083054 ], [ 14.435348169843042, 35.829172806826357 ], [ 14.435345408138978, 35.829172521043965 ], [ 14.435341889999634, 35.829171483627078 ], [ 14.435338775368445, 35.829171422035955 ], [ 14.435336496370022, 35.829172037947295 ], [ 14.435334673171273, 35.829173269769953 ], [ 14.435333635296061, 35.829174989964656 ], [ 14.435331412669022, 35.829176779213164 ], [ 14.435328957758671, 35.829178520010011 ], [ 14.43532609610094, 35.829180211535544 ], [ 14.435323006521514, 35.829181238946184 ], [ 14.435320028889707, 35.829182882566386 ], [ 14.43531704891674, 35.829184787311121 ], [ 14.435314617985078, 35.829186819818204 ], [ 14.435311229278264, 35.829189255082902 ], [ 14.43530791129688, 35.829189953356639 ], [ 14.435304818291842, 35.829190022556546 ], [ 14.435303648895802, 35.829189640650647 ] ], [ [ 14.435327073677499, 35.829150464614635 ], [ 14.435326405603378, 35.829150767391319 ], [ 14.435325483578355, 35.82915076305941 ], [ 14.435323888238999, 35.829150199447497 ], [ 14.435323074270121, 35.829149029152362 ], [ 14.435322794923538, 35.829148076273448 ], [ 14.435322840417681, 35.829147040703809 ], [ 14.435323482967872, 35.829145964885036 ], [ 14.435325804791594, 35.829145811427324 ], [ 14.435326678730426, 35.829145957458849 ], [ 14.435327290163002, 35.829146419204683 ], [ 14.435327439129107, 35.829147397264578 ], [ 14.435327392360604, 35.82914896317898 ], [ 14.435327317843395, 35.829149742688905 ], [ 14.435327073677499, 35.829150464614635 ] ] ] } },
{ "type": "Feature", "properties": { "Name": "Misqa-D07", "Description": "", "Label": "D07", "source_file": "Il-Misqa-D07.geojson" }, "geometry": { "type": "Polygon", "coordinates": [ [ [ 14.435334765886829, 35.829079071917143 ], [ 14.435335047205626, 35.829079180509886 ], [ 14.435335195486912, 35.829079313846336 ], [ 14.435335272343988, 35.829079496682517 ], [ 14.435335310136841, 35.829079673287126 ], [ 14.435335244350087, 35.829079892089069 ], [ 14.435335088228436, 35.829080044411768 ], [ 14.435334958074398, 35.82908013012532 ], [ 14.43533465021172, 35.829080164540734 ], [ 14.435334290969379, 35.829080080430366 ], [ 14.435334057138791, 35.829079931143802 ], [ 14.435333966331919, 35.82907967926856 ], [ 14.435334013410269, 35.829079417066112 ], [ 14.435334150377154, 35.829079199568994 ], [ 14.435334397033701, 35.8290790854197 ], [ 14.435334765886829, 35.829079071917143 ] ] ] } },
{ "type": "Feature", "properties": { "Name": "Misqa-D06", "Description": "", "Label": "D06", "source_file": "Il-Misqa-D06.geojson" }, "geometry": { "type": "Polygon", "coordinates": [ [ [ 14.435341283025581, 35.829073643321244 ], [ 14.435341727698605, 35.829074094327453 ], [ 14.435341976950388, 35.829074787321566 ], [ 14.435341986160555, 35.829075423823284 ], [ 14.435341656957522, 35.829075771190624 ], [ 14.435341126678138, 35.829076094770635 ], [ 14.435340366476192, 35.829076221898468 ], [ 14.435339336552099, 35.82907615469427 ], [ 14.435337816036302, 35.829075956813043 ], [ 14.43533637089134, 35.829075558273111 ], [ 14.43533495289638, 35.829075047793083 ], [ 14.435333875849615, 35.829074309014885 ], [ 14.435333324913163, 35.829073574644326 ], [ 14.435333395736883, 35.829072800232431 ], [ 14.435333715606541, 35.829072096220308 ], [ 14.435334267364336, 35.829071693790645 ], [ 14.435335234350294, 35.829071421686727 ], [ 14.435336286700318, 35.829071511432822 ], [ 14.435337725502396, 35.82907183311508 ], [ 14.435339098663341, 35.829072393654791 ], [ 14.435340366219302, 35.829072989959585 ], [ 14.435341283025581, 35.829073643321244 ] ] ] } },
{ "type": "Feature", "properties": { "Name": "Misqa-D05", "Description": "", "Label": "D05", "source_file": "Il-Misqa-D05.geojson" }, "geometry": { "type": "Polygon", "coordinates": [ [ [ 14.435363950312423, 35.829076936449376 ], [ 14.435364401150867, 35.829077272851919 ], [ 14.435364732096449, 35.829077529991615 ], [ 14.435364745885842, 35.829078055450978 ], [ 14.435364897569208, 35.829078301410703 ], [ 14.435365311251191, 35.829078368490663 ], [ 14.435365752511974, 35.829078368490606 ], [ 14.435366166193951, 35.829078659170278 ], [ 14.435366050203394, 35.829078944728423 ], [ 14.43536562840737, 35.829079028109838 ], [ 14.435365159567793, 35.829078782150148 ], [ 14.435364581992435, 35.829078507823326 ], [ 14.435363835785505, 35.829078435570537 ], [ 14.435363339367132, 35.829078267870756 ], [ 14.435362622318392, 35.829078211970817 ], [ 14.435362070742416, 35.829078066630984 ], [ 14.435361497205564, 35.829077742100736 ], [ 14.435361326114863, 35.829077451731713 ], [ 14.43536150537706, 35.829076903912359 ], [ 14.43536211726623, 35.829076820649234 ], [ 14.435363173894343, 35.829076780932503 ], [ 14.435363950312423, 35.829076936449376 ] ] ] } },
{ "type": "Feature", "properties": { "Name": "Misqa-D04", "Description": "around T1", "Label": "D04", "source_file": "Il-Misqa-D04.geojson" }, "geometry": { "type": "Polygon", "coordinates": [ [ [ 14.435371585283983, 35.829094229101486 ], [ 14.435373680161238, 35.829094323215706 ], [ 14.435375181519682, 35.829094203859647 ], [ 14.435376373631392, 35.829093914505215 ], [ 14.435376714568427, 35.829093262992743 ], [ 14.435377517733926, 35.829093098220284 ], [ 14.435379328637538, 35.829093106727548 ], [ 14.43538039124973, 35.829092837832903 ], [ 14.435381718382631, 35.829091748521193 ], [ 14.435382916314481, 35.8290906375343 ], [ 14.435383469285862, 35.829089270699171 ], [ 14.435383739029795, 35.829087712919716 ], [ 14.435382819049916, 35.829086107414831 ], [ 14.435381068542261, 35.829084877235857 ], [ 14.435378535842537, 35.829083951951873 ], [ 14.435377030760185, 35.829083494498882 ], [ 14.435375601236501, 35.829083016928884 ], [ 14.435374572178695, 35.829082786903335 ], [ 14.435373830730608, 35.829082658450638 ], [ 14.435373350656384, 35.829082305410708 ], [ 14.435372277779457, 35.829081871424499 ], [ 14.435371688690072, 35.829081718894649 ], [ 14.435371106025748, 35.829081485909136 ], [ 14.435370410040631, 35.829081486196294 ], [ 14.43536947982324, 35.82908148422014 ], [ 14.43536907080051, 35.829081481401055 ], [ 14.435367789762788, 35.829081724360414 ], [ 14.435367217267842, 35.8290819625769 ], [ 14.435366571279035, 35.829082267141025 ], [ 14.435365869951752, 35.829082489349553 ], [ 14.435364512362549, 35.829082747971931 ], [ 14.435361242996809, 35.829083317142754 ], [ 14.435360824103032, 35.829083557270678 ], [ 14.435360324443428, 35.829083767330744 ], [ 14.435359915918172, 35.829083923312446 ], [ 14.435359225602143, 35.829084475392513 ], [ 14.43535918749471, 35.829085438061931 ], [ 14.435359393371886, 35.829086383269114 ], [ 14.435360255579818, 35.829088124234516 ], [ 14.435361097651153, 35.829089909248282 ], [ 14.435362705238227, 35.829091469586437 ], [ 14.435365512089877, 35.829093315706025 ], [ 14.435368584805676, 35.829094151801044 ], [ 14.435371585283983, 35.829094229101486 ] ], [ [ 14.435366717646302, 35.82909181558324 ], [ 14.435365276280331, 35.829090813297029 ], [ 14.435364474883137, 35.829089377566589 ], [ 14.435363788528619, 35.829088068263687 ], [ 14.435363274403688, 35.829086995808183 ], [ 14.435363146187626, 35.829085839143872 ], [ 14.435362520879503, 35.829085515152919 ], [ 14.435363225094756, 35.829085152873532 ], [ 14.435363573455723, 35.829084455343136 ], [ 14.435364081594011, 35.829084018412274 ], [ 14.435365018030666, 35.829083343120523 ], [ 14.435365913821336, 35.82908268362786 ], [ 14.435367129637179, 35.829082212805844 ], [ 14.435368612964151, 35.829081822684749 ], [ 14.435369940894244, 35.829081673726726 ], [ 14.435371022195953, 35.829081732359022 ], [ 14.435372995123322, 35.829082235783368 ], [ 14.43537402876545, 35.829082750434296 ], [ 14.435374758780863, 35.829083351827414 ], [ 14.435375411395228, 35.829083968592805 ], [ 14.435376005373614, 35.829084679498038 ], [ 14.435376559035225, 35.829085626252152 ], [ 14.435376843186454, 35.829086430117172 ], [ 14.435376989628654, 35.829087579524739 ], [ 14.435376747616482, 35.829089010353357 ], [ 14.435375651294464, 35.82909101939633 ], [ 14.435373790629926, 35.829091801599198 ], [ 14.435370908094548, 35.82909224444014 ], [ 14.435369284640622, 35.829092268288029 ], [ 14.435366717646302, 35.82909181558324 ] ] ] } },
{ "type": "Feature", "properties": { "Name": "Misqa-D03", "Description": "", "Label": "D03", "source_file": "Il-Misqa-D03.geojson" }, "geometry": { "type": "Polygon", "coordinates": [ [ [ 14.435380552748921, 35.829081777383507 ], [ 14.435380948429749, 35.829082080246138 ], [ 14.435380887596805, 35.829082533504014 ], [ 14.435380010750599, 35.829082739865306 ], [ 14.435378798862887, 35.829082823298052 ], [ 14.435377763078579, 35.829082616885465 ], [ 14.435377451540297, 35.829082381795089 ], [ 14.435377542448196, 35.829082091426116 ], [ 14.435378292231357, 35.829081806923234 ], [ 14.435379078357919, 35.829081727063937 ], [ 14.435379569489839, 35.829081722486592 ], [ 14.435380552748921, 35.829081777383507 ] ] ] } },
{ "type": "Feature", "properties": { "Name": "Misqa-D02", "Description": "", "Label": "D02", "source_file": "Il-Misqa-D02.geojson" }, "geometry": { "type": "Polygon", "coordinates": [ [ [ 14.435382951202875, 35.829076930874976 ], [ 14.435384047970244, 35.829077024320547 ], [ 14.435384282331633, 35.829078045996162 ], [ 14.435383405485428, 35.829078372024327 ], [ 14.43538206566126, 35.829078355825835 ], [ 14.435380606426556, 35.829078305835736 ], [ 14.435379945491276, 35.829078264203673 ], [ 14.435379096807569, 35.829078249245327 ], [ 14.435376882850081, 35.829078219328586 ], [ 14.435375923468488, 35.829078249245299 ], [ 14.435375586020374, 35.829077710543551 ], [ 14.435376971849511, 35.829076907035422 ], [ 14.435378783163594, 35.829076192470737 ], [ 14.435380801383188, 35.829075673995717 ], [ 14.43538185724592, 35.829076098143325 ], [ 14.435382951202875, 35.829076930874976 ] ] ] } },
{ "type": "Feature", "properties": { "Name": "Misqa-D01", "Description": "", "Label": "D01", "source_file": "Il-Misqa-D01.geojson" }, "geometry": { "type": "Polygon", "coordinates": [ [ [ 14.435402658557125, 35.829064656331404 ], [ 14.435403168019239, 35.829069564361127 ], [ 14.435403910813609, 35.829074232873197 ], [ 14.435402358541864, 35.829074484670294 ], [ 14.435401967005006, 35.829068929381222 ], [ 14.435400598404991, 35.829059679472515 ], [ 14.435399487271692, 35.829056972281563 ], [ 14.435397855868192, 35.829057025189094 ], [ 14.435396659436972, 35.829058624239387 ], [ 14.435395049854169, 35.829062527571452 ], [ 14.435393779792934, 35.829067788515907 ], [ 14.435392570120872, 35.829072368369751 ], [ 14.435391176677452, 35.829078114708096 ], [ 14.435389648688099, 35.829078795477244 ], [ 14.435391128149085, 35.829073011401583 ], [ 14.435392356848329, 35.829068187191019 ], [ 14.43539367742132, 35.829063574341411 ], [ 14.435394640405589, 35.82906010858548 ], [ 14.435396354976984, 35.829055332148279 ], [ 14.435398877333942, 35.829049431865378 ], [ 14.435400259477374, 35.829049485660391 ], [ 14.435401053419046, 35.82905485598053 ], [ 14.435401967005021, 35.829060040917931 ], [ 14.435402658557125, 35.829064656331404 ] ] ] } }
]
}
