{
"type": "FeatureCollection",
"name": "Il-Misqa_zones",
"crs": { "type": "name", "properties": { "name": "urn:ogc:def:crs:OGC:1.3:CRS84" } },
"features": [
{ "type": "Feature", "properties": { "Name": "Z-T8", "Description": "", "source_file": "Il-Misqa_Z-T8.geojson", "Area": null }, "geometry": { "type": "Polygon", "coordinates": [ [ [ 14.435281463712613, 35.829217192653942 ], [ 14.43529547009312, 35.82920390994294 ], [ 14.435332149462358, 35.829193624914019 ], [ 14.435349643545074, 35.829203613244395 ], [ 14.435379637970332, 35.82921630497524 ], [ 14.435379653908353, 35.829216391980921 ], [ 14.435393096731911, 35.829226151336712 ], [ 14.435403945219834, 35.829238297400998 ], [ 14.43538317374157, 35.829263227024349 ], [ 14.435358455009744, 35.829286675952055 ], [ 14.435328026617153, 35.829311526234392 ], [ 14.435292061990141, 35.829335678398465 ], [ 14.435255820074133, 35.829361872051273 ], [ 14.435225002939688, 35.829380344433886 ], [ 14.43519233936463, 35.829399557816956 ], [ 14.435181470294287, 35.829391492062484 ], [ 14.435205392447285, 35.829372234472451 ], [ 14.435207138232947, 35.829349644332673 ], [ 14.435214782201088, 35.829333861412685 ], [ 14.435221179735858, 35.829326143472066 ], [ 14.435233922191459, 35.829318132512661 ], [ 14.435245899263467, 35.829306243953624 ], [ 14.435244393662536, 35.829294937706948 ], [ 14.435256368442159, 35.82928337196951 ], [ 14.435285909144451, 35.829268418307045 ], [ 14.43526669544552, 35.829252589895887 ], [ 14.435250721877344, 35.829243415785271 ], [ 14.435244811491575, 35.829237148319635 ], [ 14.435264537066843, 35.829224318106498 ], [ 14.435281463712613, 35.829217192653942 ] ] ] } },
{ "type": "Feature", "properties": { "Name": "Z-T7-T6", "Description": "", "source_file": "Il-Misqa_Z-T7.geojson", "Area": null }, "geometry": { "type": "Polygon", "coordinates": [ [ [ 14.435123930014871, 35.829343765119241 ], [ 14.435135782940325, 35.829293458803463 ], [ 14.435123649663163, 35.829271449101604 ], [ 14.435118626683844, 35.829253023985231 ], [ 14.435118894611968, 35.829234593279971 ], [ 14.435115256726704, 35.829224654872739 ], [ 14.435117680338069, 35.82921232972128 ], [ 14.435136630237023, 35.829198197544784 ], [ 14.435188744602032, 35.829188157922175 ], [ 14.43521348854056, 35.82918859517342 ], [ 14.435221217329962, 35.829190295220108 ], [ 14.435232061769449, 35.829191604162482 ], [ 14.435236382077081, 35.829190939443741 ], [ 14.435245554756239, 35.829191526835778 ], [ 14.43525102523328, 35.829190531404713 ], [ 14.435256713519069, 35.829190206639268 ], [ 14.435260972607184, 35.829190208649784 ], [ 14.435262423517695, 35.829189349010591 ], [ 14.435259242675432, 35.829185458011963 ], [ 14.435254443509905, 35.829183648245099 ], [ 14.435253104207922, 35.829182155187404 ], [ 14.435253104207911, 35.82918125030394 ], [ 14.435255280573683, 35.829179983467064 ], [ 14.435256229245935, 35.829177495037435 ], [ 14.435262833645981, 35.829177893394949 ], [ 14.43527497362131, 35.829179017915017 ], [ 14.435287057768026, 35.829184245537263 ], [ 14.435293320110537, 35.829189533352064 ], [ 14.435295470093132, 35.82920390994294 ], [ 14.435281463712609, 35.829217192653957 ], [ 14.435264537066837, 35.829224318106505 ], [ 14.435244811491575, 35.829237148319635 ], [ 14.435250721877344, 35.829243415785271 ], [ 14.43526669544552, 35.829252589895887 ], [ 14.435285909144451, 35.829268418307045 ], [ 14.435256368442159, 35.82928337196951 ], [ 14.435244393662536, 35.829294937706948 ], [ 14.435245899263467, 35.829306243953624 ], [ 14.435233922191459, 35.829318132512661 ], [ 14.435221179735858, 35.829326143472066 ], [ 14.435214782201088, 35.829333861412685 ], [ 14.435207138232947, 35.829349644332673 ], [ 14.435205392447285, 35.829372234472451 ], [ 14.435181470294287, 35.829391492062484 ], [ 14.435157423952978, 35.829372331880094 ], [ 14.435123930014871, 35.829343765119241 ] ] ] } },
{ "type": "Feature", "properties": { "Name": "Z-T5", "Description": "", "source_file": "Il-Misqa_Z-T5.geojson", "Area": null }, "geometry": { "type": "Polygon", "coordinates": [ [ [ 14.435240042903882, 35.829150945635668 ], [ 14.435239288031893, 35.829142301597685 ], [ 14.435239354349557, 35.829127957266905 ], [ 14.435238724851255, 35.829123279469897 ], [ 14.435238252482463, 35.829118645221662 ], [ 14.435238476072163, 35.829115647218167 ], [ 14.435238666761428, 35.829114624027184 ], [ 14.435240986366798, 35.829112463603408 ], [ 14.435243088166166, 35.829109871851436 ], [ 14.435243187076209, 35.829107873875998 ], [ 14.435241277006636, 35.829101795500492 ], [ 14.435245264374075, 35.829090252217632 ], [ 14.435251482357861, 35.829087367404924 ], [ 14.435263378459723, 35.829085851354101 ], [ 14.435275481962465, 35.829087326597609 ], [ 14.435284165650518, 35.829091092519072 ], [ 14.43528340216124, 35.829078701725052 ], [ 14.435286438818386, 35.829065247113505 ], [ 14.435297030263353, 35.829058861135977 ], [ 14.435311444042096, 35.829055838128077 ], [ 14.435306992165417, 35.829040081698153 ], [ 14.435303077898595, 35.829035532595555 ], [ 14.43529471690985, 35.82903381327742 ], [ 14.435284672349892, 35.82903665565955 ], [ 14.435259921677869, 35.829045579530892 ], [ 14.435233383461552, 35.829051281800083 ], [ 14.435209723718932, 35.829059267586622 ], [ 14.435193305583851, 35.829070420281312 ], [ 14.435186884834724, 35.829079791067542 ], [ 14.435183595765411, 35.829089549743038 ], [ 14.435185066826174, 35.829095683010237 ], [ 14.435186601297243, 35.82909937345525 ], [ 14.43518611562925, 35.829101446388357 ], [ 14.435184192823602, 35.829105556338092 ], [ 14.435181570815905, 35.829109902491581 ], [ 14.435179764543955, 35.829113303828926 ], [ 14.435178074805652, 35.829116043795032 ], [ 14.43517720080308, 35.829118122389936 ], [ 14.435178307873004, 35.829119303409762 ], [ 14.435182503085318, 35.829120531670334 ], [ 14.435189786440032, 35.829121618208518 ], [ 14.435194272986541, 35.829122893709851 ], [ 14.435199709376615, 35.829129583493447 ], [ 14.43520483467948, 35.829136583040103 ], [ 14.435206873249131, 35.829145771617782 ], [ 14.435207283185333, 35.829155144733342 ], [ 14.4352099455856, 35.829164678477085 ], [ 14.435214466771974, 35.829172985878571 ], [ 14.435213488540571, 35.829188595173434 ], [ 14.435221217329962, 35.829190295220108 ], [ 14.435232061769463, 35.829191604162503 ], [ 14.435236382077074, 35.82919093944377 ], [ 14.435245554756246, 35.829191526835778 ], [ 14.435251025233281, 35.82919053140472 ], [ 14.435256713519074, 35.829190206639254 ], [ 14.435260972607175, 35.829190208649791 ], [ 14.435262423517699, 35.829189349010576 ], [ 14.435259242675443, 35.829185458011956 ], [ 14.435254443509892, 35.829183648245078 ], [ 14.435253104207915, 35.829182155187404 ], [ 14.435253104207904, 35.82918125030394 ], [ 14.435255280573697, 35.829179983467085 ], [ 14.435256229245942, 35.829177495037456 ], [ 14.435246420655396, 35.829166696973857 ], [ 14.435242040743278, 35.829158805683775 ], [ 14.435240042903882, 35.829150945635668 ] ] ] } },
{ "type": "Feature", "properties": { "Name": "Z-T3-T4", "Description": "", "source_file": "Il-Misqa_Z-T3-T4.geojson", "Area": 127.41 }, "geometry": { "type": "Polygon", "coordinates": [ [ [ 14.435240042903882, 35.829150945635668 ], [ 14.435239288031893, 35.829142301597685 ], [ 14.435239354349557, 35.829127957266905 ], [ 14.435238724851255, 35.829123279469897 ], [ 14.435238252482463, 35.829118645221662 ], [ 14.435238476072163, 35.829115647218167 ], [ 14.435238666761428, 35.829114624027184 ], [ 14.435240986366798, 35.829112463603408 ], [ 14.435243088166171, 35.829109871851429 ], [ 14.435243187076209, 35.829107873875998 ], [ 14.435242516893313, 35.829105826251997 ], [ 14.435241277006645, 35.829101795500506 ], [ 14.435245264374075, 35.829090252217632 ], [ 14.435251482357861, 35.829087367404924 ], [ 14.435263378459723, 35.829085851354101 ], [ 14.435275481962465, 35.829087326597609 ], [ 14.435284165650518, 35.829091092519072 ], [ 14.435290156737759, 35.829101844249855 ], [ 14.435295965770989, 35.829102747077641 ], [ 14.435300411870124, 35.829102232113577 ], [ 14.435308668911384, 35.829102060458901 ], [ 14.435316155279599, 35.829101864239149 ], [ 14.435318120914859, 35.829101629187726 ], [ 14.43532047224601, 35.829100730135082 ], [ 14.435322854084813, 35.829099271070199 ], [ 14.435324336117878, 35.82909772617797 ], [ 14.435325182993894, 35.82909480804809 ], [ 14.435328358778991, 35.829093821033538 ], [ 14.435338944729333, 35.82910042973937 ], [ 14.435346037316023, 35.829107210099338 ], [ 14.435354488826857, 35.829118142547216 ], [ 14.435358977520867, 35.829126474674389 ], [ 14.435365749631522, 35.829133793771568 ], [ 14.435371480866483, 35.829142995601515 ], [ 14.435362539979854, 35.829158098574375 ], [ 14.435356674709373, 35.829167057652789 ], [ 14.435352102157434, 35.829173734471688 ], [ 14.435332149462367, 35.829193624914019 ], [ 14.435295470093132, 35.829203909942926 ], [ 14.435293320110532, 35.829189533352057 ], [ 14.435287057768015, 35.829184245537284 ], [ 14.435274973621324, 35.829179017915024 ], [ 14.43526283364597, 35.829177893394949 ], [ 14.435256229245935, 35.829177495037435 ], [ 14.435246420655396, 35.829166696973857 ], [ 14.435242040743278, 35.829158805683775 ], [ 14.435240042903882, 35.829150945635668 ] ] ] } },
{ "type": "Feature", "properties": { "Name": "Z-T2", "Description": "", "source_file": "Il-Misqa_Z-T2.geojson", "Area": null }, "geometry": { "type": "Polygon", "coordinates": [ [ [ 14.435320472246019, 35.829100730135082 ], [ 14.435322854084808, 35.829099271070206 ], [ 14.435324336117878, 35.829097726177949 ], [ 14.435325182993894, 35.82909480804809 ], [ 14.435328358778982, 35.829093821033545 ], [ 14.435338944729327, 35.829100429739384 ], [ 14.435346037316032, 35.82910721009933 ], [ 14.435354488826857, 35.829118142547223 ], [ 14.435353282312089, 35.829107382328722 ], [ 14.43535353710363, 35.829089452177385 ], [ 14.435353353883187, 35.829087650385574 ], [ 14.435352761444433, 35.829085932941233 ], [ 14.435351331842314, 35.829085063202072 ], [ 14.435349213101146, 35.829084551679024 ], [ 14.435341163994016, 35.829084126727189 ], [ 14.435333228257544, 35.829083167641798 ], [ 14.435331398744831, 35.829082485492599 ], [ 14.435330289979399, 35.829081528238341 ], [ 14.435322295834062, 35.829072936026535 ], [ 14.435311444042089, 35.829055838128092 ], [ 14.435297030263346, 35.829058861135962 ], [ 14.435286438818373, 35.829065247113498 ], [ 14.435283402161238, 35.829078701725038 ], [ 14.435284165650518, 35.829091092519072 ], [ 14.435290156737759, 35.829101844249855 ], [ 14.435295965770976, 35.829102747077641 ], [ 14.435300411870132, 35.829102232113591 ], [ 14.435308668911395, 35.829102060458908 ], [ 14.435316155279608, 35.829101864239171 ], [ 14.435318120914852, 35.829101629187718 ], [ 14.435320472246019, 35.829100730135082 ] ] ] } },
{ "type": "Feature", "properties": { "Name": "Z-T1", "Description": "", "source_file": "Il-Misqa_Z-T1.geojson", "Area": null }, "geometry": { "type": "Polygon", "coordinates": [ [ [ 14.435379653908353, 35.829216391980921 ], [ 14.435349643545074, 35.829203613244395 ], [ 14.435332149462358, 35.829193624914019 ], [ 14.435352102157426, 35.829173734471659 ], [ 14.435356674709373, 35.829167057652789 ], [ 14.435362539979858, 35.829158098574396 ], [ 14.435371480866472, 35.829142995601522 ], [ 14.435365749631531, 35.829133793771554 ], [ 14.43535897752086, 35.829126474674382 ], [ 14.435354488826865, 35.829118142547216 ], [ 14.435353282312093, 35.829107382328708 ], [ 14.43535353710363, 35.829089452177385 ], [ 14.435353353883198, 35.829087650385574 ], [ 14.435352761444424, 35.82908593294124 ], [ 14.435351331842329, 35.829085063202093 ], [ 14.435349213101146, 35.829084551679017 ], [ 14.435341163994011, 35.829084126727196 ], [ 14.435333228257541, 35.829083167641812 ], [ 14.435331398744825, 35.829082485492584 ], [ 14.435330289979399, 35.829081528238341 ], [ 14.435322295834062, 35.829072936026535 ], [ 14.435311444042089, 35.829055838128092 ], [ 14.435329179860011, 35.829057695978705 ], [ 14.435344171412272, 35.829066027843453 ], [ 14.435355353394254, 35.829072016334614 ], [ 14.435364982984661, 35.829074882395858 ], [ 14.435368084615131, 35.82907198335289 ], [ 14.435375714415825, 35.829069277209172 ], [ 14.435384677108113, 35.829068562456314 ], [ 14.435389378848351, 35.82906808595439 ], [ 14.43539540295299, 35.829068443330847 ], [ 14.435400692410745, 35.829068085954418 ], [ 14.435406863444767, 35.829066299072238 ], [ 14.435416413854577, 35.829065465193864 ], [ 14.435428706145084, 35.829067374519674 ], [ 14.435440391651985, 35.829071795580823 ], [ 14.435448591389184, 35.829074280478977 ], [ 14.435453221365092, 35.829084316130583 ], [ 14.435452966793116, 35.82910289146529 ], [ 14.43546337821792, 35.829109997622282 ], [ 14.435481240421597, 35.829122616790706 ], [ 14.43549099624382, 35.829135751479996 ], [ 14.435494037703096, 35.829148064796073 ], [ 14.435481252592226, 35.829158002041318 ], [ 14.435469772636729, 35.829169373600621 ], [ 14.43545741835759, 35.829180384005696 ], [ 14.43542119947266, 35.829218060778992 ], [ 14.435403847035291, 35.829238294857312 ], [ 14.435393096731911, 35.829226151336712 ], [ 14.435379653908353, 35.829216391980921 ] ] ] } },
{ "type": "Feature", "properties": { "Name": "Z-South", "Description": "", "source_file": "Il-Misqa_Z-Out.geojson", "Area": null }, "geometry": { "type": "Polygon", "coordinates": [ [ [ 14.434939074114459, 35.82920818458242 ], [ 14.434936226726592, 35.829196583174785 ], [ 14.434946270328327, 35.829137667817882 ], [ 14.434951720029062, 35.829077367565432 ], [ 14.434971962325937, 35.828996687406658 ], [ 14.43498181380872, 35.828964866661629 ], [ 14.435004626821108, 35.828934810967951 ], [ 14.435040933389718, 35.828890504083674 ], [ 14.435093086281116, 35.82885428103706 ], [ 14.435157909281001, 35.828831409655194 ], [ 14.435208602509773, 35.828823979339852 ], [ 14.435242601065944, 35.828824820749382 ], [ 14.435274407914029, 35.828824884996898 ], [ 14.435339066661568, 35.828825188788521 ], [ 14.435371110148063, 35.828878285511315 ], [ 14.435391994839447, 35.828907220321149 ], [ 14.435417839977491, 35.828923147594573 ], [ 14.435435758995052, 35.828931764994394 ], [ 14.435446500894132, 35.828945003166773 ], [ 14.435456535935538, 35.828957171364557 ], [ 14.435459059998166, 35.828970661840593 ], [ 14.435468509312711, 35.82898146972726 ], [ 14.435477226358069, 35.828994795354468 ], [ 14.435483814579264, 35.829006074643829 ], [ 14.435489840418906, 35.829012696803879 ], [ 14.435490629953252, 35.829018906495577 ], [ 14.435487130242318, 35.82902548391516 ], [ 14.43548943334183, 35.829036549140362 ], [ 14.435499774104787, 35.82905599140706 ], [ 14.435487588808261, 35.829066771330773 ], [ 14.43548259611728, 35.829068645979447 ], [ 14.435479800089013, 35.829074499697782 ], [ 14.435476658739137, 35.829084234269082 ], [ 14.43547344077707, 35.829089827173775 ], [ 14.435468532159225, 35.829095017548426 ], [ 14.43545388338252, 35.829098794419203 ], [ 14.435453221365096, 35.829084316130583 ], [ 14.435448591389163, 35.829074280478991 ], [ 14.435440391651992, 35.829071795580816 ], [ 14.435428706145103, 35.829067374519695 ], [ 14.435416413854593, 35.829065465193857 ], [ 14.435406863444765, 35.829066299072238 ], [ 14.435400692410727, 35.829068085954418 ], [ 14.435395402952997, 35.82906844333084 ], [ 14.435389378848352, 35.829068085954404 ], [ 14.435384677108091, 35.829068562456285 ], [ 14.435375714415825, 35.829069277209186 ], [ 14.435368084615131, 35.829071983352875 ], [ 14.435364982984664, 35.829074882395844 ], [ 14.435355353394227, 35.829072016334621 ], [ 14.435344171412268, 35.829066027843439 ], [ 14.435329179860029, 35.829057695978719 ], [ 14.435311444042078, 35.82905583812807 ], [ 14.435306992165444, 35.829040081698146 ], [ 14.435303077898588, 35.829035532595555 ], [ 14.435294716909839, 35.829033813277434 ], [ 14.43528467234988, 35.82903665565955 ], [ 14.435259921677872, 35.829045579530863 ], [ 14.43523338346154, 35.829051281800069 ], [ 14.435209723718932, 35.829059267586622 ], [ 14.435193305583851, 35.829070420281312 ], [ 14.435186884834717, 35.829079791067564 ], [ 14.435183595765405, 35.829089549743038 ], [ 14.435185066826172, 35.829095683010244 ], [ 14.435186601297243, 35.82909937345525 ], [ 14.435186115629245, 35.82910144638835 ], [ 14.435184192823588, 35.829105556338092 ], [ 14.435181570815914, 35.829109902491574 ], [ 14.435179764543946, 35.829113303828933 ], [ 14.435178074805654, 35.829116043795054 ], [ 14.435177200803089, 35.829118122389957 ], [ 14.435178307873009, 35.829119303409762 ], [ 14.435182503085318, 35.829120531670334 ], [ 14.435189786440027, 35.829121618208497 ], [ 14.435194272986529, 35.829122893709837 ], [ 14.435199709376622, 35.829129583493433 ], [ 14.435204834679487, 35.829136583040103 ], [ 14.435206873249141, 35.829145771617796 ], [ 14.435207283185333, 35.829155144733342 ], [ 14.4352099455856, 35.829164678477085 ], [ 14.435214466771974, 35.829172985878571 ], [ 14.435213488540571, 35.829188595173434 ], [ 14.435188744602018, 35.829188157922175 ], [ 14.435136630237031, 35.82919819754477 ], [ 14.435117680338051, 35.829212329721287 ], [ 14.435083541546206, 35.829206039141127 ], [ 14.435052450247181, 35.829196891770593 ], [ 14.434989103330969, 35.829204097876115 ], [ 14.434951181772583, 35.829212331395198 ], [ 14.434939074114459, 35.82920818458242 ] ] ] } }
]
}
