{
"type": "FeatureCollection",
"name": "Il-Misqa_lines",
"crs": { "type": "name", "properties": { "name": "urn:ogc:def:crs:OGC:1.3:CRS84" } },
"features": [
{ "type": "Feature", "properties": { "Name": "Misqa-L05", "Description": "", "Label": "L05", "source_file": "Il-Misqa-L05.geojson" }, "geometry": { "type": "LineString", "coordinates": [ [ 14.435096883146942, 35.829088053078344 ], [ 14.435099965431002, 35.829093818646847 ], [ 14.435098711923528, 35.829094268647964 ], [ 14.435099965430997, 35.829093818646847 ], [ 14.43510337320553, 35.829098948888877 ], [ 14.435102044009234, 35.829099560342925 ], [ 14.435103373205534, 35.829098948888898 ], [ 14.4351076687414, 35.829103877458124 ], [ 14.435106487100605, 35.829104599650698 ], [ 14.435107668741411, 35.829103877458138 ], [ 14.435112474604423, 35.829108272086671 ], [ 14.435111422323954, 35.829108964800398 ], [ 14.435112474604423, 35.829108272086685 ], [ 14.435117712674691, 35.829112908163339 ], [ 14.435116712611343, 35.829113622017204 ], [ 14.435117712674698, 35.829112908163324 ], [ 14.435121848211766, 35.829115704654463 ], [ 14.435123456751686, 35.829119414835347 ], [ 14.435121979095156, 35.829119468213449 ], [ 14.435123456751676, 35.829119414835354 ], [ 14.43512242571974, 35.829125553438047 ], [ 14.435121001320066, 35.829125477413577 ], [ 14.435122425719744, 35.829125553438054 ], [ 14.435123466905241, 35.829130938091239 ], [ 14.435121651763534, 35.829131332078788 ], [ 14.435123466905241, 35.829130938091239 ], [ 14.4351251592593, 35.829136245873478 ], [ 14.435123426018842, 35.829136707332424 ], [ 14.4351251592593, 35.829136245873478 ], [ 14.435126136370622, 35.829137860540236 ], [ 14.435127688693244, 35.829139679169721 ], [ 14.435126034501566, 35.829140610605272 ], [ 14.435127688693244, 35.829139679169721 ], [ 14.435131532352756, 35.829143655334057 ], [ 14.435130071301963, 35.82914472606798 ], [ 14.435131532352756, 35.829143655334057 ], [ 14.435136522156625, 35.829148643181462 ], [ 14.435135230330591, 35.829149519677564 ], [ 14.435136522156625, 35.829148643181462 ], [ 14.435142295349101, 35.829153696643587 ], [ 14.435141404234896, 35.829154348692391 ], [ 14.435142295349101, 35.829153696643594 ], [ 14.435146928551164, 35.829157529604537 ], [ 14.435145993235441, 35.829158203974522 ], [ 14.435146928551164, 35.829157529604558 ], [ 14.43515182235044, 35.829162165509722 ], [ 14.435150796708449, 35.829162801762358 ], [ 14.435151822350445, 35.829162165509736 ], [ 14.435157103217501, 35.829166896363688 ], [ 14.435156160259252, 35.829167461950242 ], [ 14.435157103217493, 35.829166896363695 ], [ 14.435161544491299, 35.829170642296496 ], [ 14.435160779307127, 35.829171179624616 ], [ 14.435161544491292, 35.829170642296525 ], [ 14.435166086546083, 35.829174313083598 ], [ 14.435165301474361, 35.829174873533674 ], [ 14.435166086546095, 35.829174313083612 ], [ 14.4351705342423, 35.829177900803693 ], [ 14.435169779621855, 35.829178446661174 ], [ 14.43517053424231, 35.8291779008037 ], [ 14.435173575002807, 35.829182682625607 ], [ 14.435172849361397, 35.829183032562732 ], [ 14.435173575002807, 35.829182682625607 ], [ 14.435177115495529, 35.829186507562781 ], [ 14.43517629315755, 35.829186896306332 ], [ 14.435177115495529, 35.829186507562781 ], [ 14.435181045830902, 35.829191005355376 ], [ 14.435179895637512, 35.82919137156091 ], [ 14.435181045830907, 35.829191005355383 ], [ 14.435183968968172, 35.829196036681829 ], [ 14.43518294511899, 35.829196393956508 ], [ 14.435183968968177, 35.82919603668185 ], [ 14.435187903385881, 35.829200832932123 ], [ 14.43518710319481, 35.829201223364649 ], [ 14.43518790338587, 35.829200832932123 ], [ 14.435192221140596, 35.829204612267105 ], [ 14.435191571697436, 35.829205034088453 ], [ 14.435192221140602, 35.829204612267105 ], [ 14.435195910757345, 35.829207614557028 ], [ 14.435195315295759, 35.829208022089219 ], [ 14.43519591075734, 35.829207614557014 ], [ 14.435197213480979, 35.829208752852217 ] ] } },
{ "type": "Feature", "properties": { "Name": "Misqa-L04", "Description": "", "Label": "L04", "source_file": "Il-Misqa-L04.geojson" }, "geometry": { "type": "LineString", "coordinates": [ [ 14.435195103304126, 35.829178978617968 ], [ 14.435194249251518, 35.829178338139407 ], [ 14.435193646058709, 35.829178849416941 ], [ 14.435194249251504, 35.829178338139407 ], [ 14.435190465587539, 35.82917520378578 ], [ 14.435189752723302, 35.829175737292786 ], [ 14.435190465587542, 35.82917520378578 ], [ 14.435186215820025, 35.829171469236599 ], [ 14.435185420702233, 35.829171869366881 ], [ 14.435186215820019, 35.829171469236606 ], [ 14.435182870841738, 35.829167890293505 ], [ 14.43518193863467, 35.829168312653259 ], [ 14.435182870841727, 35.829167890293519 ], [ 14.435179118727083, 35.829163871785461 ], [ 14.4351781549707, 35.829164422497541 ], [ 14.435179118727079, 35.829163871785433 ], [ 14.435175332434016, 35.829160440835402 ], [ 14.435174426142453, 35.829160888013043 ], [ 14.435175332433996, 35.829160440835402 ], [ 14.435171546140916, 35.829156287579863 ], [ 14.435170615060624, 35.829156842250718 ], [ 14.435171546140925, 35.829156287579892 ], [ 14.435168174871533, 35.82915284094711 ], [ 14.435167324918032, 35.829153285536414 ], [ 14.435168174871519, 35.82915284094711 ], [ 14.435164822362484, 35.829149160008953 ], [ 14.435163870268326, 35.829149751051403 ], [ 14.43516482236247, 35.829149160008932 ], [ 14.435160855431056, 35.829145814151971 ], [ 14.435160004350793, 35.829146416631446 ], [ 14.435160855431048, 35.829145814151971 ], [ 14.435156400968602, 35.829142202624823 ], [ 14.435155672329712, 35.829142682080928 ], [ 14.435156400968594, 35.829142202624809 ], [ 14.435152391952403, 35.829138591097433 ], [ 14.435151477397914, 35.82913905867759 ], [ 14.435152391952405, 35.829138591097447 ], [ 14.435151066130103, 35.829136591206499 ], [ 14.435151364942822, 35.829134592904985 ], [ 14.435150545190842, 35.829134301571116 ], [ 14.435151364942804, 35.829134592904978 ], [ 14.435155069136895, 35.829131011609455 ], [ 14.435154383690524, 35.829130522561066 ], [ 14.435155064629869, 35.82913100688949 ], [ 14.435159073646068, 35.829127575938038 ], [ 14.435158167354496, 35.82912707699294 ], [ 14.435159073646069, 35.829127575938024 ], [ 14.435163750831643, 35.829122339222359 ], [ 14.435162965479101, 35.829121853066788 ], [ 14.43516375083165, 35.82912233922238 ], [ 14.435166453320862, 35.829119871806178 ] ] } },
{ "type": "Feature", "properties": { "Name": "Misqa-L03", "Description": "", "Label": "L03", "source_file": "Il-Misqa-L03.geojson" }, "geometry": { "type": "LineString", "coordinates": [ [ 14.435204481416216, 35.829121176392221 ], [ 14.435205025822835, 35.829120033010334 ], [ 14.435205246839809, 35.82912010873828 ], [ 14.435205025822841, 35.829120033010319 ], [ 14.435205551829979, 35.829119019986763 ], [ 14.435205788538735, 35.829119082728404 ], [ 14.435205551829981, 35.829119019986763 ], [ 14.435206118549251, 35.829117946482278 ], [ 14.435206343893965, 35.8291180124303 ], [ 14.435206118549267, 35.829117946482278 ], [ 14.43520677792465, 35.829116951489787 ], [ 14.43520698118683, 35.829117041780641 ], [ 14.435206777924641, 35.829116951489766 ], [ 14.435207477364855, 35.829115956719789 ], [ 14.435207695865271, 35.829116056368235 ], [ 14.435207477364854, 35.829115956719797 ], [ 14.435208179097268, 35.829114805710873 ], [ 14.435208383941413, 35.829114894287279 ], [ 14.435208179097279, 35.82911480571088 ], [ 14.435208872179109, 35.829113796017623 ] ] } },
{ "type": "Feature", "properties": { "Name": "Misqa-L02", "Description": "", "Label": "L02", "source_file": "Il-Misqa-L02.geojson" }, "geometry": { "type": "LineString", "coordinates": [ [ 14.4352044814162, 35.829121541583206 ], [ 14.435205053296812, 35.829121904108042 ], [ 14.435205231548462, 35.829121715784837 ], [ 14.435205053296819, 35.829121904108085 ], [ 14.435205702226073, 35.82912232985781 ], [ 14.435205922299618, 35.829122094188733 ], [ 14.43520570222606, 35.829122329857839 ], [ 14.435206664508691, 35.82912294331495 ], [ 14.435206847727128, 35.829122693178398 ], [ 14.435206664508691, 35.82912294331495 ], [ 14.435207917988471, 35.82912372647251 ], [ 14.435208174309407, 35.829123464531882 ], [ 14.435207917988468, 35.829123726472517 ], [ 14.435209712096576, 35.82912472787995 ], [ 14.435209873524968, 35.829124486053537 ], [ 14.43520971209656, 35.829124727879936 ], [ 14.435211840356891, 35.829125847955453 ], [ 14.435212066618469, 35.829125579928593 ], [ 14.435211840356898, 35.829125847955467 ], [ 14.435213786783031, 35.82912681600363 ], [ 14.435213966894059, 35.829126578333884 ], [ 14.435213786783031, 35.829126816003665 ], [ 14.435215883460172, 35.829127877885085 ], [ 14.435216036343967, 35.829127638979024 ], [ 14.435215883460172, 35.829127877885085 ], [ 14.435216059058055, 35.829127968365277 ] ] } },
{ "type": "Feature", "properties": { "Name": "Misqa-L01", "Description": "", "Label": "L01", "source_file": "Il-Misqa-L01.geojson" }, "geometry": { "type": "LineString", "coordinates": [ [ 14.435400495690066, 35.829180329218119 ], [ 14.435407068084281, 35.829172819827917 ], [ 14.435417699217609, 35.82916586809359 ], [ 14.435424885928304, 35.829161095897419 ], [ 14.435428564636748, 35.829159186753991 ], [ 14.435431171774281, 35.829157929466348 ], [ 14.435432221659328, 35.829156434039248 ], [ 14.435432613468013, 35.829154473872066 ], [ 14.435432343658102, 35.829152549067764 ], [ 14.435431574525431, 35.82915092781635 ], [ 14.43542958898694, 35.829150223775237 ], [ 14.435428171330967, 35.829149638187381 ], [ 14.435427326068053, 35.829148534252525 ], [ 14.435426713341007, 35.82914471044564 ], [ 14.435426873415851, 35.829140904402685 ], [ 14.435428338498612, 35.829137757490557 ], [ 14.435429334009802, 35.829136038827158 ], [ 14.435431046925517, 35.829135538910229 ], [ 14.4354333152148, 35.829135434152988 ], [ 14.435435208044437, 35.829134981395384 ], [ 14.435436117302036, 35.829133331424714 ], [ 14.435436412180191, 35.829131717038848 ], [ 14.435436287629486, 35.829129292797269 ], [ 14.435436429761644, 35.829125520150576 ], [ 14.435435010442042, 35.82912286218459 ], [ 14.435432472343299, 35.829121042137558 ], [ 14.435430115298603, 35.829120338592375 ], [ 14.435425582535686, 35.829120009534314 ], [ 14.435422120803105, 35.829119083167541 ], [ 14.435419107946943, 35.829117445777044 ], [ 14.435416245106309, 35.829114468699466 ], [ 14.435414289865379, 35.82911142439869 ], [ 14.43541390485003, 35.829108782135243 ], [ 14.435413920962333, 35.829106507450419 ], [ 14.435413993301278, 35.829102655373227 ], [ 14.435414010712952, 35.829100197246063 ], [ 14.435413895307553, 35.829097408287829 ], [ 14.435412796035074, 35.829093587396663 ], [ 14.435412722823063, 35.829091202223161 ], [ 14.435412060816807, 35.829089254560024 ], [ 14.435410630328176, 35.82908767018376 ], [ 14.435409698010131, 35.829085721250806 ], [ 14.435409395640173, 35.829083885346122 ], [ 14.435409367480249, 35.829081500384262 ], [ 14.435409290110304, 35.829079702226203 ], [ 14.435409122116663, 35.829077977021804 ], [ 14.435408913225094, 35.829075793153571 ], [ 14.435408648114826, 35.829074929551226 ], [ 14.435407886129484, 35.829074375626469 ], [ 14.435406896545391, 35.82907415083973 ], [ 14.435405995246086, 35.829074183295496 ], [ 14.435403910813616, 35.829074232873211 ], [ 14.435402358541859, 35.829074484670279 ], [ 14.435401344331071, 35.829074725266231 ], [ 14.435398651226185, 35.829075504053257 ], [ 14.435394618355469, 35.829077020311885 ], [ 14.435393044160676, 35.829077624830418 ], [ 14.435391176677452, 35.829078114708096 ], [ 14.435389648688119, 35.829078795477265 ], [ 14.435387943925615, 35.829080001557436 ], [ 14.435385498959393, 35.829080748382353 ], [ 14.435382727059876, 35.829081449716334 ], [ 14.435380552748907, 35.829081777383486 ] ] } }
]
}
