{
"type": "FeatureCollection",
"name": "Il-Misqa_main_flows",
"crs": { "type": "name", "properties": { "name": "urn:ogc:def:crs:OGC:1.3:CRS84" } },
"features": [
{ "type": "Feature", "properties": { "Name": null, "Description": null, "Label": null, "source_file": "Il-Misqa-Flow-Z-T8_main.geojson" }, "geometry": { "type": "LineString", "coordinates": [ ] } },
{ "type": "Feature", "properties": { "Name": null, "Description": null, "Label": null, "source_file": "Il-Misqa-Flow-Z-T8_main.geojson" }, "geometry": { "type": "LineString", "coordinates": [ [ 14.435412014157246, 35.829317458333392 ], [ 14.435384218549274, 35.829257153018958 ], [ 14.435358825792481, 35.829219842394281 ] ] } },
{ "type": "Feature", "properties": { "Name": null, "Description": null, "Label": null, "source_file": "Il-Misqa-Flow-Z-T8_main.geojson" }, "geometry": { "type": "LineString", "coordinates": [ [ 14.435340409573138, 35.829211816151229 ], [ 14.435311627264504, 35.829218367007222 ], [ 14.435294571367216, 35.829230835810378 ] ] } },
{ "type": "Feature", "properties": { "Name": null, "Description": null, "Label": null, "source_file": "Il-Misqa-Flow-Z-T8_main.geojson" }, "geometry": { "type": "LineString", "coordinates": [ [ 14.435240946182569, 35.829416945845814 ], [ 14.435239654490646, 35.829332061424275 ], [ 14.43529503711839, 35.829266921382526 ] ] } },
{ "type": "Feature", "properties": { "Name": null, "Description": null, "Label": null, "source_file": "Il-Misqa-Flow-Z-T8_main.geojson" }, "geometry": { "type": "LineString", "coordinates": [ ] } },
{ "type": "Feature", "properties": { "Name": null, "Description": null, "Label": null, "source_file": "Il-Misqa-Flow-Z-T7_main.geojson" }, "geometry": { "type": "LineString", "coordinates": [ [ 14.435131553705508, 35.82941813979911 ], [ 14.435155398949306, 35.82931949827158 ], [ 14.435203355184408, 35.829226706767336 ] ] } },
{ "type": "Feature", "properties": { "Name": null, "Description": null, "Label": null, "source_file": "Il-Misqa-Flow-Z-T7_main.geojson" }, "geometry": { "type": "LineString", "coordinates": [ ] } },
{ "type": "Feature", "properties": { "Name": null, "Description": null, "Label": null, "source_file": "Il-Misqa-Flow-Z-T7_main.geojson" }, "geometry": { "type": "LineString", "coordinates": [ ] } },
{ "type": "Feature", "properties": { "Name": null, "Description": null, "Label": null, "source_file": "Il-Misqa-Flow-Z-T7_main.geojson" }, "geometry": { "type": "LineString", "coordinates": [ ] } },
{ "type": "Feature", "properties": { "Name": null, "Description": null, "Label": null, "source_file": "Il-Misqa-Flow-Z-T5_main.geojson" }, "geometry": { "type": "LineString", "coordinates": [ ] } },
{ "type": "Feature", "properties": { "Name": null, "Description": null, "Label": null, "source_file": "Il-Misqa-Flow-Z-T5_main.geojson" }, "geometry": { "type": "LineString", "coordinates": [ ] } },
{ "type": "Feature", "properties": { "Name": null, "Description": null, "Label": null, "source_file": "Il-Misqa-Flow-Z-T5_main.geojson" }, "geometry": { "type": "LineString", "coordinates": [ ] } },
{ "type": "Feature", "properties": { "Name": null, "Description": null, "Label": null, "source_file": "Il-Misqa-Flow-Z-T5_main.geojson" }, "geometry": { "type": "LineString", "coordinates": [ ] } },
{ "type": "Feature", "properties": { "Name": null, "Description": null, "Label": null, "source_file": "Il-Misqa-Flow-Z-T5_main.geojson" }, "geometry": { "type": "LineString", "coordinates": [ [ 14.435289214500102, 35.829076881284649 ], [ 14.435279332198961, 35.829071694520238 ], [ 14.435267174834339, 35.829069434397461 ] ] } },
{ "type": "Feature", "properties": { "Name": null, "Description": null, "Label": null, "source_file": "Il-Misqa-Flow-Z-T5_main.geojson" }, "geometry": { "type": "LineString", "coordinates": [ [ 14.435247968550904, 35.829107529471166 ], [ 14.435232561732825, 35.829098956245936 ], [ 14.435229779948283, 35.829084791782719 ] ] } },
{ "type": "Feature", "properties": { "Name": null, "Description": null, "Label": null, "source_file": "Il-Misqa-Flow-Z-T5_main.geojson" }, "geometry": { "type": "LineString", "coordinates": [ [ 14.435239685941351, 35.829067469398815 ], [ 14.435223992013707, 35.829055279156819 ], [ 14.43520872812868, 35.829046028265985 ] ] } },
{ "type": "Feature", "properties": { "Name": null, "Description": null, "Label": null, "source_file": "Il-Misqa-Flow-Z-T5_main.geojson" }, "geometry": { "type": "LineString", "coordinates": [ ] } },
{ "type": "Feature", "properties": { "Name": null, "Description": null, "Label": null, "source_file": "Il-Misqa-Flow-Z-T5_main.geojson" }, "geometry": { "type": "LineString", "coordinates": [ ] } },
{ "type": "Feature", "properties": { "Name": null, "Description": null, "Label": null, "source_file": "Il-Misqa-Flow-Z-T5_main.geojson" }, "geometry": { "type": "LineString", "coordinates": [ ] } },
{ "type": "Feature", "properties": { "Name": null, "Description": null, "Label": null, "source_file": "Il-Misqa-Flow-Z-T5_main.geojson" }, "geometry": { "type": "LineString", "coordinates": [ ] } },
{ "type": "Feature", "properties": { "Name": null, "Description": null, "Label": null, "source_file": "Il-Misqa-Flow-Z-T5_main.geojson" }, "geometry": { "type": "LineString", "coordinates": [ ] } },
{ "type": "Feature", "properties": { "Name": null, "Description": null, "Label": null, "source_file": "Il-Misqa-Flow-Z-T3-T4_main.geojson" }, "geometry": { "type": "LineString", "coordinates": [ ] } },
{ "type": "Feature", "properties": { "Name": null, "Description": null, "Label": null, "source_file": "Il-Misqa-Flow-Z-T3-T4_main.geojson" }, "geometry": { "type": "LineString", "coordinates": [ [ 14.435316314068871, 35.829102250462221 ], [ 14.435300576101241, 35.829115517582181 ], [ 14.435296222662647, 35.829132334048673 ] ] } },
{ "type": "Feature", "properties": { "Name": null, "Description": null, "Label": null, "source_file": "Il-Misqa-Flow-Z-T3-T4_main.geojson" }, "geometry": { "type": "LineString", "coordinates": [ ] } },
{ "type": "Feature", "properties": { "Name": null, "Description": null, "Label": null, "source_file": "Il-Misqa-Flow-Z-T3-T4_main.geojson" }, "geometry": { "type": "LineString", "coordinates": [ ] } },
{ "type": "Feature", "properties": { "Name": null, "Description": null, "Label": null, "source_file": "Il-Misqa-Flow-Z-T3-T4_main.geojson" }, "geometry": { "type": "LineString", "coordinates": [ ] } },
{ "type": "Feature", "properties": { "Name": null, "Description": null, "Label": null, "source_file": "Il-Misqa-Flow-Z-T3-T4_main.geojson" }, "geometry": { "type": "LineString", "coordinates": [ ] } },
{ "type": "Feature", "properties": { "Name": null, "Description": null, "Label": null, "source_file": "Il-Misqa-Flow-Z-T3-T4_main.geojson" }, "geometry": { "type": "LineString", "coordinates": [ ] } },
{ "type": "Feature", "properties": { "Name": null, "Description": null, "Label": null, "source_file": "Il-Misqa-Flow-Z-T3-T4_main.geojson" }, "geometry": { "type": "LineString", "coordinates": [ ] } },
{ "type": "Feature", "properties": { "Name": null, "Description": null, "Label": null, "source_file": "Il-Misqa-Flow-Z-T3-T4_main.geojson" }, "geometry": { "type": "LineString", "coordinates": [ ] } },
{ "type": "Feature", "properties": { "Name": null, "Description": null, "Label": null, "source_file": "Il-Misqa-Flow-Z-T3-T4_main.geojson" }, "geometry": { "type": "LineString", "coordinates": [ ] } },
{ "type": "Feature", "properties": { "Name": null, "Description": null, "Label": null, "source_file": "Il-Misqa-Flow-Z-T2_main.geojson" }, "geometry": { "type": "LineString", "coordinates": [ [ 14.43535918749471, 35.829085438061931 ], [ 14.435341729333674, 35.829086575304757 ], [ 14.435326669366125, 35.829092565316451 ] ] } },
{ "type": "Feature", "properties": { "Name": null, "Description": null, "Label": null, "source_file": "Il-Misqa-Flow-Z-T2_main.geojson" }, "geometry": { "type": "LineString", "coordinates": [ ] } },
{ "type": "Feature", "properties": { "Name": null, "Description": null, "Label": null, "source_file": "Il-Misqa-Flow-Z-T2_main.geojson" }, "geometry": { "type": "LineString", "coordinates": [ ] } },
{ "type": "Feature", "properties": { "Name": null, "Description": null, "Label": null, "source_file": "Il-Misqa-Flow-Z-T2_main.geojson" }, "geometry": { "type": "LineString", "coordinates": [ ] } },
{ "type": "Feature", "properties": { "Name": null, "Description": null, "Label": null, "source_file": "Il-Misqa-Flow-Z-T1_main.geojson" }, "geometry": { "type": "LineString", "coordinates": [ [ 14.435406027454883, 35.829215952277593 ], [ 14.435392832290315, 35.829188237174193 ], [ 14.435393055755483, 35.829156690301204 ] ] } },
{ "type": "Feature", "properties": { "Name": null, "Description": null, "Label": null, "source_file": "Il-Misqa-Flow-Z-T1_main.geojson" }, "geometry": { "type": "LineString", "coordinates": [ ] } },
{ "type": "Feature", "properties": { "Name": null, "Description": null, "Label": null, "source_file": "Il-Misqa-Flow-Z-T1_main.geojson" }, "geometry": { "type": "LineString", "coordinates": [ ] } },
{ "type": "Feature", "properties": { "Name": null, "Description": null, "Label": null, "source_file": "Il-Misqa-Flow-Z-T1_main.geojson" }, "geometry": { "type": "LineString", "coordinates": [ [ 14.435417005407455, 35.82912448707966 ], [ 14.435407055733997, 35.829101379847657 ], [ 14.435382819049916, 35.829086107414831 ] ] } },
{ "type": "Feature", "properties": { "Name": null, "Description": null, "Label": null, "source_file": "Il-Misqa-Flow-Z-T1_main.geojson" }, "geometry": { "type": "LineString", "coordinates": [ [ 14.435510808664802, 35.82921021276146 ], [ 14.435475594595935, 35.829185120612358 ], [ 14.435442285278151, 35.829161205841665 ] ] } },
{ "type": "Feature", "properties": { "Name": null, "Description": null, "Label": null, "source_file": "Il-Misqa-Flow-Z-T1_main.geojson" }, "geometry": { "type": "LineString", "coordinates": [ ] } },
{ "type": "Feature", "properties": { "Name": null, "Description": null, "Label": null, "source_file": "Il-Misqa-Flow-Z-T1_main.geojson" }, "geometry": { "type": "LineString", "coordinates": [ ] } },
{ "type": "Feature", "properties": { "Name": null, "Description": null, "Label": null, "source_file": "Il-Misqa-Flow-Z-T1_main.geojson" }, "geometry": { "type": "LineString", "coordinates": [ ] } },
{ "type": "Feature", "properties": { "Name": null, "Description": null, "Label": null, "source_file": "Il-Misqa-Flow-Z-T1_main.geojson" }, "geometry": { "type": "LineString", "coordinates": [ ] } },
{ "type": "Feature", "properties": { "Name": null, "Description": null, "Label": null, "source_file": "Il-Misqa-Flow-Z-T1_main.geojson" }, "geometry": { "type": "LineString", "coordinates": [ ] } },
{ "type": "Feature", "properties": { "Name": null, "Description": null, "Label": null, "source_file": "Il-Misqa-Flow-Z-T1_main.geojson" }, "geometry": { "type": "LineString", "coordinates": [ ] } },
{ "type": "Feature", "properties": { "Name": null, "Description": null, "Label": null, "source_file": "Il-Misqa-Flow-Z-T1_main.geojson" }, "geometry": { "type": "LineString", "coordinates": [ ] } },
{ "type": "Feature", "properties": { "Name": null, "Description": null, "Label": null, "source_file": "Il-Misqa-Flow-Z-T1_main.geojson" }, "geometry": { "type": "LineString", "coordinates": [ ] } },
{ "type": "Feature", "properties": { "Name": null, "Description": null, "Label": null, "source_file": "Il-Misqa-Flow-Z-T1_main.geojson" }, "geometry": { "type": "LineString", "coordinates": [ ] } },
{ "type": "Feature", "properties": { "Name": null, "Description": null, "Label": null, "source_file": "Il-Misqa-Flow-Z-T1_main.geojson" }, "geometry": { "type": "LineString", "coordinates": [ ] } },
{ "type": "Feature", "properties": { "Name": null, "Description": null, "Label": null, "source_file": "Il-Misqa-Flow-Z-T1_main.geojson" }, "geometry": { "type": "LineString", "coordinates": [ ] } },
{ "type": "Feature", "properties": { "Name": null, "Description": null, "Label": null, "source_file": "Il-Misqa-Flow-Z-T1_main.geojson" }, "geometry": { "type": "LineString", "coordinates": [ ] } },
{ "type": "Feature", "properties": { "Name": null, "Description": null, "Label": null, "source_file": "Il-Misqa-Flow-Z-T1_main.geojson" }, "geometry": { "type": "LineString", "coordinates": [ ] } },
{ "type": "Feature", "properties": { "Name": null, "Description": null, "Label": null, "source_file": "Il-Misqa-Flow-Z-T1_main.geojson" }, "geometry": { "type": "LineString", "coordinates": [ ] } },
{ "type": "Feature", "properties": { "Name": null, "Description": null, "Label": null, "source_file": "Il-Misqa-Flow-Z-T1_main.geojson" }, "geometry": { "type": "LineString", "coordinates": [ ] } },
{ "type": "Feature", "properties": { "Name": null, "Description": null, "Label": null, "source_file": "Il-Misqa-Flow-Z-T1_main.geojson" }, "geometry": { "type": "LineString", "coordinates": [ ] } },
{ "type": "Feature", "properties": { "Name": null, "Description": null, "Label": null, "source_file": "Il-Misqa-Flow-Z-T1_main.geojson" }, "geometry": { "type": "LineString", "coordinates": [ ] } },
{ "type": "Feature", "properties": { "Name": null, "Description": null, "Label": null, "source_file": "Il-Misqa-Flow-Z-T1_main.geojson" }, "geometry": { "type": "LineString", "coordinates": [ ] } },
{ "type": "Feature", "properties": { "Name": null, "Description": null, "Label": null, "source_file": "Il-Misqa-Flow-Z-T1_main.geojson" }, "geometry": { "type": "LineString", "coordinates": [ ] } },
{ "type": "Feature", "properties": { "Name": null, "Description": null, "Label": null, "source_file": "Il-Misqa-Flow-Z-T1_main.geojson" }, "geometry": { "type": "LineString", "coordinates": [ ] } },
{ "type": "Feature", "properties": { "Name": null, "Description": null, "Label": null, "source_file": "Il-Misqa-Flow-Z-T1_main.geojson" }, "geometry": { "type": "LineString", "coordinates": [ ] } },
{ "type": "Feature", "properties": { "Name": null, "Description": null, "Label": null, "source_file": "Il-Misqa-Flow-Z-T1_main.geojson" }, "geometry": { "type": "LineString", "coordinates": [ ] } },
{ "type": "Feature", "properties": { "Name": null, "Description": null, "Label": null, "source_file": "Il-Misqa-Flow-Z-T1_main.geojson" }, "geometry": { "type": "LineString", "coordinates": [ ] } },
{ "type": "Feature", "properties": { "Name": null, "Description": null, "Label": null, "source_file": "Il-Misqa-Flow-Z-T1_main.geojson" }, "geometry": { "type": "LineString", "coordinates": [ ] } },
{ "type": "Feature", "properties": { "Name": null, "Description": null, "Label": null, "source_file": "Il-Misqa-Flow-Z-T1_main.geojson" }, "geometry": { "type": "LineString", "coordinates": [ ] } },
{ "type": "Feature", "properties": { "Name": null, "Description": null, "Label": null, "source_file": "Il-Misqa-Flow-Z-T1_main.geojson" }, "geometry": { "type": "LineString", "coordinates": [ ] } },
{ "type": "Feature", "properties": { "Name": null, "Description": null, "Label": null, "source_file": "Il-Misqa-Flow-Z-T1_main.geojson" }, "geometry": { "type": "LineString", "coordinates": [ ] } },
{ "type": "Feature", "properties": { "Name": null, "Description": null, "Label": null, "source_file": "Il-Misqa-Flow-Z-T1_main.geojson" }, "geometry": { "type": "LineString", "coordinates": [ ] } },
{ "type": "Feature", "properties": { "Name": null, "Description": null, "Label": null, "source_file": "Il-Misqa-Flow-Z-T1_main.geojson" }, "geometry": { "type": "LineString", "coordinates": [ ] } },
{ "type": "Feature", "properties": { "Name": null, "Description": null, "Label": null, "source_file": "Il-Misqa-Flow-Z-T1_main.geojson" }, "geometry": { "type": "LineString", "coordinates": [ ] } },
{ "type": "Feature", "properties": { "Name": null, "Description": null, "Label": null, "source_file": "Il-Misqa-Flow-Z-T1_main.geojson" }, "geometry": { "type": "LineString", "coordinates": [ ] } },
{ "type": "Feature", "properties": { "Name": null, "Description": null, "Label": null, "source_file": "Il-Misqa-Flow-Z-T1_main.geojson" }, "geometry": { "type": "LineString", "coordinates": [ ] } },
{ "type": "Feature", "properties": { "Name": null, "Description": null, "Label": null, "source_file": "Il-Misqa-Flow-Z-T1_main.geojson" }, "geometry": { "type": "LineString", "coordinates": [ ] } },
{ "type": "Feature", "properties": { "Name": null, "Description": null, "Label": null, "source_file": "Il-Misqa-Flow-Z-T1_main.geojson" }, "geometry": { "type": "LineString", "coordinates": [ ] } },
{ "type": "Feature", "properties": { "Name": null, "Description": null, "Label": null, "source_file": "Il-Misqa-Flow-Z-T1_main.geojson" }, "geometry": { "type": "LineString", "coordinates": [ ] } },
{ "type": "Feature", "properties": { "Name": null, "Description": null, "Label": null, "source_file": "Il-Misqa-Flow-Z-T1_main.geojson" }, "geometry": { "type": "LineString", "coordinates": [ ] } },
{ "type": "Feature", "properties": { "Name": null, "Description": null, "Label": null, "source_file": "Il-Misqa-Flow-Z-T1_main.geojson" }, "geometry": { "type": "LineString", "coordinates": [ ] } },
{ "type": "Feature", "properties": { "Name": null, "Description": null, "Label": null, "source_file": "Il-Misqa-Flow-Z-T1_main.geojson" }, "geometry": { "type": "LineString", "coordinates": [ ] } },
{ "type": "Feature", "properties": { "Name": null, "Description": null, "Label": null, "source_file": "Il-Misqa-Flow-Z-T1_main.geojson" }, "geometry": { "type": "LineString", "coordinates": [ ] } },
{ "type": "Feature", "properties": { "Name": null, "Description": null, "Label": null, "source_file": "Il-Misqa-Flow-Z-T1_main.geojson" }, "geometry": { "type": "LineString", "coordinates": [ ] } },
{ "type": "Feature", "properties": { "Name": null, "Description": null, "Label": null, "source_file": "Il-Misqa-Flow-Z-T1_main.geojson" }, "geometry": { "type": "LineString", "coordinates": [ ] } },
{ "type": "Feature", "properties": { "Name": null, "Description": null, "Label": null, "source_file": "Il-Misqa-Flow-Z-T1_main.geojson" }, "geometry": { "type": "LineString", "coordinates": [ ] } },
{ "type": "Feature", "properties": { "Name": null, "Description": null, "Label": null, "source_file": "Il-Misqa-Flow-Z-T1_main.geojson" }, "geometry": { "type": "LineString", "coordinates": [ ] } },
{ "type": "Feature", "properties": { "Name": null, "Description": null, "Label": null, "source_file": "Il-Misqa-Flow-Z-Out_main.geojson" }, "geometry": { "type": "LineString", "coordinates": [ ] } },
{ "type": "Feature", "properties": { "Name": null, "Description": null, "Label": null, "source_file": "Il-Misqa-Flow-Z-Out_main.geojson" }, "geometry": { "type": "LineString", "coordinates": [ [ 14.435500289042025, 35.829075887911443 ], [ 14.435467536321699, 35.829054368077671 ], [ 14.435445813256321, 35.829043986744367 ] ] } },
{ "type": "Feature", "properties": { "Name": null, "Description": null, "Label": null, "source_file": "Il-Misqa-Flow-Z-Out_main.geojson" }, "geometry": { "type": "LineString", "coordinates": [ [ 14.435178630190308, 35.828951755263226 ], [ 14.435238767209363, 35.828838893761919 ], [ 14.435236315383854, 35.828776417269452 ] ] } },
{ "type": "Feature", "properties": { "Name": null, "Description": null, "Label": null, "source_file": "Il-Misqa-Flow-Z-Out_main.geojson" }, "geometry": { "type": "LineString", "coordinates": [ [ 14.434998410247237, 35.829263233029941 ], [ 14.435021028961948, 35.829134873671627 ], [ 14.435053443904147, 35.829053703726068 ] ] } },
{ "type": "Feature", "properties": { "Name": null, "Description": null, "Label": null, "source_file": "Il-Misqa-Flow-Z-Out_main.geojson" }, "geometry": { "type": "LineString", "coordinates": [ ] } },
{ "type": "Feature", "properties": { "Name": null, "Description": null, "Label": null, "source_file": "Il-Misqa-Flow-Z-Out_main.geojson" }, "geometry": { "type": "LineString", "coordinates": [ ] } },
{ "type": "Feature", "properties": { "Name": null, "Description": null, "Label": null, "source_file": "Il-Misqa-Flow-Z-Out_main.geojson" }, "geometry": { "type": "LineString", "coordinates": [ ] } }
]
}
