{
"type": "FeatureCollection",
"name": "Mqabba_Żurrieq_perched_aquifer_MT011",
"crs": { "type": "name", "properties": { "name": "urn:ogc:def:crs:OGC:1.3:CRS84" } },
"features": [
{ "type": "Feature", "properties": { "Name": "Mqabba-Żurrieq perched aquifer MT011", "Description": "" }, "geometry": { "type": "Polygon", "coordinates": [ [ [ 14.473277080442465, 35.831736816763133, 0.0 ], [ 14.47432852747211, 35.832143800855633, 0.0 ], [ 14.475444278312922, 35.832792484805708, 0.0 ], [ 14.476693045867101, 35.833253960055202, 0.0 ], [ 14.478468014202177, 35.833851833813036, 0.0 ], [ 14.480374776681201, 35.834450251308091, 0.0 ], [ 14.482018554670647, 35.834967029307862, 0.0 ], [ 14.484089040545387, 35.835727045747753, 0.0 ], [ 14.486159566269389, 35.836487026745793, 0.0 ], [ 14.487903632450109, 35.836789550168973, 0.0 ], [ 14.489383652898479, 35.837171402839971, 0.0 ], [ 14.492148128700308, 35.837612322838183, 0.0 ], [ 14.494255981772424, 35.837701687951053, 0.0 ], [ 14.495037368574819, 35.837663238131114, 0.0 ], [ 14.495838346908393, 35.837801444123372, 0.0 ], [ 14.49614999847523, 35.838136310393352, 0.0 ], [ 14.496325640298059, 35.838622442723626, 0.0 ], [ 14.497140766047478, 35.839967124922104, 0.0 ], [ 14.497267972762982, 35.840691942098339, 0.0 ], [ 14.497423050012886, 35.842221636495445, 0.0 ], [ 14.496888813411131, 35.84334606604903, 0.0 ], [ 14.496288330263218, 35.844523865988748, 0.0 ], [ 14.495129098124638, 35.845484713641355, 0.0 ], [ 14.493541188010999, 35.846497394545167, 0.0 ], [ 14.492153315608158, 35.847135345084936, 0.0 ], [ 14.491624107343998, 35.847455011310565, 0.0 ], [ 14.490601542001675, 35.847638458102949, 0.0 ], [ 14.488788407000122, 35.847791710121733, 0.0 ], [ 14.486975783675193, 35.847864460968459, 0.0 ], [ 14.485361535116871, 35.847830732946939, 0.0 ], [ 14.483483883381712, 35.847769025989486, 0.0 ], [ 14.481770796889926, 35.847734824849788, 0.0 ], [ 14.480587842469813, 35.847246861626395, 0.0 ], [ 14.479206344380524, 35.846892153031447, 0.0 ], [ 14.477989416959213, 35.846564968923033, 0.0 ], [ 14.476609528878265, 35.845968809676627, 0.0 ], [ 14.474834482872494, 35.84534408297737, 0.0 ], [ 14.473848220547513, 35.845017864864055, 0.0 ], [ 14.472928568325594, 35.844584629581306, 0.0 ], [ 14.471946235171794, 35.843668256103811, 0.0 ], [ 14.470669734850622, 35.842401849946626, 0.0 ], [ 14.469261854356034, 35.841081199307801, 0.0 ], [ 14.467951777527427, 35.839921917112548, 0.0 ], [ 14.467034728468706, 35.839113093592445, 0.0 ], [ 14.466183764379998, 35.83827773127004, 0.0 ], [ 14.46582930034743, 35.837095841352969, 0.0 ], [ 14.465243890247926, 35.835966573486786, 0.0 ], [ 14.465252710575538, 35.834652170680677, 0.0 ], [ 14.465323993455538, 35.833847727248724, 0.0 ], [ 14.465922333202723, 35.833045626981324, 0.0 ], [ 14.466716690355002, 35.832485821775883, 0.0 ], [ 14.467873921362038, 35.831847142314544, 0.0 ], [ 14.469488192919433, 35.83182745337885, 0.0 ], [ 14.470246541554957, 35.831723496946566, 0.0 ], [ 14.471136828635208, 35.83159329099972, 0.0 ], [ 14.47232268967443, 35.831598503401295, 0.0 ], [ 14.473277080442465, 35.831736816763133, 0.0 ] ] ] } }
]
}
