{
"type": "FeatureCollection",
"name": "Wied_Babu",
"crs": { "type": "name", "properties": { "name": "urn:ogc:def:crs:OGC:1.3:CRS84" } },
"features": [
{ "type": "Feature", "properties": { "name": "Wied Babu", "Description": "Lower part" }, "geometry": { "type": "LineString", "coordinates": [ [ 14.461864, 35.826474 ], [ 14.461655029354079, 35.826361811419702 ], [ 14.461473512797664, 35.826230619352138 ], [ 14.461246802655044, 35.826033529112998 ], [ 14.461156762588018, 35.825916076591604 ], [ 14.461109352475786, 35.8257470126455 ], [ 14.460995916439511, 35.825445136316773 ], [ 14.460738118579796, 35.825145818303739 ], [ 14.46050880744256, 35.824903267626958 ], [ 14.460312280560723, 35.824664069757496 ], [ 14.460179928597457, 35.824443327359219 ], [ 14.460057741824127, 35.824271789750448 ], [ 14.459943718186766, 35.824057541495968 ], [ 14.459813666727253, 35.823884899615415 ], [ 14.459640140479552, 35.823737710471491 ], [ 14.459494279013658, 35.823574615283924 ], [ 14.459242017050359, 35.823428140154647 ], [ 14.458902203970439, 35.823227836392583 ], [ 14.458721098116623, 35.823037864595278 ], [ 14.458630147045593, 35.822904938657977 ], [ 14.458590391945565, 35.822769037224596 ], [ 14.458562540665612, 35.822619296556191 ], [ 14.458586109931856, 35.822433452380565 ], [ 14.458587002549926, 35.822302008741914 ], [ 14.458587902419204, 35.822169496452858 ], [ 14.458520353311711, 35.82206873623231 ], [ 14.458464410375102, 35.821997951309257 ], [ 14.458526868790065, 35.82185634932943 ], [ 14.458578678903997, 35.821762806020864 ], [ 14.458637784943601, 35.821641509860797 ], [ 14.458563185682864, 35.821532346574877 ], [ 14.458456, 35.821412 ] ] } },
{ "type": "Feature", "properties": { "name": "", "Description": "Wied Babu Upper W" }, "geometry": { "type": "LineString", "coordinates": [ [ 14.461891681702371, 35.828239472307061 ], [ 14.462033490797886, 35.828032783333484 ], [ 14.462074321948943, 35.827816024172833 ], [ 14.462071019881215, 35.827721965607054 ], [ 14.462077393835816, 35.827555280144658 ], [ 14.462111843748342, 35.827311775405938 ], [ 14.462119883134621, 35.827092732086498 ], [ 14.462074633210923, 35.826992073700531 ], [ 14.462000853551668, 35.826841059656765 ], [ 14.461940657980731, 35.826621710883657 ], [ 14.461864, 35.826474 ] ] } },
{ "type": "Feature", "properties": { "name": "", "Description": "Wied Babu Upper E" }, "geometry": { "type": "LineString", "coordinates": [ [ 14.465455420182741, 35.827323486258535 ], [ 14.465294094635386, 35.827115444806623 ], [ 14.465086490815247, 35.826959562488007 ], [ 14.464749279508608, 35.826758218151092 ], [ 14.46449831714221, 35.826610691157526 ], [ 14.46404642183581, 35.826486847456394 ], [ 14.463640210880515, 35.826399541045411 ], [ 14.463371308135766, 35.826383379248945 ], [ 14.463082887887403, 35.826342550032223 ], [ 14.462800568090719, 35.826370142890546 ], [ 14.462613837851222, 35.826428085538573 ], [ 14.462312014618014, 35.826428873053423 ], [ 14.461864, 35.826474 ] ] } }
]
}
