{
"type": "FeatureCollection",
"name": "Wied_Iż-Żurrieq",
"crs": { "type": "name", "properties": { "name": "urn:ogc:def:crs:OGC:1.3:CRS84" } },
"features": [
{ "type": "Feature", "properties": { "name": "Wied iż-Żurrieq", "Description": "" }, "geometry": { "type": "LineString", "coordinates": [ [ 14.452395076510143, 35.821942588936579, 23.398771424274258 ], [ 14.45243793255659, 35.821810111893164, 23.398771424274258 ], [ 14.452468704866803, 35.821671185534235, 23.398771424274258 ], [ 14.452412279010508, 35.821521714365495, 23.398771424274258 ], [ 14.452359545822585, 35.821384306617333, 23.398771424274258 ], [ 14.452322913335056, 35.82130543625204, 23.398771424274258 ], [ 14.452265339496419, 35.821237701597447, 23.398771424274258 ], [ 14.452166491398534, 35.821158911892574, 23.398771424274258 ], [ 14.452091475277062, 35.821053434582723, 23.398771424274258 ], [ 14.452047684694287, 35.820953080625273, 23.398771424274258 ], [ 14.452033160142284, 35.820858776317849, 0.0 ], [ 14.451996526252023, 35.820734388630406, 16.072891910938569 ], [ 14.451855409184644, 35.820610660808391, 0.0 ], [ 14.451739943543759, 35.82047733335024, 16.072891910938569 ], [ 14.451599164087956, 35.820302612660107, 0.0 ], [ 14.451459939642893, 35.820082570782397, 0.0 ], [ 14.451403422663285, 35.819826472372853, 0.0 ], [ 14.451345767035571, 35.819518624895835, 16.072891910938569 ] ] } },
{ "type": "Feature", "properties": { "name": "", "Description": "Wied iż-Żurrieq upper part" }, "geometry": { "type": "LineString", "coordinates": [ [ 14.452395204066516, 35.821942693991417, 0.0 ], [ 14.452413139454428, 35.82194611885987, 0.0 ], [ 14.452439376942346, 35.821951930005177, 0.0 ], [ 14.452465879065807, 35.821966494498831, 0.0 ], [ 14.452526165298636, 35.821991717427302, 0.0 ], [ 14.452594185587428, 35.822053899286288, 0.0 ], [ 14.452715940351235, 35.822134576361911, 0.0 ], [ 14.452840012362126, 35.822265069829292, 0.0 ], [ 14.45287329886208, 35.822451452352453, 0.0 ], [ 14.452869644403803, 35.822596522657598, 0.0 ], [ 14.452855295197869, 35.82275020618308, 0.0 ], [ 14.45288067973785, 35.822925725336972, 0.0 ], [ 14.452901043914093, 35.823057912099465, 0.0 ], [ 14.452947996522974, 35.82319021987081, 0.0 ], [ 14.452934211991103, 35.823261617855998, 0.0 ], [ 14.452856422041169, 35.823360875691968, 0.0 ], [ 14.452765753852242, 35.823399441504769, 0.0 ], [ 14.452701629429386, 35.823444624544017, 0.0 ], [ 14.452543835640316, 35.823578165479908, 0.0 ], [ 14.452433, 35.8236959, 0.0 ] ] } }
]
}
