{
"type": "FeatureCollection",
"name": "Wied_Ħoxt_Wied_Iż-Żurrieq_valley",
"crs": { "type": "name", "properties": { "name": "urn:ogc:def:crs:OGC:1.3:CRS84" } },
"features": [
{ "type": "Feature", "properties": { "Name": "Wied Ħoxt - Wied Iż-Żurrieq valley", "Description": "" }, "geometry": { "type": "Polygon", "coordinates": [ [ [ 14.446336222245204, 35.826314856816524, 0.0 ], [ 14.446433963172135, 35.826237547733662, 0.0 ], [ 14.446484866527198, 35.826181683283053, 0.0 ], [ 14.446547094422121, 35.826148310510554, 0.0 ], [ 14.44661395336782, 35.826109349139131, 0.0 ], [ 14.446616522045179, 35.826070091746281, 0.0 ], [ 14.446662573416219, 35.826051604135628, 0.0 ], [ 14.44675452036399, 35.826037067698209, 0.0 ], [ 14.446844223103577, 35.826015041010415, 0.0 ], [ 14.446922627041989, 35.825966782783027, 0.0 ], [ 14.447016986664723, 35.825935427579822, 0.0 ], [ 14.447067850508292, 35.825885172583966, 0.0 ], [ 14.447137108801359, 35.82583126225196, 0.0 ], [ 14.447229198042367, 35.82579615651116, 0.0 ], [ 14.447291503116759, 35.825751563925429, 0.0 ], [ 14.447369815786143, 35.825716394723401, 0.0 ], [ 14.447459699451882, 35.825668188922094, 0.0 ], [ 14.447604766339948, 35.825609016902725, 0.0 ], [ 14.447653268759595, 35.825568100616564, 0.0 ], [ 14.447713329175734, 35.825516017640943, 0.0 ], [ 14.447777916870185, 35.82547330525059, 0.0 ], [ 14.447863000675456, 35.825454996501236, 0.0 ], [ 14.447934282177533, 35.825440364222715, 0.0 ], [ 14.447969059761876, 35.825391904913317, 0.0 ], [ 14.448031558317785, 35.82531926337839, 0.0 ], [ 14.448078230310834, 35.82521101983437, 0.0 ], [ 14.448202256121398, 35.825205979398085, 0.0 ], [ 14.448255608934881, 35.825127685865603, 0.0 ], [ 14.448315396875168, 35.825114870560881, 0.0 ], [ 14.44837306989333, 35.825075866033565, 0.0 ], [ 14.448474147873059, 35.82506885003157, 0.0 ], [ 14.44853183371637, 35.825027975522794, 0.0 ], [ 14.448642289812124, 35.824992952956272, 0.0 ], [ 14.448794216887864, 35.824937550881401, 0.0 ], [ 14.448881725213642, 35.824900552890291, 0.0 ], [ 14.448976754912129, 35.824771961106883, 0.0 ], [ 14.449060536720275, 35.824609658344158, 0.0 ], [ 14.4492494835582, 35.824513286169726, 0.0 ], [ 14.449433799135521, 35.824422502371768, 0.0 ], [ 14.449671645846291, 35.824227245431821, 0.0 ], [ 14.449888543332165, 35.824073031334628, 0.0 ], [ 14.449969484672259, 35.823989253388909, 0.0 ], [ 14.450052515472132, 35.823935404368484, 0.0 ], [ 14.450257583210833, 35.823831624489927, 0.0 ], [ 14.450441818734351, 35.82375205854175, 0.0 ], [ 14.450419799606546, 35.823615450495709, 0.0 ], [ 14.450597533034395, 35.823479755652393, 0.0 ], [ 14.450607129408281, 35.823419960666406, 0.0 ], [ 14.450688623339463, 35.823255776290829, 0.0 ], [ 14.450891804641078, 35.823092147832803, 0.0 ], [ 14.450995665218075, 35.823014083768413, 0.0 ], [ 14.451053258156731, 35.822986297349033, 0.0 ], [ 14.451090354505695, 35.822934107765576, 0.0 ], [ 14.451161839144026, 35.822889555053997, 0.0 ], [ 14.451226731776504, 35.822801963024041, 0.0 ], [ 14.451314738532318, 35.822692036900143, 0.0 ], [ 14.451409298448688, 35.822630759692025, 0.0 ], [ 14.451540838305556, 35.822534121828696, 0.0 ], [ 14.451646916330029, 35.822467287093396, 0.0 ], [ 14.451785382125829, 35.822365070660489, 0.0 ], [ 14.45193691640995, 35.822365761702422, 0.0 ], [ 14.452022175904771, 35.822321271278781, 0.0 ], [ 14.452130677713464, 35.822235747515478, 0.0 ], [ 14.452271168684794, 35.822172809002296, 0.0 ], [ 14.45233827841027, 35.822096446244998, 0.0 ], [ 14.452375604690472, 35.822010597935659, 0.0 ], [ 14.452369346152251, 35.82191894115239, 0.0 ], [ 14.452402080395725, 35.821833071910198, 0.0 ], [ 14.45240964894731, 35.821733998259496, 0.0 ], [ 14.45235296932241, 35.821629022003769, 0.0 ], [ 14.452348891186674, 35.821554204831394, 0.0 ], [ 14.452320020037419, 35.82141195595878, 0.0 ], [ 14.452272730063497, 35.821277103005997, 0.0 ], [ 14.452172261054486, 35.821196236654906, 0.0 ], [ 14.452083528944604, 35.821078024423151, 0.0 ], [ 14.452024541420506, 35.820974907449603, 0.0 ], [ 14.452004803358889, 35.82084017998708, 0.0 ], [ 14.451968479766702, 35.820780175501582, 0.0 ], [ 14.451881800100137, 35.820697501809221, 0.0 ], [ 14.4517286159801, 35.820603304934629, 0.0 ], [ 14.451587027579777, 35.820492331085241, 0.0 ], [ 14.451523410701281, 35.820394802634155, 0.0 ], [ 14.451454803345605, 35.820355220292036, 0.0 ], [ 14.451389559861196, 35.820160446159527, 0.0 ], [ 14.451321210126121, 35.8200834656136, 0.0 ], [ 14.451337628898381, 35.820033051499394, 0.0 ], [ 14.451283119090162, 35.819946784276873, 0.0 ], [ 14.451259215389515, 35.819750328806315, 0.0 ], [ 14.451191419558072, 35.819592942204984, 0.0 ], [ 14.451134730157719, 35.819489835271554, 0.0 ], [ 14.451137648007295, 35.819257285611215, 0.0 ], [ 14.451142370878083, 35.819032360491775, 0.0 ], [ 14.451194177241049, 35.818885218166656, 0.0 ], [ 14.451208014096235, 35.81871980330947, 0.0 ], [ 14.451199789667168, 35.818531017375768, 0.0 ], [ 14.451232762257955, 35.818352761898105, 0.0 ], [ 14.451174120032816, 35.818109448282975, 0.0 ], [ 14.451137877306289, 35.817840380964746, 0.0 ], [ 14.451152034394974, 35.817628426842496, 0.0 ], [ 14.45114029761125, 35.817488751135585, 0.0 ], [ 14.451489486022124, 35.817490345037669, 0.0 ], [ 14.451474227155018, 35.817862601052383, 0.0 ], [ 14.451536329131221, 35.818064560806917, 0.0 ], [ 14.451573142342344, 35.818250891579979, 0.0 ], [ 14.451622582507076, 35.818447622320363, 0.0 ], [ 14.45168500532332, 35.818603042747064, 0.0 ], [ 14.451699473217536, 35.818807370695495, 0.0 ], [ 14.451627838464402, 35.819068188932555, 0.0 ], [ 14.451577174623717, 35.819254369138875, 0.0 ], [ 14.451587290775224, 35.819452631626454, 0.0 ], [ 14.451568203407451, 35.819557262600256, 0.0 ], [ 14.451596853948251, 35.819731300092073, 0.0 ], [ 14.45158518153872, 35.819759296317017, 0.0 ], [ 14.45160050689544, 35.819867824222783, 0.0 ], [ 14.451592886102096, 35.819974377472086, 0.0 ], [ 14.451626707376956, 35.820064290103602, 0.0 ], [ 14.451681629132334, 35.820090720163989, 0.0 ], [ 14.451727212989855, 35.820139547188916, 0.0 ], [ 14.451827435964274, 35.820255942134558, 0.0 ], [ 14.451874968840956, 35.820355267049919, 0.0 ], [ 14.451940367907817, 35.820527602046838, 0.0 ], [ 14.452001882258054, 35.820597071216326, 0.0 ], [ 14.452038295751562, 35.820643986347783, 0.0 ], [ 14.452118498919253, 35.820666791526861, 0.0 ], [ 14.452127502733878, 35.820693012077236, 0.0 ], [ 14.452111315607686, 35.820709767980659, 0.0 ], [ 14.452094999976683, 35.82074522294635, 0.0 ], [ 14.452101579367218, 35.820790132097287, 0.0 ], [ 14.452121985741877, 35.820827624412466, 0.0 ], [ 14.452089739924764, 35.82084243715007, 0.0 ], [ 14.452082530880308, 35.820889153413439, 0.0 ], [ 14.452168761275942, 35.821037273685945, 0.0 ], [ 14.452168452918494, 35.821082151439036, 0.0 ], [ 14.452197888979834, 35.821142124473049, 0.0 ], [ 14.452245885307301, 35.821174132607162, 0.0 ], [ 14.452355807855485, 35.821215772706175, 0.0 ], [ 14.45242650686599, 35.821285283500352, 0.0 ], [ 14.452412371613834, 35.821337578122545, 0.0 ], [ 14.452436817953243, 35.821455497275451, 0.0 ], [ 14.452438471796301, 35.821549003050805, 0.0 ], [ 14.452499743386342, 35.821654000184076, 0.0 ], [ 14.452510337159769, 35.82178307600666, 0.0 ], [ 14.452479757759225, 35.821889524707103, 0.0 ], [ 14.452483219648931, 35.822054097368799, 0.0 ], [ 14.452436979283425, 35.82210063584624, 0.0 ], [ 14.452392765118457, 35.822186452793368, 0.0 ], [ 14.452366636057848, 35.822313491342008, 0.0 ], [ 14.452221167533381, 35.822432506216266, 0.0 ], [ 14.452046056470714, 35.82252146634886, 0.0 ], [ 14.451873690955654, 35.822544989988309, 0.0 ], [ 14.451693987299883, 35.822633928660316, 0.0 ], [ 14.451461346953971, 35.822741325131489, 0.0 ], [ 14.451345930042001, 35.822830556641492, 0.0 ], [ 14.45128332063577, 35.822920029123374, 0.0 ], [ 14.451184168294873, 35.82298128525882, 0.0 ], [ 14.451123854581626, 35.823070768136184, 0.0 ], [ 14.451065720852847, 35.823177090614891, 0.0 ], [ 14.450981841635739, 35.823354354105554, 0.0 ], [ 14.450841128603816, 35.823449079460843, 0.0 ], [ 14.450720782988292, 35.823586906898711, 0.0 ], [ 14.450564010043324, 35.823679688566287, 0.0 ], [ 14.450586441806955, 35.823756459625734, 0.0 ], [ 14.450413364225756, 35.823882825912911, 0.0 ], [ 14.450316789683836, 35.823902953896805, 0.0 ], [ 14.450217532215424, 35.823979168446485, 0.0 ], [ 14.450056514148931, 35.824021441000049, 0.0 ], [ 14.450005292166349, 35.824124054636478, 0.0 ], [ 14.449790910185335, 35.824246491075407, 0.0 ], [ 14.449566865724659, 35.824438071532661, 0.0 ], [ 14.44925350722519, 35.824595583003642, 0.0 ], [ 14.449184548589704, 35.824606486788809, 0.0 ], [ 14.449108262484783, 35.824680935710177, 0.0 ], [ 14.44911678764517, 35.824776342921979, 0.0 ], [ 14.44903112328076, 35.824878798259661, 0.0 ], [ 14.448934288676558, 35.824936323199069, 0.0 ], [ 14.448816879997228, 35.824980663969413, 0.0 ], [ 14.448713105242094, 35.82504563675576, 0.0 ], [ 14.448598147538481, 35.825067548992045, 0.0 ], [ 14.448531225751157, 35.82511586101014, 0.0 ], [ 14.448439228423549, 35.825137878437019, 0.0 ], [ 14.448413596636984, 35.825191989747687, 0.0 ], [ 14.448332937186443, 35.825234628719386, 0.0 ], [ 14.448233947896128, 35.825271573601377, 0.0 ], [ 14.448162511267737, 35.825308644905448, 0.0 ], [ 14.448100142295639, 35.825362587472164, 0.0 ], [ 14.448065351856975, 35.825412916724268, 0.0 ], [ 14.44798234407782, 35.825463024525853, 0.0 ], [ 14.447885495061952, 35.825522418505372, 0.0 ], [ 14.447805029222616, 35.825537008559948, 0.0 ], [ 14.447742582105246, 35.825602170356817, 0.0 ], [ 14.447668810019456, 35.825644840521562, 0.0 ], [ 14.447583557514845, 35.825687457876164, 0.0 ], [ 14.44750301369681, 35.825713267147009, 0.0 ], [ 14.44737172296643, 35.825772502382662, 0.0 ], [ 14.447307199635185, 35.825805865031683, 0.0 ], [ 14.447267803390778, 35.82585804282995, 0.0 ], [ 14.447101889561061, 35.82594329802221, 0.0 ], [ 14.447014158760565, 35.826012083048305, 0.0 ], [ 14.446892090417245, 35.826065750295058, 0.0 ], [ 14.44682735903535, 35.82612903113106, 0.0 ], [ 14.446652052162424, 35.826244161867962, 0.0 ], [ 14.446511406806785, 35.826327662600249, 0.0 ], [ 14.446414166079759, 35.826443152453884, 0.0 ], [ 14.446312358860908, 35.82655488126381, 0.0 ], [ 14.446159959299827, 35.826677596642845, 0.0 ], [ 14.446064779838936, 35.826826755027284, 0.0 ], [ 14.445952045108379, 35.827003258524208, 0.0 ], [ 14.445768460593429, 35.827186992987805, 0.0 ], [ 14.445555480196759, 35.8273465157963, 0.0 ], [ 14.44552364266371, 35.827353355423774, 0.0 ], [ 14.445472300943489, 35.827339154576933, 0.0 ], [ 14.445427599441224, 35.82731382479075, 0.0 ], [ 14.44539033882187, 35.82728990246359, 0.0 ], [ 14.445345991700611, 35.827256184264421, 0.0 ], [ 14.445322239559491, 35.827219768299365, 0.0 ], [ 14.445327558332647, 35.827194657678206, 0.0 ], [ 14.44539664853237, 35.827122363798402, 0.0 ], [ 14.445468746711699, 35.827065231729961, 0.0 ], [ 14.44556388969502, 35.826990477558574, 0.0 ], [ 14.445644933284273, 35.826925220662815, 0.0 ], [ 14.445890922000389, 35.826581650813999, 0.0 ], [ 14.446187714822706, 35.826414488336113, 0.0 ], [ 14.446336222245204, 35.826314856816524, 0.0 ] ] ] } }
]
}
