{
"type": "FeatureCollection",
"name": "Wied_Ħoxt_valley_head_catchment_area",
"crs": { "type": "name", "properties": { "name": "urn:ogc:def:crs:OGC:1.3:CRS84" } },
"features": [
{ "type": "Feature", "properties": { "Name": "Wied Ħoxt, valley head catchment area", "Description": "", "area": 802783.0617 }, "geometry": { "type": "Polygon", "coordinates": [ [ [ 14.446096849000073, 35.827044536000066, 0.0 ], [ 14.446766162497969, 35.827273859375154, 0.0 ], [ 14.447616082774623, 35.827239481814381, 0.0 ], [ 14.448271166944386, 35.82788321518246, 0.0 ], [ 14.448255296506803, 35.828639821399811, 0.0 ], [ 14.448155897410571, 35.830046147322548, 0.0 ], [ 14.448826894990239, 35.831102365347654, 0.0 ], [ 14.44925712629909, 35.832234486261399, 0.0 ], [ 14.449869367077548, 35.833368665942452, 0.0 ], [ 14.450592382865388, 35.834375823586079, 0.0 ], [ 14.45089519010368, 35.835299135279989, 0.0 ], [ 14.449971845515472, 35.83540608895094, 0.0 ], [ 14.449096231661944, 35.83552524217756, 0.0 ], [ 14.44837305475607, 35.835546247589768, 0.0 ], [ 14.447338957761506, 35.835545992396277, 0.0 ], [ 14.445977007580659, 35.835498329613998, 0.0 ], [ 14.444265859300662, 35.835112281838171, 0.0 ], [ 14.44292760482181, 35.834538531427519, 0.0 ], [ 14.441801079590014, 35.833727572426312, 0.0 ], [ 14.44068398741495, 35.83315568364128, 0.0 ], [ 14.440118529218282, 35.832036724932856, 0.0 ], [ 14.44044611794436, 35.830852109173549, 0.0 ], [ 14.440900496144176, 35.830321862751326, 0.0 ], [ 14.441426596098799, 35.829324940074187, 0.0 ], [ 14.441861638214988, 35.828656703259114, 0.0 ], [ 14.442549099789579, 35.827627212720827, 0.0 ], [ 14.443065959276266, 35.826879208766265, 0.0 ], [ 14.443764965849761, 35.826103605992202, 0.0 ], [ 14.444633803003621, 35.826014428159162, 0.0 ], [ 14.445352164461061, 35.826257408518771, 0.0 ], [ 14.446096849000073, 35.827044536000066, 0.0 ] ] ] } }
]
}
