{
"type": "FeatureCollection",
"name": "Wied_Ħoxt_Wied_Iż-Żurrieq_combined",
"crs": { "type": "name", "properties": { "name": "urn:ogc:def:crs:OGC:1.3:CRS84" } },
"features": [
{ "type": "Feature", "properties": { "name": "Wied Ħoxt Wied_iż-Żurrieq", "Description": "" }, "geometry": { "type": "LineString", "coordinates": [ [ 14.44559640388775, 35.827303637107036, 111.806228607907002 ], [ 14.445643635523398, 35.827268484219715, 0.0 ], [ 14.445681151467438, 35.827231923720639, 0.0 ], [ 14.445711966492276, 35.827186655063628, 0.0 ], [ 14.445739958586245, 35.827135731515561, 0.0 ], [ 14.445776367176185, 35.827099586493894, 0.0 ], [ 14.44584070682148, 35.82706357610973, 0.0 ], [ 14.445867776323478, 35.827022409369455, 0.0 ], [ 14.445905132447923, 35.826970734839328, 0.0 ], [ 14.445916790192918, 35.826949585221243, 0.0 ], [ 14.445926267892935, 35.826926640005915, 111.806228607907002 ], [ 14.445941455056746, 35.82689339800605, 0.0 ], [ 14.445976716939095, 35.826848470925775, 0.0 ], [ 14.446005615476919, 35.826801368891978, 0.0 ], [ 14.446046401135145, 35.826753851688828, 0.0 ], [ 14.446105170939045, 35.826659913054527, 0.0 ], [ 14.446171484828804, 35.826568138816583, 111.806228607907002 ], [ 14.44623813236792, 35.826466839217836, 111.806228607907002 ], [ 14.44642785568514, 35.826267607328226, 111.806228607907002 ], [ 14.4466529439251, 35.826073591502571, 111.806228607907002 ], [ 14.446860035783818, 35.826042532839644, 111.806228607907002 ], [ 14.446973493402641, 35.826013907439759, 111.806228607907002 ], [ 14.447095861919063, 35.825907038530197, 0.0 ], [ 14.447238820897947, 35.825829845380092, 111.806228607907002 ], [ 14.447373255728611, 35.825742729870747, 111.806228607907002 ], [ 14.447414842980534, 35.825709737407379, 111.806228607907002 ], [ 14.447480019198899, 35.825710044203475, 111.806228607907002 ], [ 14.44752479710645, 35.825689537886753, 111.806228607907002 ], [ 14.447643259454422, 35.825617689069105, 111.806228607907002 ], [ 14.4477288966189, 35.825540388769582, 111.806228607907002 ], [ 14.447815588009849, 35.825488486040577, 111.806228607907002 ], [ 14.44795435912733, 35.825456673736461, 111.806228607907002 ], [ 14.448051452574967, 35.82536607069099, 111.806228607907002 ], [ 14.44820725414961, 35.825243074206718, 111.806228607907002 ], [ 14.448313440541256, 35.825231897872847, 111.806228607907002 ], [ 14.448350350615026, 35.825184426179028, 0.0 ], [ 14.448330493892779, 35.825132340825093, 111.806228607907002 ], [ 14.448402450172591, 35.825096999510492, 111.806228607907002 ], [ 14.448484006187419, 35.825097002063337, 111.806228607907002 ], [ 14.448646280156185, 35.825026132098962, 111.806228607907002 ], [ 14.448738058153731, 35.825001673632208, 0.0 ], [ 14.44882126690395, 35.824957003479192, 111.806228607907002 ], [ 14.448918200488697, 35.82490998736715, 111.806228607907002 ], [ 14.449011757526177, 35.8248274067222, 0.0 ], [ 14.449065699505166, 35.824747681267368, 111.806228607907002 ], [ 14.44911529614174, 35.824624912772002, 111.806228607907002 ], [ 14.449216945511626, 35.82456765897517, 111.806228607907002 ], [ 14.449345866666011, 35.824510921343943, 111.806228607907002 ], [ 14.449484948144091, 35.824438431759646, 111.806228607907002 ], [ 14.449647105062203, 35.824303782491427, 111.806228607907002 ], [ 14.449789547698382, 35.824188289523718, 111.806228607907002 ], [ 14.449947188435113, 35.824085212545533, 111.806228607907002 ], [ 14.450091946045141, 35.823998074590648, 111.806228607907002 ], [ 14.45029637031487, 35.8238932612851, 111.806228607907002 ], [ 14.45041383713348, 35.823853955616663, 0.0 ], [ 14.450504267212649, 35.823766287346324, 111.806228607907002 ], [ 14.450529305405805, 35.823709635219807, 0.0 ], [ 14.45050391872627, 35.823640042124318, 111.806228607907002 ], [ 14.450575080102254, 35.823579500101587, 111.806228607907002 ], [ 14.4506710594063, 35.823522779526989, 0.0 ], [ 14.450759960085181, 35.82343085958405, 111.806228607907002 ], [ 14.450880162166058, 35.823353509373845, 111.806228607907002 ], [ 14.450895985812204, 35.823270644544706, 0.0 ], [ 14.45096796981125, 35.823158952869221, 111.806228607907002 ], [ 14.451039216407397, 35.823049796058015, 111.806228607907002 ], [ 14.451119322754954, 35.822953643216941, 111.806228607907002 ], [ 14.451230492904752, 35.822887280240828, 111.806228607907002 ], [ 14.451341372137479, 35.822793851662261, 111.806228607907002 ], [ 14.451386505067124, 35.822738686179825, 111.806228607907002 ], [ 14.451500049274017, 35.822680397585302, 111.806228607907002 ], [ 14.451735909004862, 35.822568700305432, 111.806228607907002 ], [ 14.451888275830017, 35.822510013210348, 111.806228607907002 ], [ 14.452047110808087, 35.822473868320152, 0.0 ], [ 14.452170832455298, 35.82239528736698, 23.863920865940081 ], [ 14.452256511239302, 35.822363916479013, 23.398771424274258 ], [ 14.452318376198139, 35.822295036194475, 23.398771424274258 ], [ 14.452390383630968, 35.822095483950534, 23.398771424274258 ], [ 14.452400732679548, 35.822062051812061, 0.0 ], [ 14.452404105888283, 35.822040401529563, 0.0 ], [ 14.452405051773544, 35.822020053258335, 0.0 ], [ 14.45240363346557, 35.821991815798036, 0.0 ], [ 14.452395100039853, 35.821943193341781, 0.0 ], [ 14.452395076510143, 35.821942588936579, 23.398771424274258 ], [ 14.45243793255659, 35.821810111893164, 23.398771424274258 ], [ 14.452468704866803, 35.821671185534235, 23.398771424274258 ], [ 14.452412279010508, 35.821521714365495, 23.398771424274258 ], [ 14.452359545822585, 35.821384306617333, 23.398771424274258 ], [ 14.452322913335056, 35.82130543625204, 23.398771424274258 ], [ 14.452265339496419, 35.821237701597447, 23.398771424274258 ], [ 14.452166491398534, 35.821158911892574, 23.398771424274258 ], [ 14.452091475277062, 35.821053434582723, 23.398771424274258 ], [ 14.452047684694287, 35.820953080625273, 23.398771424274258 ], [ 14.452033160142284, 35.820858776317849, 0.0 ], [ 14.451996526252023, 35.820734388630406, 16.072891910938569 ], [ 14.451855409184644, 35.820610660808391, 0.0 ], [ 14.451739943543759, 35.82047733335024, 16.072891910938569 ], [ 14.451599164087956, 35.820302612660107, 0.0 ], [ 14.451459939642893, 35.820082570782397, 0.0 ], [ 14.451403422663285, 35.819826472372853, 0.0 ], [ 14.451345767035571, 35.819518624895835, 16.072891910938569 ], [ 14.451356502068151, 35.819342185822443, 0.0 ], [ 14.451393948648709, 35.819093353034695, 0.0 ], [ 14.451435076129137, 35.818886576610915, 0.0 ], [ 14.451456529626549, 35.818653839868162, 0.0 ], [ 14.451438346397493, 35.818411220787787, 0.0 ], [ 14.451388178221771, 35.818200793868343, 0.0 ], [ 14.45134590642731, 35.817996870593809, 0.0 ], [ 14.451323397348862, 35.817805972767879, 0.0 ], [ 14.451333384967114, 35.817508507365226, 0.0 ] ] } }
]
}
